{"type": "Feature", "geometry": {"type": "MultiPolygon", "coordinates": [[[[77.5113425267188, 12.8906546813198], [77.5109932171083, 12.8901644401377], [77.5106335488582, 12.8896814623306], [77.5102912784865, 12.8892619227403], [77.5098981737152, 12.8888614874974], [77.5094309174263, 12.8884360934382], [77.5087723976503, 12.887909141673], [77.5081354445151, 12.8874690354108], [77.5075906707907, 12.8871442992631], [77.5069022854877, 12.886786408636], [77.5063860869616, 12.8865570216336], [77.5057734439412, 12.8862943297806], [77.5052943177383, 12.8860792020543], [77.5048182952891, 12.8858575402304], [77.5043454710141, 12.8856293894953], [77.5038759346924, 12.885394791467], [77.5034097789275, 12.8851537940612], [77.5029470944534, 12.8849064425021], [77.5024879701971, 12.8846527856457], [77.5020324960052, 12.8843928723398], [77.5015807608296, 12.8841267541523], [77.5010670728921, 12.8838272807348], [77.5003950330741, 12.883407519855], [77.4997392441566, 12.8829637086081], [77.4991006018907, 12.8824964502152], [77.4984799756511, 12.8820063833947], [77.4980485184506, 12.8816714296895], [77.4976413699989, 12.8813526182047], [77.4973460898229, 12.8812835399119], [77.497045542616, 12.8808661041747], [77.4964168380578, 12.8805620198219], [77.4964846802573, 12.8798835279103], [77.4957243142259, 12.8800336828999], [77.4955748717627, 12.8795440908403], [77.495034313872, 12.8791401508531], [77.4946093757877, 12.8785691380525], [77.4942414452114, 12.8781720305417], [77.4939390288393, 12.8776545678852], [77.4932536726624, 12.8772331945946], [77.4928327528775, 12.8765329400118], [77.4922395341501, 12.875749867041], [77.4917677995591, 12.8750748339538], [77.491467018605, 12.8746439955982], [77.4910485739094, 12.8740816573913], [77.4906097256329, 12.8735344959113], [77.4901510444137, 12.8730032230072], [77.489794963225, 12.8726150776815], [77.4889943324503, 12.8717820422978], [77.4888734424716, 12.8718207640547], [77.4875659605491, 12.8716770723448], [77.4862084829052, 12.8711695924268], [77.4859768451873, 12.8712108175503], [77.4855798660821, 12.8712926409638], [77.4846215216275, 12.8715944368596], [77.4846029813996, 12.8717312079981], [77.484532436028, 12.8718456388473], [77.4831347311194, 12.8741128014641], [77.4827385356431, 12.8739374902762], [77.4826885861014, 12.8739153867807], [77.4813243072016, 12.8740649122748], [77.4810992970787, 12.8741060708804], [77.4810745712123, 12.8742884349824], [77.481131062475, 12.8746391481827], [77.4812563786995, 12.8745729145689], [77.4812795294042, 12.874904429476], [77.4813417540919, 12.8751640233021], [77.4813486410417, 12.8751899764776], [77.4811505293296, 12.8752699103598], [77.4812126250922, 12.8755164948728], [77.481270141417, 12.8759712737166], [77.4813785780452, 12.8762109147023], [77.4815150057173, 12.8765999001126], [77.4815343878453, 12.8769867671501], [77.4815397609192, 12.8770940136231], [77.4816446430148, 12.8776459116922], [77.4816945057213, 12.8779966872486], [77.4816231791254, 12.8779976225141], [77.4799046452619, 12.8780201481595], [77.4795125528155, 12.8779262916673], [77.4789231802086, 12.8779969181882], [77.4786388206845, 12.8780711600176], [77.4782327656427, 12.8779058835761], [77.4777643836984, 12.8781444812391], [77.4770021326958, 12.8781647032641], [77.4766985884941, 12.8783106747774], [77.4758113350209, 12.8784296426413], [77.475656193195, 12.8788343969067], [77.475486638084, 12.8791222036342], [77.4752182187133, 12.8794694863751], [77.4748965706173, 12.8797977579784], [77.4748193796804, 12.880039159678], [77.4749053852538, 12.880695314318], [77.4751466001615, 12.8809532192373], [77.4758077080039, 12.8814348137353], [77.4759895368043, 12.8815447450308], [77.4765557702468, 12.8819936408195], [77.4776937184283, 12.8830951613764], [77.4782165133039, 12.883669123055], [77.4784855322554, 12.8840568510031], [77.478773673943, 12.8843663447781], [77.4789006985527, 12.8844312725821], [77.4789858350822, 12.884590110584], [77.4790367003433, 12.8847709402728], [77.4790215708586, 12.8848067750231], [77.4789377004427, 12.8852878856462], [77.4789451460441, 12.8854693154129], [77.4789364505425, 12.8855908967042], [77.4789118437251, 12.8856699937588], [77.4788272975257, 12.8858210694473], [77.4787557226406, 12.8860573761933], [77.4787846083971, 12.8861587242684], [77.4788370098572, 12.886220761845], [77.4788971067545, 12.8862553690625], [77.4790047011748, 12.8862582584973], [77.4791641577192, 12.8862684728841], [77.4794107150384, 12.8862231452995], [77.4799390255572, 12.8860657089989], [77.4802072096302, 12.8859877803776], [77.4807313247476, 12.8860152082853], [77.4809146830921, 12.8860251950534], [77.4812011120631, 12.8859833946847], [77.481240986701, 12.8859728349786], [77.4822433569778, 12.8858584033187], [77.4824247743797, 12.8858068747818], [77.4826770932639, 12.8858077818827], [77.4827443827016, 12.8858790728929], [77.4828298740251, 12.8859882163222], [77.4828427883095, 12.8860147256657], [77.4828835486707, 12.8861081422777], [77.4829137824684, 12.8863462709315], [77.4829002756416, 12.8865926299252], [77.4828268603564, 12.8868239247762], [77.4825500781293, 12.8874401757991], [77.4823410526523, 12.8880596916589], [77.4821930881728, 12.8888115156507], [77.4821359168299, 12.8890739232757], [77.4820380982999, 12.8892546389072], [77.4815175414462, 12.8897950329718], [77.4812611107032, 12.8900515150132], [77.4811072153351, 12.8902014953785], [77.4810159384613, 12.890237534637], [77.4809124408162, 12.8902463341508], [77.4806409400701, 12.890186371987], [77.480240655354, 12.8899947473677], [77.4798840768393, 12.8897909783852], [77.4796565875031, 12.8897501426823], [77.479541064462, 12.8897512375066], [77.4794498653048, 12.8897950935802], [77.4793865495866, 12.8898386872026], [77.4792848622256, 12.890031164626], [77.4792635762594, 12.8902971397995], [77.4792327082034, 12.8912081009818], [77.4791769591765, 12.8918188124715], [77.4790512358386, 12.8921452709394], [77.4787480865402, 12.892391212772], [77.4785853752241, 12.8924703626074], [77.4781715280213, 12.8927536721742], [77.4781032265353, 12.8927801877006], [77.4780531637199, 12.8928427748387], [77.4776859203448, 12.8932266460247], [77.4773391121261, 12.8936699036902], [77.4769926240739, 12.8942278066511], [77.4767801650347, 12.8944555415065], [77.4766925924013, 12.8944922872256], [77.4766141790574, 12.8945047031202], [77.4765356710774, 12.8945077820776], [77.4764109405157, 12.8944620906033], [77.4762845920321, 12.8943851519063], [77.4760068866412, 12.8942349145653], [77.4759066396439, 12.8941870502894], [77.4757076118715, 12.8941695999176], [77.4756065140188, 12.8942148299028], [77.4755284671391, 12.8943096524168], [77.4754847024424, 12.8944484226433], [77.4754809657092, 12.894642157872], [77.4755163346099, 12.8947967820946], [77.4755974266352, 12.8950118513897], [77.4756781950128, 12.89519371685], [77.4757472442407, 12.8953314219241], [77.4759616769683, 12.8956380313577], [77.476178275598, 12.8958175200495], [77.4764493131707, 12.8960095072186], [77.477019575318, 12.8963793174815], [77.4776667184201, 12.8966441731082], [77.4760809562442, 12.8974443566086], [77.4744020927716, 12.8981411900857], [77.4739782508765, 12.8982563726103], [77.4734206687299, 12.8984562032451], [77.4728806949449, 12.897564969863], [77.4724493781253, 12.8968502301705], [77.4720135514716, 12.8962419552963], [77.4713320170337, 12.8954160464524], [77.4708690303649, 12.8948648267483], [77.47052985984, 12.8944459653665], [77.4702403815034, 12.8940884671517], [77.4700689894373, 12.8936017824748], [77.4699563535084, 12.893386001894], [77.4699409513216, 12.8933279409241], [77.4691314696967, 12.8912424932272], [77.4683921050521, 12.888485952707], [77.4680024585268, 12.8890853669581], [77.4668144464629, 12.8907224978336], [77.4654658457124, 12.8925973864293], [77.4644730090844, 12.8938830005293], [77.4626558098566, 12.8965685342218], [77.4628784202334, 12.8967143822787], [77.4622724060974, 12.8976017574962], [77.4622295430208, 12.897664523093], [77.4615255783284, 12.898806277569], [77.4613346519707, 12.8987627695678], [77.460823609079, 12.8986463133664], [77.4609495846857, 12.9001338531283], [77.4602220348242, 12.9004531287543], [77.4601025252856, 12.9038424451118], [77.4599117115211, 12.9050644995303], [77.460090292015, 12.9066051394712], [77.4615858300832, 12.9064800107974], [77.4633331391817, 12.906377175839], [77.4645683589076, 12.9065483243061], [77.4665704176402, 12.9068648584478], [77.4665231546666, 12.9097401794459], [77.4669893583391, 12.9111053535437], [77.4679415840889, 12.9120094094389], [77.4690053408228, 12.9140228694685], [77.4700081366858, 12.9149511132642], [77.4705319583012, 12.9170560390734], [77.4709992833044, 12.9189982929501], [77.4711512287113, 12.9194314611163], [77.4718039287703, 12.9214396472214], [77.472233349356, 12.9229118602056], [77.4723357346239, 12.9233110036599], [77.472913669473, 12.9264477405882], [77.4755208056215, 12.9268011253845], [77.4772149874182, 12.9265428893393], [77.4781525305212, 12.9263674198282], [77.4788192022599, 12.9261684929046], [77.4796181069294, 12.9259735574046], [77.4795853549548, 12.9259015191628], [77.4796214287132, 12.9259727470157], [77.4796382627582, 12.9260178863257], [77.4796519745516, 12.9260546598893], [77.4796179172318, 12.9261269914239], [77.4796194983193, 12.9261571653709], [77.4796226781493, 12.9262179016061], [77.4796550926717, 12.9262550178719], [77.4797047434575, 12.9263118692415], [77.479732645321, 12.9263987683882], [77.4797062030511, 12.9264596569037], [77.4796478988596, 12.9264788584774], [77.4795521583749, 12.9265103899794], [77.4794754171338, 12.926564176879], [77.4794595796955, 12.9265908571215], [77.4794334842215, 12.9266348250104], [77.4794018981939, 12.9266880437009], [77.479365112358, 12.9267467500218], [77.4793253138641, 12.9268052997451], [77.4792732430405, 12.9268819034503], [77.4792585402338, 12.9269035331284], [77.4791952793013, 12.9269506134394], [77.4791616838129, 12.9269756165207], [77.4791089565936, 12.9270148581732], [77.4790862627933, 12.9270643421807], [77.4790904765547, 12.9271103929031], [77.4790949247262, 12.9271590073663], [77.4791187785363, 12.9272269975464], [77.479136646015, 12.9272490875636], [77.4791770014281, 12.9272989745337], [77.4792146010475, 12.9273346049937], [77.4794645359206, 12.9273892154196], [77.4795935062153, 12.9273677142067], [77.4796713578252, 12.927402455208], [77.4797901963228, 12.9274013258411], [77.4800107685971, 12.9272370342151], [77.4800833568217, 12.9272616877402], [77.4807775254102, 12.9269154897963], [77.4813700435749, 12.9277867255524], [77.4813504788452, 12.9278984235416], [77.4815324710218, 12.9280132688259], [77.4819523343471, 12.9286681947605], [77.481999589465, 12.9287437754371], [77.4821229641801, 12.9288086237868], [77.4821664166673, 12.9288055459521], [77.4822767089999, 12.9288112548818], [77.4823156481406, 12.928955082463], [77.4823505874574, 12.9290092622801], [77.4824301799819, 12.929132689423], [77.4825196874947, 12.9292714884286], [77.4825542454065, 12.9293740826793], [77.4826245466722, 12.9295827961988], [77.4826749298484, 12.9297323685879], [77.4829705266481, 12.9303207691491], [77.4831224323452, 12.9304443885868], [77.4831522624225, 12.9305098113134], [77.4832012749637, 12.9306028098926], [77.483229179674, 12.9306897110343], [77.4832039743904, 12.9308756533268], [77.483021382118, 12.9311654177724], [77.4828948308239, 12.9312613659256], [77.48298114935, 12.9313134473843], [77.4830308707132, 12.9313434476006], [77.4833162919701, 12.9313399228586], [77.4834694508967, 12.9315605964924], [77.4834722349016, 12.931841936534], [77.483316436285, 12.9321173830458], [77.4832459092549, 12.9322056007082], [77.4832269586182, 12.9322293021223], [77.4832326213699, 12.9322844723765], [77.4832353123829, 12.9323106719561], [77.4831610018346, 12.9324298499692], [77.4830869920291, 12.9324854046478], [77.4830716786127, 12.9325572084895], [77.4830724897316, 12.9326391841107], [77.4830729909638, 12.9326898407964], [77.483129730154, 12.9327471549191], [77.4832096192729, 12.9328278509455], [77.4832688225008, 12.9329268628149], [77.4833281087976, 12.9330657248566], [77.4833174414294, 12.9331006502934], [77.4833715550697, 12.933187885478], [77.4833999218357, 12.9332780501133], [77.483447914146, 12.9334041383356], [77.483540307997, 12.9334612962369], [77.4836052186727, 12.9335856042252], [77.4836334521688, 12.9336396740784], [77.4836305049959, 12.9337114713045], [77.4836260265408, 12.9338205500583], [77.4836225077781, 12.9339062567938], [77.4836453846022, 12.9339754598873], [77.4837098177933, 12.9340817501115], [77.4838054485104, 12.9342377938534], [77.483932741691, 12.934895573929], [77.4840421525267, 12.9352721550569], [77.4840737289542, 12.9354358931051], [77.4840957772927, 12.9355966617267], [77.4841243521966, 12.9358049965083], [77.4841009279451, 12.935871352702], [77.4841264328149, 12.9361598821299], [77.4840441349981, 12.9362347093614], [77.4841080865481, 12.9364897626422], [77.4841415778523, 12.936706844382], [77.4842023569836, 12.9369662375425], [77.482840811952, 12.937057142978], [77.4814460673477, 12.9371537034588], [77.4809639204339, 12.937194087523], [77.479553086457, 12.9373122531466], [77.4787847961539, 12.9374340742806], [77.4773399086435, 12.9378277902426], [77.4768974048712, 12.9379850860055], [77.4762556465964, 12.9381972554734], [77.4763964555987, 12.9384890360689], [77.4763685175022, 12.9385225741255], [77.4762775524407, 12.9386005319939], [77.475843532187, 12.938894557224], [77.4753643918917, 12.9392289138932], [77.4749295295521, 12.9396058657536], [77.4745223464428, 12.9398248228425], [77.4741878298538, 12.9400000708324], [77.4732027951434, 12.9402094427543], [77.4732278542906, 12.9402444646059], [77.4738461737154, 12.9414109630232], [77.4741764913245, 12.9420793083252], [77.4743935295153, 12.9425613381032], [77.4746119528246, 12.9431838965671], [77.4747378235132, 12.9436204330365], [77.4748019133232, 12.944064876278], [77.4749191273046, 12.9444473255734], [77.4750388858235, 12.945063585682], [77.4751451872821, 12.9454484170091], [77.4753284290611, 12.9460498976722], [77.4754284659709, 12.9463614276314], [77.4754674681262, 12.9465023129533], [77.4756010563518, 12.9469848631529], [77.4761653387118, 12.9485327491031], [77.4762396083113, 12.9487982608033], [77.4761761868327, 12.9488248892133], [77.4760862816445, 12.9488569762456], [77.4759116775544, 12.948910686886], [77.4755338838074, 12.9490591603463], [77.4752984899446, 12.9490072820715], [77.4749548824527, 12.948995648502], [77.4740819199898, 12.9490321747458], [77.4737689299242, 12.9490455580249], [77.4730057510996, 12.9491517046852], [77.4728190939439, 12.9490597812792], [77.4724728118935, 12.9494638751625], [77.4711026825747, 12.9494638597545], [77.4711014534614, 12.9496419973271], [77.4711331966625, 12.9506891106566], [77.4721044600722, 12.9507730645494], [77.4724550226572, 12.9512712891365], [77.4725360782171, 12.9513553162393], [77.4725818453062, 12.9516863525926], [77.4714479111233, 12.9521812146345], [77.4716426485863, 12.953470662383], [77.4717096131775, 12.9537706762688], [77.4719478817079, 12.954344315785], [77.4719994450276, 12.9546817356329], [77.4719947730155, 12.9549062911736], [77.4720672344671, 12.9549056033274], [77.4723966738788, 12.9557815881344], [77.4728051808023, 12.9560645779696], [77.4736106375696, 12.9573709699823], [77.4737547081515, 12.9575709081243], [77.474175586194, 12.9583222056134], [77.4744659237958, 12.9589452443106], [77.4746687098496, 12.9594152612302], [77.4752533539318, 12.9603350848785], [77.4728783388062, 12.9634654237594], [77.4727192478135, 12.9634786457594], [77.4722617542237, 12.9635064164936], [77.4731098566477, 12.9657463849887], [77.4735491731221, 12.9665195307347], [77.473718629831, 12.9667988602184], [77.4736465334125, 12.9668248891295], [77.4733918647283, 12.9668970377003], [77.4745090062713, 12.9691199769342], [77.4746573190813, 12.9692178050388], [77.4747250993941, 12.9692779845891], [77.4747674434995, 12.9693789529224], [77.4748444610554, 12.9696529497011], [77.4750059049223, 12.9699897367423], [77.4751108216218, 12.9714628530421], [77.4750362451614, 12.9727857302706], [77.474897280624, 12.9742742346199], [77.4747984036956, 12.9756719206846], [77.474252598376, 12.979535751828], [77.4739910833328, 12.9810656183816], [77.4738282451881, 12.9822126998717], [77.4735206753293, 12.9832305285669], [77.4734191324044, 12.9835316212525], [77.4732526598139, 12.9838577221418], [77.4728880434454, 12.9843105222384], [77.4726851320595, 12.9844955214898], [77.4725223996289, 12.9846593214518], [77.4721894951419, 12.984887153985], [77.4716113326781, 12.9851963672986], [77.4711819284428, 12.9855332904877], [77.4699631927159, 12.9862771205578], [77.4690742376953, 12.9864769506235], [77.4684947908921, 12.9866571966423], [77.4693777032223, 12.9884211697898], [77.4697247255372, 12.9891917193998], [77.4701770651521, 12.9898863781755], [77.4704492964639, 12.990815734605], [77.4706508571418, 12.9914628523466], [77.4712231306492, 12.9935584456991], [77.4713938990809, 12.9942453764353], [77.4713266942804, 12.9947297820033], [77.471402255895, 12.9951076276288], [77.4719388684761, 12.9958068262062], [77.4721298132926, 12.9959210235803], [77.4724771644397, 12.9968955446669], [77.4730581797691, 12.9967738874614], [77.4734631285273, 12.9966807072182], [77.4736071203893, 12.9974518721532], [77.4738374915434, 12.9977666164657], [77.4739910483423, 12.9989932868689], [77.474287068188, 12.9993074020495], [77.4744507305934, 13.0005339760972], [77.47476635968, 13.0007884804975], [77.474903838366, 13.0014111398325], [77.4750753877912, 13.0019047204994], [77.4754080046626, 13.0033624313719], [77.475125763521, 13.0034195968214], [77.4750508719341, 13.0045246411267], [77.4748424656495, 13.0048980384887], [77.4753420771372, 13.0063888224896], [77.4747890591817, 13.0066417052556], [77.4745880511596, 13.0067426668748], [77.4741606394057, 13.0069299728054], [77.4732262100262, 13.0071780445495], [77.4729104614407, 13.0072635600875], [77.4731372721096, 13.0084607522733], [77.4732089609112, 13.0088454045953], [77.4736396168222, 13.0088148861457], [77.4740314572423, 13.0096233024023], [77.4748501873896, 13.0113784577341], [77.4753124651923, 13.013176626968], [77.4769451541434, 13.0148447646115], [77.4769934482712, 13.0150131830768], [77.4770397883259, 13.0152503408775], [77.4771017226988, 13.0154749616983], [77.4771330273209, 13.0157063993298], [77.4771453304038, 13.0157613956687], [77.4771509050454, 13.0158457750651], [77.4771537834235, 13.0159298612825], [77.477174585175, 13.0160184482889], [77.4771957873036, 13.0161087499341], [77.4772377230181, 13.0162366344898], [77.4775630064452, 13.0174471371805], [77.4784116199296, 13.0193171677105], [77.478950068933, 13.0220979291224], [77.4784720246518, 13.0221807583047], [77.4787367380357, 13.0263257887029], [77.4795794153777, 13.0291975396231], [77.4769419284365, 13.0315794697429], [77.478736494586, 13.035032732745], [77.4799415448349, 13.0355130602294], [77.4800811016584, 13.0369027200636], [77.480093237206, 13.037219540081], [77.4800961321941, 13.0375100356], [77.4807637829681, 13.0378293775602], [77.4813851518205, 13.0394730278107], [77.4823055014349, 13.0399197995095], [77.4826015134441, 13.0405640356159], [77.4820004059094, 13.0410650126794], [77.4816179561231, 13.0412073377712], [77.4814745503634, 13.0416841175011], [77.4814376198861, 13.0427079081472], [77.4812713142635, 13.0429141902678], [77.4811042153814, 13.0430412454962], [77.480897041943, 13.0432016997217], [77.4807426241173, 13.0432494005575], [77.4803188448154, 13.0432996823378], [77.4800766175429, 13.0433218123339], [77.4798444226376, 13.0437913871348], [77.4797275473221, 13.0441899436913], [77.4795458370235, 13.0443405181548], [77.4794955410951, 13.0445462850637], [77.47948839773, 13.0448799440385], [77.4796415114908, 13.0455404011228], [77.4798078184476, 13.045415757357], [77.4798071887892, 13.0458776566536], [77.4797713182203, 13.0459549825177], [77.4797254887722, 13.0460837246029], [77.4796692956906, 13.0462228307125], [77.4796284972569, 13.0463309987961], [77.4796084826862, 13.0464235683772], [77.4797717015727, 13.0471880036435], [77.479778360075, 13.047189511914], [77.4799321840475, 13.0474983824508], [77.4800974702069, 13.0481426848184], [77.480202573809, 13.0484693106306], [77.4808742115925, 13.0483635517722], [77.4811460283063, 13.0483395887073], [77.481404641324, 13.0483069889579], [77.4814835024155, 13.048293324144], [77.4819481532276, 13.0482542343252], [77.4831450701563, 13.0478734715964], [77.4850698038543, 13.0471331959591], [77.4861591861769, 13.0466977784506], [77.486271340355, 13.0466194596311], [77.4864548766212, 13.0465402442291], [77.4873273865089, 13.0463578326349], [77.4878342253064, 13.0462300908728], [77.4885082606268, 13.0460471924984], [77.4890770616591, 13.0458739134783], [77.4894088473066, 13.0456986096709], [77.4906943316554, 13.04518377575], [77.4909880847647, 13.0450757059062], [77.4910277737439, 13.045094685722], [77.491105117102, 13.0452585209989], [77.4913492295211, 13.045969359407], [77.4916238025107, 13.04676380616], [77.491881600781, 13.0475261410128], [77.4920677275956, 13.048034230162], [77.4920818950023, 13.0481341331795], [77.4921032024941, 13.0486179907788], [77.4921651693848, 13.0492176316168], [77.4921900591844, 13.0497304983667], [77.4922565154375, 13.0504494989771], [77.4922577123308, 13.0505688888129], [77.4925548319103, 13.0516532305574], [77.4930060841998, 13.0515681059178], [77.4936418572264, 13.0514530648438], [77.4943026963823, 13.051307961651], [77.4944935992723, 13.0512621835376], [77.4945836316017, 13.0512405935234], [77.4973068854014, 13.0506423755661], [77.4969810798874, 13.0498467294998], [77.4968948004962, 13.0496360323314], [77.4968010239361, 13.0494070196032], [77.496772059021, 13.0489384825259], [77.4976733794761, 13.0486248363668], [77.4980569227064, 13.0484913678598], [77.4995888189127, 13.0479325482818], [77.5013740942892, 13.0472806003491], [77.5028886344687, 13.0467219314937], [77.5041672335831, 13.0462675415612], [77.5052557886477, 13.045882989123], [77.5060341345555, 13.0456884438614], [77.507290756039, 13.045331815198], [77.5073088403248, 13.0453212363101], [77.5073431088342, 13.0453011883552], [77.5074656769196, 13.0452698819427], [77.5082442644547, 13.0450127781981], [77.5089782713501, 13.0446872573171], [77.5098646944748, 13.0442440862822], [77.5103494381699, 13.0440070349171], [77.5110217887876, 13.0436605953804], [77.5114539628192, 13.0434326590159], [77.5122369670882, 13.0431798062167], [77.5135884782623, 13.0427278018956], [77.5151019099399, 13.0422311930417], [77.5159196627749, 13.0419435691147], [77.5163480041799, 13.0417715984476], [77.5168034401602, 13.0414478057962], [77.5168330293756, 13.04142090062], [77.5172538725046, 13.040991181907], [77.5180255709019, 13.0402032026079], [77.5183849859356, 13.0399366641066], [77.5187372447511, 13.0405947782068], [77.5193021928109, 13.0414541210288], [77.5198435513281, 13.0422588369125], [77.5203287071712, 13.0430382788185], [77.5208999564929, 13.043868514254], [77.5214984201048, 13.0447856120296], [77.522140657621, 13.0457990892948], [77.5221987420661, 13.0458887884885], [77.5275902373916, 13.0421949503262], [77.531513188281, 13.0393364803518], [77.5359273911457, 13.0360702788826], [77.54073709908, 13.0324920622596], [77.5415512410547, 13.0364772509692], [77.5419070232194, 13.0381800402161], [77.5419937905149, 13.0383924717395], [77.5420549384881, 13.0384629666737], [77.5426036933352, 13.0389433950224], [77.5429221130274, 13.039220057137], [77.5429305662174, 13.0392030594418], [77.5433542434204, 13.0388069887601], [77.5436827054121, 13.0384024120771], [77.5443005020794, 13.0377771765387], [77.5449820110344, 13.036674480598], [77.5455963487002, 13.0354343708429], [77.5461036902178, 13.0345282791343], [77.5465328508747, 13.0336461287794], [77.5476026206258, 13.0316382224038], [77.5479596835459, 13.0309528577406], [77.5483430329803, 13.0302648238351], [77.5487195428083, 13.0295890600457], [77.5489611638262, 13.0291730601167], [77.549610192573, 13.0276621050887], [77.5500188655283, 13.0266091213278], [77.5508228742898, 13.0250424495736], [77.5515798829553, 13.0235673572062], [77.5526611847241, 13.0212920767981], [77.5533934510724, 13.0199276623703], [77.5535339426687, 13.019665883621], [77.5535458901662, 13.0196541628067], [77.5537653124913, 13.0193220843952], [77.5538641144965, 13.0191555911386], [77.5539332639718, 13.0192565877009], [77.5542628344639, 13.0197379450654], [77.5543246619364, 13.0198282471125], [77.5546504160536, 13.0198246436916], [77.5551875292478, 13.019845916425], [77.555306710521, 13.019845813002], [77.5554678925689, 13.0198456739844], [77.5555578028374, 13.0198852922116], [77.5555961167283, 13.0199287962534], [77.555708792431, 13.0201740940709], [77.5558980354415, 13.0206744541086], [77.555984795536, 13.0209038516407], [77.5562916412605, 13.0216197995178], [77.5566012230276, 13.0223940359778], [77.5567131096976, 13.0226964355371], [77.5568281264226, 13.0230128103876], [77.556924904331, 13.0232822507812], [77.5570903168691, 13.0237251341168], [77.5571950833667, 13.0240435991784], [77.5573373537993, 13.0244590088011], [77.5574093089275, 13.0247036545223], [77.5575186444236, 13.025058513255], [77.557566411737, 13.0252281280479], [77.557648526334, 13.0254936145139], [77.5577149717118, 13.0257251167461], [77.557766272343, 13.0258379559739], [77.5580072930709, 13.0263872937893], [77.5584084568148, 13.0272729869342], [77.5585355683727, 13.0276197196792], [77.5587863086189, 13.0281960411513], [77.558824388545, 13.0282835647796], [77.5588760409634, 13.0284057716443], [77.5590596590801, 13.0288402059197], [77.5592612885748, 13.0293172522705], [77.5593934778502, 13.0296333005764], [77.5594966043681, 13.0298798622093], [77.5595119018644, 13.0299180319372], [77.5598475585091, 13.0307555644247], [77.5599235634787, 13.0309452105931], [77.5599292963851, 13.030959521548], [77.5597904520858, 13.0311386844957], [77.55865738018, 13.0327640510617], [77.5582754980126, 13.0333154447309], [77.5575413455557, 13.0343754664099], [77.5575112605939, 13.0344320144708], [77.5575103050384, 13.0344338073289], [77.557380666451, 13.0346774666467], [77.557378700559, 13.0346819988208], [77.5573446786075, 13.0347603843192], [77.55733795447, 13.0347758727074], [77.5573387370695, 13.0348102495669], [77.5573410911118, 13.0349139872047], [77.5573535290924, 13.0350757914719], [77.5573542082484, 13.0350784860938], [77.5574163131595, 13.0353249820107], [77.5574381782239, 13.0354117705385], [77.5574815655818, 13.0355944894095], [77.5575295761024, 13.035796678116], [77.5575566363586, 13.0359985018703], [77.5575582724008, 13.0361577069448], [77.5575158683521, 13.0366666316875], [77.5573948128277, 13.0377134625424], [77.5573805769994, 13.0380196502594], [77.5573439632946, 13.0385684523309], [77.5577992818976, 13.0385676812304], [77.5578578660312, 13.0385675811652], [77.5579013208273, 13.038569927172], [77.55792609171, 13.0385712670505], [77.5581453424836, 13.0385831111267], [77.558227237153, 13.0385956629573], [77.5585582325084, 13.0386463918582], [77.5588773140515, 13.0386983556583], [77.5591924991347, 13.0388086800029], [77.5593537303681, 13.0388651146866], [77.5596111153638, 13.0389911725992], [77.5599124700049, 13.0391412888709], [77.560239435414, 13.0393523928533], [77.5603789829626, 13.0394654076841], [77.5605606631459, 13.0396125455077], [77.5607087000572, 13.0397654493769], [77.5607103523117, 13.0397671559143], [77.5607213443699, 13.0397785092659], [77.5608131898668, 13.0398733755641], [77.5608231574885, 13.0398851094609], [77.5610091941662, 13.0401041447602], [77.5610525083934, 13.0401649666157], [77.5612373611523, 13.0404245250844], [77.5612690404833, 13.0404690092558], [77.5613645496408, 13.0406341673326], [77.5614825883326, 13.0408382814678], [77.5616951133537, 13.0412057855145], [77.5617792928064, 13.0413586980643], [77.5621326085338, 13.0420004978744], [77.5621443828723, 13.0419829311381], [77.5622131410586, 13.0418803329392], [77.5634150534346, 13.0402433177402], [77.5638520187712, 13.0396393505342], [77.5642909188038, 13.0390901688684], [77.5644820813122, 13.0388509711721], [77.5649587095422, 13.0382444570629], [77.5654663395414, 13.0375984860445], [77.5659603664788, 13.0369418060982], [77.5667056779782, 13.0361566268609], [77.5670658937774, 13.0358271552895], [77.5682278501437, 13.034517037264], [77.5687266316962, 13.033839542259], [77.5691943332343, 13.0331706171318], [77.5696419906132, 13.0325592187076], [77.5698700084863, 13.0322511265487], [77.5710632729361, 13.0291764872495], [77.5711690043004, 13.0287893282505], [77.571252308276, 13.0284842956116], [77.5718542771041, 13.0283494539026], [77.5728156249619, 13.0281362988318], [77.5739844438005, 13.027904786318], [77.5753233973019, 13.0276593648208], [77.5765461942523, 13.027427305802], [77.5773049729387, 13.0273057362412], [77.5776395693382, 13.0272487978297], [77.5776864395867, 13.0272421862496], [77.5776866132271, 13.0272416921458], [77.577697966223, 13.0271213545023], [77.5777011055014, 13.0268997703061], [77.5780940897567, 13.0268615741731], [77.5783561829519, 13.0268461089301], [77.5785963327732, 13.0268222908885], [77.5789060120148, 13.0267592089689], [77.5794949106864, 13.0266462051564], [77.5798002638714, 13.0265874512401], [77.5799354362643, 13.0265561082197], [77.5799963553808, 13.0265297878203], [77.5800744900599, 13.0264775795185], [77.5801661531764, 13.02643065169], [77.5802754686487, 13.0262946079041], [77.5804923706471, 13.026074010096], [77.5806314346383, 13.0259704539621], [77.5807812404222, 13.0258632664512], [77.580859953986, 13.0258307716014], [77.5808920711902, 13.0258093147748], [77.5809241144284, 13.0257808091373], [77.5809631623171, 13.0257346202467], [77.5809986161481, 13.0256884662528], [77.5810372250104, 13.0256000007268], [77.5810997773126, 13.0253950338562], [77.5811209718249, 13.0253595894496], [77.5811494237466, 13.0253311222858], [77.5811886147525, 13.025299021103], [77.5812384390713, 13.0252527239292], [77.5812955974511, 13.0252204464436], [77.5814279480878, 13.025162757696], [77.5819217567395, 13.0249640630442], [77.5824437193352, 13.0247087150745], [77.5826829416815, 13.0245618824926], [77.5828537909443, 13.0244051592581], [77.5842676497883, 13.0231861380753], [77.5845148050792, 13.0229388197165], [77.5845909667458, 13.0228967395546], [77.5845328821211, 13.022715463102], [77.5840926705165, 13.0211669490534], [77.5839711170645, 13.0207026732912], [77.5839498413966, 13.0205273707698], [77.583921102012, 13.0203826698408], [77.5839073730768, 13.0201844007363], [77.5838997630222, 13.0198258213788], [77.5838974290973, 13.0196007303046], [77.5839002279844, 13.0191199537449], [77.5839239710294, 13.0180323020355], [77.5839491809344, 13.0170858106329], [77.5839718288338, 13.0166429884099], [77.5839983180421, 13.0154446596769], [77.5839926872868, 13.0145239145928], [77.5846593837911, 13.0145119557119], [77.5859799906567, 13.0144157163881], [77.5865721496954, 13.0143322788403], [77.5868424720386, 13.0142575863249], [77.5872642400684, 13.0140817017778], [77.5876686593573, 13.0138672224072], [77.5878818759635, 13.0137321800939], [77.5881426147979, 13.0134971814433], [77.5883475382261, 13.0132353674295], [77.5890655394254, 13.0123180288614], [77.5897765718936, 13.0112621004154], [77.5901807064665, 13.0106543585072], [77.5906164165268, 13.0099871159985], [77.5906451978887, 13.0099440581165], [77.5911315274861, 13.0092164895652], [77.5918484743076, 13.0081202928412], [77.5923154612445, 13.0073659291097], [77.5924830155558, 13.0071068248886], [77.5927392120399, 13.0067106412179], [77.5930314561789, 13.0061789868529], [77.5930837687567, 13.0060424575106], [77.5931999146131, 13.0057393203991], [77.5932147390104, 13.0056894472526], [77.5932533526717, 13.0055595152779], [77.5933829729196, 13.0051233782397], [77.5942342293731, 13.0022724841482], [77.5948106228014, 13.0004319384261], [77.5952187222651, 12.9990468396709], [77.5955187989796, 12.9981086920016], [77.5957552402865, 12.9972422039352], [77.595880482618, 12.9963486623407], [77.5959612642039, 12.9957723177103], [77.5961364187217, 12.9949116833743], [77.5961481258433, 12.9947855447595], [77.5961168144975, 12.9946720614994], [77.5956803546797, 12.9948828972026], [77.5951596324378, 12.9951508972089], [77.5951186582217, 12.995168347286], [77.5948804183833, 12.9952698059963], [77.5946754735106, 12.9953390794618], [77.5945697898339, 12.9953645797387], [77.5944394345971, 12.9954147743085], [77.5943586166193, 12.9954339179308], [77.5943027213841, 12.9954528097995], [77.5941597118604, 12.9954847973097], [77.5940101539028, 12.9954862915316], [77.593723690225, 12.9955074867078], [77.5928009683081, 12.9954739205089], [77.591736352993, 12.9954277406389], [77.5914347960672, 12.9954146603708], [77.5906249304032, 12.9953795253433], [77.5897458927556, 12.9953516230734], [77.5895635712689, 12.9956003018833], [77.5893268327904, 12.9958080537791], [77.5890849383197, 12.9959204739037], [77.5882540805257, 12.9963321172635], [77.5877152208273, 12.9966552881289], [77.5873010548986, 12.9969833263217], [77.586954995809, 12.9972679048831], [77.5867322990475, 12.9974290223966], [77.5866207549868, 12.9974904843665], [77.5864392381676, 12.9975656312685], [77.5863646476002, 12.9975847105821], [77.5862479939157, 12.9976042062107], [77.5861125512497, 12.9976147208669], [77.5853887800704, 12.9976861011139], [77.5843520553136, 12.9977789312636], [77.5842949947022, 12.9984313490737], [77.5842421677581, 12.9990828999096], [77.584235339356, 12.999230471575], [77.5842192224372, 12.9992879968313], [77.5841695935799, 12.9993376588075], [77.5840571819313, 12.9993807923536], [77.5838776454778, 12.9993897330174], [77.583610083959, 12.9993760078745], [77.5832838650327, 12.9993464751001], [77.5829088496873, 12.9993007083868], [77.58250277432, 12.9989690952019], [77.5820472311821, 12.9985556932368], [77.5816500969744, 12.9981335169233], [77.5810438932013, 12.9974716583338], [77.5808581042417, 12.997268809846], [77.5804129571311, 12.9973007852208], [77.5799867186833, 12.9973354466929], [77.579808314917, 12.9973343647054], [77.5796628986611, 12.9973358096915], [77.5796105722514, 12.997339540469], [77.5794222000519, 12.9973469394084], [77.5794438506497, 12.997767080871], [77.578300763747, 12.9978114055192], [77.5783739032224, 12.9988548085766], [77.5784093517616, 12.9990937768203], [77.5784143014085, 12.9991282400958], [77.5784086652147, 12.9991454009739], [77.5784080295085, 12.9992154142123], [77.5780559359186, 12.9992245732391], [77.5776058572346, 12.999147821509], [77.57718088765, 12.9990186493706], [77.5770484045672, 12.9989856653988], [77.5768809054396, 12.998949215522], [77.5767292281344, 12.9989392862862], [77.5764919376146, 12.9989187772509], [77.5760294864261, 12.9989233669021], [77.5756330963935, 12.9989273002661], [77.5751550207088, 12.9989244201161], [77.5748712113594, 12.998915801442], [77.5740809268601, 12.9989205025069], [77.5739112906293, 12.9989215097253], [77.5738901976941, 12.9996549947147], [77.5738864652014, 12.9997847855799], [77.5738336091288, 13.0005657851771], [77.5738098246775, 13.001015987853], [77.5737235900119, 13.0010183020633], [77.5735365999926, 13.0010167005659], [77.5725671430872, 13.001008398854], [77.5725594273918, 13.001252707778], [77.5725552989076, 13.0016322000566], [77.5725576999946, 13.0018651237386], [77.5725318456962, 13.0018653800159], [77.5722500630012, 13.0018622011974], [77.5722535963286, 13.002204993661], [77.5722085136586, 13.0028541372441], [77.5722077417996, 13.0028705144535], [77.572188520841, 13.0032784189219], [77.572185876344, 13.003317270775], [77.5721799996979, 13.0033382347913], [77.5721764482437, 13.003401629645], [77.5720648626802, 13.0033961188139], [77.5719734431524, 13.0033910531253], [77.5717295706981, 13.0033695766166], [77.5714858241146, 13.0033600458142], [77.571354750158, 13.0033493992528], [77.571291753545, 13.0033497786335], [77.5713191657354, 13.0021138263232], [77.5713600198287, 12.9994146395325], [77.5714015115495, 12.9973326312049], [77.5713963686949, 12.9968333247555], [77.5701330896732, 12.9967659326575], [77.5691838133138, 12.9967753282398], [77.568641368029, 12.9967806956027], [77.5685456134283, 12.9967816429533], [77.568085359471, 12.9967861959951], [77.5674482597742, 12.9968190965205], [77.5671967678836, 12.9968431415766], [77.5671440370407, 12.996848182044], [77.5669440288624, 12.9968726031705], [77.5667494557264, 12.9968689164561], [77.566560312155, 12.9968371201488], [77.5663995425925, 12.9967826023922], [77.5662134435043, 12.9967075546053], [77.5661610257068, 12.9966849714616], [77.5660516147432, 12.9966339616619], [77.5663827727345, 12.9962112132917], [77.5667132487266, 12.995722674893], [77.5669681634003, 12.9952266564845], [77.5670991354789, 12.9949128119144], [77.5673225324599, 12.9946145044686], [77.567653936917, 12.994216429685], [77.5680262585971, 12.9937192489716], [77.5683849240348, 12.9933806772203], [77.5677583949184, 12.9934075792177], [77.5677851891518, 12.9926283384514], [77.5677858036538, 12.9926105072961], [77.5678200296551, 12.9917823732824], [77.5678427412864, 12.9912198067614], [77.5678668233213, 12.9904441659306], [77.5678775579562, 12.9897559755418], [77.567918153794, 12.9888544291727], [77.5679238753874, 12.9887181539339], [77.5679264664768, 12.9886238225246], [77.567926277447, 12.9886054328476], [77.5679259997946, 12.9885784215134], [77.567918519103, 12.9885435644435], [77.5679145638666, 12.9885051852039], [77.5679056044886, 12.9884098251042], [77.5677940422644, 12.9884172420846], [77.5668029148996, 12.9884672713223], [77.5656957233251, 12.9885166272327], [77.5650692424552, 12.9885348081554], [77.5650880229932, 12.9883177850771], [77.5650396958006, 12.9883182622565], [77.5639636636129, 12.9883853061533], [77.5639603111081, 12.9883741779803], [77.5639398069947, 12.9881752393769], [77.562263290301, 12.9882745738028], [77.5614755253628, 12.9882823424166], [77.5614462593321, 12.9882812017146], [77.5614458902147, 12.9882835687919], [77.561446907874, 12.9881751676663], [77.5614848395077, 12.9879940864338], [77.5615407016749, 12.987800128545], [77.5615793500542, 12.9877223873467], [77.5616257232589, 12.9876290947016], [77.5617439476877, 12.9874808944183], [77.561791093299, 12.9873438009864], [77.5618166737398, 12.987273924916], [77.561813383701, 12.987209486833], [77.5617760955085, 12.9871634377232], [77.5612805909521, 12.9870522815759], [77.5610564893547, 12.9869951798466], [77.5609901741285, 12.9869390992671], [77.5608042163239, 12.9867552640322], [77.5607692439908, 12.9866782467522], [77.5607633243028, 12.9866138363297], [77.5607833288457, 12.9865130674137], [77.5609730890338, 12.9860418673916], [77.5610115259971, 12.9859434961628], [77.561020854793, 12.9858273617098], [77.5610090947116, 12.9857062772936], [77.5609888652177, 12.9855285429729], [77.5609666003737, 12.9853786442863], [77.5609729671236, 12.9852505330072], [77.560968676042, 12.9850980919181], [77.5609851266006, 12.9849071037574], [77.5610182752892, 12.9848062053072], [77.5610542349934, 12.9847489295941], [77.5610581372917, 12.984733629063], [77.5610989138122, 12.9846776556349], [77.561300922459, 12.9842076006933], [77.5614159182902, 12.9837852077785], [77.5615235500976, 12.9828907111142], [77.5615877141821, 12.9826049699422], [77.5616144591899, 12.9824858604303], [77.5616135942076, 12.9824014618601], [77.5616121507757, 12.9822606211181], [77.5616118214053, 12.9822284830469], [77.5616110179133, 12.9822278386718], [77.561607382893, 12.9821226012036], [77.561588951369, 12.9819615197472], [77.5616049972251, 12.9818746244882], [77.5614597393446, 12.9818529909053], [77.5613881667802, 12.981853696277], [77.5613367028545, 12.9818520107732], [77.5612718840689, 12.9818570367331], [77.5612405269234, 12.9818529585691], [77.561218046853, 12.981842212153], [77.5611952980017, 12.9818051444044], [77.5611356840803, 12.9816631422021], [77.5610300393768, 12.981307105081], [77.5610248075143, 12.9812726608949], [77.5609633349991, 12.9810184578047], [77.5609257148591, 12.9809113759826], [77.5608533260717, 12.9807377791815], [77.5607664284239, 12.9805738775178], [77.5606502909863, 12.9804078769257], [77.560490598577, 12.9802685678585], [77.5602513491124, 12.9802064538806], [77.5600319171596, 12.9801775741693], [77.5597927402324, 12.9801226216196], [77.5595606716786, 12.9800484970543], [77.5594308826858, 12.9799757548408], [77.5592622519045, 12.9798725880035], [77.5591925754247, 12.9797679725035], [77.5591495964179, 12.9796131889919], [77.5591672665886, 12.9794363160476], [77.5591355846208, 12.979195460094], [77.5590533850329, 12.9790147964409], [77.5589426300491, 12.9788988836148], [77.5588104298127, 12.9788285516173], [77.5586472158955, 12.97882060585], [77.5584768438298, 12.9788270592596], [77.558257730626, 12.978829215646], [77.5580747945506, 12.9787975852179], [77.5578862583315, 12.9786943773091], [77.5576316439698, 12.9785583886988], [77.5573745717784, 12.9784200397411], [77.5569743020005, 12.9783260764705], [77.5568720727996, 12.9783294679803], [77.556656730353, 12.9782241357313], [77.5564140730553, 12.9780665375584], [77.5560851787398, 12.97780949855], [77.5557762247009, 12.9775976346915], [77.5555292351939, 12.9774926097026], [77.5552981413171, 12.9772752013906], [77.5551869589794, 12.9770479971481], [77.5551693247964, 12.9770119597993], [77.5551365018593, 12.9769448861042], [77.5550187334829, 12.9766189133995], [77.5549022601714, 12.9764194799691], [77.5546638108663, 12.9759585874742], [77.5544928457526, 12.9755601726367], [77.5544962999311, 12.9755603076491], [77.5556943792681, 12.9756067265102], [77.5585430364755, 12.975763698373], [77.5587038896099, 12.9757649415521], [77.5586871922486, 12.9755703710622], [77.5586552659526, 12.9753254607054], [77.5585761725958, 12.9751423203479], [77.5585158324123, 12.9749950605448], [77.5584433909711, 12.9747433355363], [77.5583264205486, 12.9744523822613], [77.558057081724, 12.9740042525686], [77.557950485401, 12.9738210454014], [77.5579059664102, 12.9737024427821], [77.5579522307772, 12.9736665269982], [77.5579587250219, 12.9734873191662], [77.5579932415409, 12.9730249341315], [77.5579501080375, 12.9729578366498], [77.5579432113487, 12.9728562735973], [77.5578014569938, 12.972316462099], [77.5577316274897, 12.9720240254701], [77.5575452997, 12.9710629935307], [77.557382506479, 12.9702459759438], [77.5571661300715, 12.9703021986619], [77.5571592870812, 12.9699921302853], [77.557117138914, 12.9694660324199], [77.5569849212207, 12.9694817576134], [77.5567090186622, 12.9694700439267], [77.5563776710251, 12.9694300246554], [77.5559944800418, 12.9693544545672], [77.555655298537, 12.9692676298761], [77.5555627520468, 12.9692389968319], [77.5553852277574, 12.9691840712327], [77.5552039326193, 12.9691267630714], [77.5550066794563, 12.9690644120901], [77.5545599042234, 12.968940482193], [77.554250440781, 12.9688546402398], [77.5534746355721, 12.9686505600898], [77.5528590276081, 12.9684861439391], [77.5525722470242, 12.9684037289858], [77.5522713666897, 12.9683132043056], [77.5519057079963, 12.9681930721732], [77.5516971867392, 12.9680878954991], [77.5514349354916, 12.9679365049418], [77.551174782238, 12.9677163616741], [77.5509963701611, 12.9675394034833], [77.5506757583786, 12.9671631422019], [77.5503055833561, 12.9667315104599], [77.5502810846116, 12.9666906366946], [77.5502356548326, 12.9666148405306], [77.5500559650689, 12.9664144138408], [77.550005976934, 12.9663586541261], [77.5497569833011, 12.9661329028647], [77.5494149607112, 12.9658558208959], [77.5489969756956, 12.9655519927786], [77.5486834031025, 12.9653158721909], [77.54846600342, 12.9651640402767], [77.5482572908494, 12.9650396163907], [77.5480235749322, 12.9649374283625], [77.5475144091462, 12.9647637072443], [77.5470222573527, 12.9646090640914], [77.5466284353697, 12.9644754525178], [77.5463697997804, 12.9644037519742], [77.5461591002987, 12.9643590727934], [77.5459671370417, 12.9643445385745], [77.5456375414135, 12.9643449324039], [77.5453153320672, 12.9643618294683], [77.544970755912, 12.9643844451865], [77.5447324426301, 12.9643812772087], [77.5444627371126, 12.9643234282468], [77.5442152055696, 12.9642406189406], [77.543956039637, 12.9641166852407], [77.5438756971483, 12.9640644009512], [77.543816113103, 12.9640256274498], [77.5438157028691, 12.9640258699753], [77.5444118510339, 12.9633124158376], [77.544488493984, 12.9633657155153], [77.5445689737471, 12.9632799955198], [77.5446365163346, 12.9632124189407], [77.5447352844133, 12.9631188017778], [77.5448448352417, 12.9630533865757], [77.5449728313838, 12.9629955156067], [77.5451113252802, 12.9629375401183], [77.5452681335967, 12.9628742366008], [77.5454273044159, 12.9627851764612], [77.5455132657684, 12.9627225657192], [77.5455575085115, 12.9626861009484], [77.5455701838673, 12.9626422239042], [77.5455722567325, 12.9625881564648], [77.5455532357423, 12.9625240012414], [77.5455027520577, 12.9624627249993], [77.5454417462743, 12.9623989794813], [77.5453572065337, 12.9623431851253], [77.545257026166, 12.9622978404987], [77.5451831123531, 12.9622548102333], [77.5453204265625, 12.9620810290625], [77.545583751044, 12.9616537938407], [77.5457412670401, 12.9614108588091], [77.5459196256865, 12.9611357714963], [77.5461845226063, 12.9606540894936], [77.5463027026913, 12.9604230085847], [77.5464811692228, 12.9600740454438], [77.5468074288782, 12.9595704447176], [77.5470603140695, 12.9590933574529], [77.5474058251051, 12.9584141674378], [77.5477829461408, 12.9577398276258], [77.5481552512288, 12.9570674690469], [77.5483624958941, 12.9566931977969], [77.5484112576689, 12.9566096794717], [77.5485856886951, 12.9563109138532], [77.548792601047, 12.9559565092933], [77.5490951848063, 12.955451792906], [77.5490991711726, 12.9554451414254], [77.5493059816878, 12.9550876451297], [77.5495867931482, 12.9547255989897], [77.5493335778457, 12.9547357195144], [77.5492798918567, 12.9540558748955], [77.5492494739082, 12.9533643356576], [77.5492204537178, 12.9528103875626], [77.5492073237833, 12.9526690904372], [77.5492067793601, 12.9526155835567], [77.5491473831834, 12.9523519421453], [77.5491259798478, 12.9522788499216], [77.5495865199084, 12.9522097137081], [77.550507418455, 12.9520638570669], [77.5507324191607, 12.9520844607254], [77.5508987480684, 12.952052422098], [77.5510425204004, 12.9520890281063], [77.5511630045894, 12.9521220576491], [77.5512753510655, 12.9521171572365], [77.5513372389624, 12.9521051466003], [77.5514338885651, 12.9520813919171], [77.5514762461789, 12.9520543681842], [77.5515226535628, 12.952166320652], [77.5515692628878, 12.9521107717697], [77.5516431535852, 12.9520425212542], [77.5519750354017, 12.9516734973269], [77.5522870182305, 12.9512373447908], [77.5523540463698, 12.9511436367641], [77.5523703335368, 12.951120880664], [77.5525888402509, 12.9508156151259], [77.5526703329699, 12.9507033717172], [77.5527913564086, 12.9505572892933], [77.5532806175435, 12.9508836102104], [77.553464488288, 12.9508567222887], [77.5536374122014, 12.9507597073367], [77.5538409752716, 12.950657373173], [77.5539275165336, 12.9506163893109], [77.5540443336434, 12.9505349740986], [77.5542220137296, 12.9504027928436], [77.5543996954419, 12.9502706096762], [77.5544603529356, 12.9501997779632], [77.5544997868087, 12.9500539032622], [77.5545242375362, 12.9499432894211], [77.5545786050943, 12.949757130199], [77.5547415040462, 12.9496802798009], [77.5549908897564, 12.9505608099716], [77.5555595351633, 12.9504131806631], [77.5556187888382, 12.9503959440455], [77.5557142542107, 12.9503782256551], [77.5557454758853, 12.9503740218035], [77.5559956290787, 12.9503403347341], [77.556193341282, 12.9502938974378], [77.5563171838407, 12.9502622382493], [77.5564051634929, 12.9502262447101], [77.5565192672274, 12.9501759441504], [77.5566900225226, 12.9500618543698], [77.5567609330324, 12.9499908981221], [77.55678459438, 12.94996958907], [77.5568131728676, 12.9499622823632], [77.5568347565363, 12.9499714393958], [77.5573332001177, 12.9500819211046], [77.5576409354673, 12.9501383564932], [77.5576554807009, 12.9501390276988], [77.5577033989552, 12.9501498116043], [77.5577153108748, 12.9501524908517], [77.5580842322894, 12.9501928685292], [77.5580862527427, 12.9503907893474], [77.5579429245218, 12.9504024935567], [77.5577110200353, 12.950464639332], [77.5576357133624, 12.9504910369957], [77.5575951395715, 12.9505028406428], [77.5575897932555, 12.9505485069934], [77.5575878456418, 12.950642606053], [77.5575298221117, 12.950804629373], [77.5575223470895, 12.950813841258], [77.5574479736927, 12.9509395443142], [77.557325546217, 12.9510383813709], [77.5571672831985, 12.9511375692929], [77.5569649857657, 12.9512137590856], [77.5567505057681, 12.9512666334778], [77.5564886434777, 12.9513590311458], [77.5562862677096, 12.951427408122], [77.5561195633644, 12.9514798131687], [77.5559370524721, 12.9515440911093], [77.5557226098244, 12.9516008709365], [77.5557607947047, 12.9517663625743], [77.5557733756023, 12.9518036432937], [77.5557957102724, 12.9518899313793], [77.5558518151839, 12.9520593813756], [77.5559005805856, 12.9521755675851], [77.5559911101578, 12.952388012371], [77.5560602330585, 12.9525006667804], [77.5561567763844, 12.9526363857114], [77.5562845185317, 12.9528317989634], [77.5565875600624, 12.953248277349], [77.5566364136555, 12.95331960476], [77.5576542427065, 12.9531879574765], [77.5584431119116, 12.9531566875659], [77.5584349180853, 12.9532080854169], [77.5585177563104, 12.9531998659822], [77.5585654367452, 12.9532094006626], [77.5586028842013, 12.9532156984892], [77.5586470968897, 12.9532185969869], [77.558762840758, 12.9532374587999], [77.5589230356427, 12.9532825511887], [77.5593157748757, 12.9534686910687], [77.5597626492147, 12.9536309654568], [77.5599160147848, 12.9536727914255], [77.5599840130044, 12.9536754558741], [77.5600281916908, 12.9536750215982], [77.5600927580574, 12.9536743868982], [77.5601640546388, 12.9536670185034], [77.5603403210064, 12.9536219540146], [77.5606011002236, 12.9535327232502], [77.5607729963671, 12.9534608886637], [77.5611210855282, 12.9533831817056], [77.5614077017589, 12.9533651559597], [77.5616892289126, 12.9533916697799], [77.5616898624969, 12.9533186841288], [77.5616919283927, 12.953037409628], [77.5617458355716, 12.9524963087709], [77.5617531219518, 12.9523749679263], [77.5617735400462, 12.9520349607959], [77.5617720771574, 12.9518918839137], [77.5617867145804, 12.9517380466125], [77.5618124828944, 12.9516159006054], [77.5618702332071, 12.9514510399165], [77.5619603493723, 12.9512805639182], [77.5620933642632, 12.9510778660901], [77.5621111307465, 12.9510520512404], [77.5622614239838, 12.9507431257646], [77.5622368165039, 12.9505989792187], [77.5622329582564, 12.9504617288341], [77.5622419767936, 12.9502867472216], [77.5622018241518, 12.9500592552107], [77.5621410933174, 12.9499326594184], [77.5620645855825, 12.9498486161793], [77.5619719786208, 12.9497753305942], [77.5617650984042, 12.9496236762966], [77.5616288877839, 12.9495137188891], [77.5615903086233, 12.9494399045586], [77.5614851337642, 12.9493440700744], [77.5615342688969, 12.9492219464031], [77.5617174699065, 12.9492177977942], [77.5618665753913, 12.9491079862921], [77.5621473836857, 12.9489075357503], [77.5622566966441, 12.948981873972], [77.5624111856785, 12.9490513354321], [77.5624838167199, 12.949077237753], [77.5625789251285, 12.9490896101354], [77.56266480748, 12.9490843293574], [77.5627597344553, 12.949078959577], [77.5628273886554, 12.9490605474429], [77.5628903872561, 12.9490288777029], [77.5629670434578, 12.9490059410075], [77.5630299966317, 12.9489698330067], [77.563385775003, 12.9488199383452], [77.5636661804958, 12.9487136476346], [77.5638530705241, 12.9485795344502], [77.563942043965, 12.9485634536766], [77.5640540357225, 12.9485243404068], [77.5641389019126, 12.9484854931683], [77.5642475798252, 12.9484267089862], [77.5642557578992, 12.9483615544175], [77.5642649571946, 12.9481165796142], [77.5642287384869, 12.9476271702619], [77.5642117545269, 12.9471107859217], [77.5642331093799, 12.9465289808872], [77.5642306575055, 12.9455265137352], [77.5642548989262, 12.9437011298133], [77.5642682860115, 12.942721466182], [77.5642703240014, 12.9418951212608], [77.5642711841751, 12.9418605194832], [77.5642789698199, 12.9418313796244], [77.5642793189761, 12.9417901316341], [77.5643328906097, 12.9417910383741], [77.5643875021414, 12.9417905010882], [77.5645864338004, 12.9417885438374], [77.5648885139086, 12.9417893993782], [77.5649921408422, 12.941788379632], [77.5650272461978, 12.9417880341666], [77.5651047471502, 12.9417845213599], [77.565088534282, 12.9416774109797], [77.5650885246346, 12.9416764678675], [77.5650841638946, 12.9416485316808], [77.5650718250201, 12.9415694959845], [77.5650090902489, 12.941156872952], [77.5649925854997, 12.9410690316013], [77.5649607154822, 12.9410042991432], [77.5649087542511, 12.9408823678606], [77.5643134860014, 12.9398933860998], [77.5640629655424, 12.9394124842474], [77.563993479923, 12.9392858219376], [77.5641334470523, 12.939282476673], [77.564142307161, 12.9392834745781], [77.5643636350374, 12.9392784390328], [77.564492344938, 12.939283967828], [77.5647424811813, 12.939294713815], [77.5652670139851, 12.9393152670591], [77.5659162318944, 12.9393274502286], [77.5658971392478, 12.9397390605756], [77.5659296494768, 12.939879692158], [77.5659735367488, 12.9399935444715], [77.5660248401563, 12.940073038571], [77.5661073668914, 12.940167462058], [77.5661855049799, 12.9402124085637], [77.5666594489131, 12.9402229792797], [77.5667140430494, 12.9410033874735], [77.5667271744267, 12.9411480186182], [77.5667395650568, 12.9412202768303], [77.566767568359, 12.9413000001272], [77.5668271479295, 12.9414289353028], [77.5669611364482, 12.9416180900938], [77.5671536122654, 12.9418295261191], [77.5676453307433, 12.9424380064981], [77.5677083650527, 12.9425250051326], [77.5677635916198, 12.9426082689959], [77.5678071683367, 12.9426916503278], [77.567839409955, 12.9428056140934], [77.5678532026967, 12.9430150007566], [77.5678610286125, 12.9433996808943], [77.5678706521702, 12.9435277291678], [77.5678505386986, 12.9436306960534], [77.568078032118, 12.943648964645], [77.5683317431717, 12.9436677778299], [77.5701643432931, 12.9436710237044], [77.5710995743976, 12.9436644630973], [77.5723057417778, 12.9436792026579], [77.5734357506763, 12.9436840324459], [77.5736167854702, 12.9436859434711], [77.5737731976385, 12.9436939094299], [77.5737731973047, 12.943693876909], [77.5737561747987, 12.9427350596222], [77.5737731954614, 12.9414559837774], [77.5737960789774, 12.9407090170155], [77.5738488443891, 12.9407090552499], [77.5738511630129, 12.9406330630913], [77.5740275923407, 12.9406359141115], [77.5762524169636, 12.9406017098113], [77.5776568673208, 12.9405878256126], [77.5777481807873, 12.9405869226386], [77.5777539148752, 12.9403781588274], [77.5776782085221, 12.9397045293629], [77.5778408832543, 12.9394745871943], [77.5779165409318, 12.9393808842872], [77.5791596286001, 12.9378279717572], [77.5797381685089, 12.937113076363], [77.5799414438286, 12.9368787493896], [77.5800783806147, 12.9367220351658], [77.5810955066916, 12.9367437445861], [77.5828817355334, 12.9367212556453], [77.5849026013025, 12.9366462422527], [77.5849035238373, 12.9364893295114], [77.5848841581536, 12.9346097797204], [77.5848285706981, 12.932934679102], [77.5839219320738, 12.9329533279398], [77.5838213081031, 12.9329553999179], [77.5823487888112, 12.9329914676176], [77.5812595087621, 12.9330237317024], [77.5796494476328, 12.9330583258157], [77.5796354745593, 12.9330579165325], [77.5796612955412, 12.9308298692155], [77.5796721758276, 12.9301793678757], [77.5796620394151, 12.9291931124306], [77.5796699089917, 12.9282497497859], [77.5796721913715, 12.9271901461821], [77.5796889790835, 12.9262596190775], [77.5797044371168, 12.9251998878259], [77.5797419367814, 12.9241485521113], [77.5797417015776, 12.923426800822], [77.5796989212142, 12.9234314237983], [77.5796500761459, 12.9234367011795], [77.5790288665675, 12.9234701408449], [77.5772617875073, 12.9234875965128], [77.5761256152215, 12.9235124638138], [77.5748131521201, 12.9235345138724], [77.5736007799007, 12.9235548494325], [77.5735731581316, 12.9222072483563], [77.573568556433, 12.9211154852241], [77.5735653777945, 12.9210365450245], [77.5743955594625, 12.9207910487947], [77.5744303720957, 12.9207711710699], [77.5743962910063, 12.9205258888586], [77.5743949314618, 12.920498828571], [77.5743854367761, 12.9203954970209], [77.5743623604688, 12.9202012849137], [77.5742875337479, 12.9198958823112], [77.5741811312476, 12.919543939862], [77.5740541780878, 12.9191275119631], [77.5737725628614, 12.9184082008258], [77.5736838665675, 12.9182037767984], [77.5736168910013, 12.9180062153435], [77.5736140630398, 12.917730150417], [77.5736490939022, 12.9169161969474], [77.5730979576611, 12.9167437362798], [77.5725533923224, 12.9165968992215], [77.5717600913875, 12.9165708928218], [77.5712775918334, 12.9165925534642], [77.5707937107388, 12.9164789401885], [77.5705225515275, 12.9163784497562], [77.5704250257563, 12.9163399062939], [77.5703701174012, 12.9162986169037], [77.5702622937454, 12.9161827180802], [77.5701891455543, 12.9160763951095], [77.5701175954433, 12.9159292880481], [77.570073840053, 12.9158204966033], [77.5700200340797, 12.9157454152331], [77.5699776887065, 12.9156843384206], [77.5699260521728, 12.9156429769452], [77.569646302859, 12.915543196905], [77.5695451289339, 12.9155101015181], [77.5694669453652, 12.9157056210954], [77.5690791120246, 12.9165550047231], [77.5687752171038, 12.9171837131972], [77.56866680007, 12.9175399194586], [77.568654971548, 12.9178367545549], [77.5686583050043, 12.9178916445439], [77.5686572287065, 12.9179565403039], [77.5686692112892, 12.9180229464561], [77.5686755421705, 12.9180894082085], [77.5686987678376, 12.9181501601511], [77.5685782743052, 12.9181794719024], [77.5660269174068, 12.9187645066115], [77.565745147054, 12.917979325799], [77.5655235011427, 12.9175207682467], [77.5654674754016, 12.9174043834901], [77.5653948819531, 12.9172998531162], [77.565300808081, 12.9171931928914], [77.5652308846373, 12.9171167020877], [77.5650067896606, 12.916885028471], [77.5648984132765, 12.9167785085359], [77.5648444623088, 12.9167443339947], [77.5647210867789, 12.9170798799059], [77.5644558266756, 12.9177517425527], [77.5643865055041, 12.9179149037864], [77.5642204160103, 12.9182569656982], [77.5640694268303, 12.9185331157404], [77.563894779585, 12.9188094980794], [77.5636500187155, 12.9191716745316], [77.5635254492298, 12.9193315086938], [77.5634201625641, 12.9194485988367], [77.5633265876963, 12.9195539681458], [77.5633084730717, 12.9195660734513], [77.5631620721613, 12.9196639016465], [77.5630009425544, 12.9197546458143], [77.5627110710672, 12.9199120478096], [77.562429039857, 12.9201005057508], [77.56229591052, 12.9201946572295], [77.5622607405556, 12.9202514938522], [77.5621562778978, 12.9204242719506], [77.561852010735, 12.9211390712072], [77.5616941582139, 12.9215158690705], [77.5616122939645, 12.9216095172621], [77.5615313822232, 12.9216289532397], [77.561407706669, 12.9216579464082], [77.5610966913055, 12.9217112909792], [77.5603093097408, 12.9218466758642], [77.5595024065596, 12.9220015939163], [77.5591167404713, 12.9220827476675], [77.5587510260755, 12.9221869142963], [77.5575165322987, 12.9225665265228], [77.5572154211934, 12.9226728182806], [77.5569189135508, 12.9227780645056], [77.5565496081439, 12.9228899935735], [77.5564475655208, 12.9229259705777], [77.5562813000442, 12.9229781097721], [77.5561692920705, 12.9225810402838], [77.5559719750576, 12.9220100232035], [77.5557836571609, 12.9213825624251], [77.5556456992903, 12.9209988168623], [77.5555243070558, 12.9210040970677], [77.5552500745171, 12.9210212505371], [77.5552500156042, 12.9210212538242], [77.5552188556677, 12.9210236630014], [77.5551904872746, 12.9210245216122], [77.5551194315045, 12.9210215671401], [77.5550490782054, 12.9210113419329], [77.5549802003666, 12.9209939594884], [77.55491355333, 12.9209696093687], [77.5548970517562, 12.9209623371835], [77.5548171025915, 12.9209668202405], [77.5547362945487, 12.9209786830324], [77.5546569474828, 12.9209978125103], [77.5546166937567, 12.9210105079972], [77.5545455545732, 12.9210190959222], [77.5544658506936, 12.9210217099206], [77.5543862435226, 12.9210169886354], [77.5543074399836, 12.9210049793559], [77.5542301263782, 12.9209857846853], [77.5541549887303, 12.9209595704731], [77.5541305654725, 12.9209493229421], [77.554041549417, 12.9209008928017], [77.5537153229984, 12.9207286950147], [77.5535553415304, 12.9206472235615], [77.553506415749, 12.9206197372346], [77.5533995317267, 12.9205536309735], [77.5532967881192, 12.9204814842586], [77.5531985384106, 12.9204035493172], [77.5531626520527, 12.9203726440604], [77.5530965828533, 12.9203221135092], [77.5530262091189, 12.9202595655959], [77.5529610543435, 12.9201917951912], [77.5529015215477, 12.9201192166618], [77.5528819468199, 12.9200925742965], [77.5528592537716, 12.920050917035], [77.5528592199841, 12.9200508550264], [77.5526826066036, 12.919734042239], [77.5526821269454, 12.9197313428606], [77.552676360414, 12.9197110460031], [77.5526670895682, 12.9196920392252], [77.552654593831, 12.9196749007218], [77.5526392542708, 12.9196601507756], [77.5526215368966, 12.9196482392723], [77.5526019795442, 12.9196395241453], [77.5525811771596, 12.919634273327], [77.5525597604522, 12.9196326486948], [77.5525383819342, 12.9196346917525], [77.5525176903818, 12.9196403482736], [77.5524983140109, 12.9196494440717], [77.5524831687136, 12.9196597940688], [77.5524742335706, 12.9196671163712], [77.5524262852022, 12.9197006248548], [77.5523743640721, 12.9197278461146], [77.5523193184859, 12.9197483300602], [77.5522620550056, 12.9197617398685], [77.5522035154714, 12.9197678567259], [77.5521959545027, 12.9197681086252], [77.5521732550617, 12.9197695032329], [77.5521534517178, 12.9196629642365], [77.552123031797, 12.9196682189255], [77.5520369920935, 12.9192307360052], [77.5519934500249, 12.9189686861614], [77.5519450754558, 12.9188014759498], [77.5519157118136, 12.9187223845469], [77.5519026978805, 12.9186127850471], [77.5519043415632, 12.9185403942245], [77.5519203127396, 12.9184725333729], [77.5519360942265, 12.9183859988553], [77.5519541833165, 12.9182924345107], [77.5519978698081, 12.9182073221456], [77.551956231905, 12.9178789871973], [77.5517362327191, 12.9174302893612], [77.551618671901, 12.9171684440634], [77.5515313126163, 12.9170518897267], [77.5510093920949, 12.9165732701999], [77.5507376906783, 12.9162190048624], [77.550614274798, 12.9158310298396], [77.5504720843262, 12.9158711682609], [77.5494720845107, 12.916131269183], [77.5491679652966, 12.9162194657705], [77.5488799548674, 12.9163133276474], [77.5486755987402, 12.9163668578377], [77.5485359787854, 12.9164146054198], [77.5479997963643, 12.9165211328007], [77.5479994697977, 12.916526348994], [77.547999370216, 12.916579743081], [77.548050423409, 12.9167975226217], [77.5481083652383, 12.9170463774286], [77.5481352836754, 12.9171292536086], [77.5481853101814, 12.9172406851257], [77.5483969554803, 12.9172162362117], [77.5484549284203, 12.9174682897305], [77.5484804741411, 12.9175853420408], [77.5485301399071, 12.9178129068048], [77.5485738772387, 12.9179467820644], [77.5485841080021, 12.9179914498925], [77.5486011870618, 12.9180680290843], [77.5484510350176, 12.9180849837293], [77.5480909922992, 12.9181322833286], [77.5478508428699, 12.9181667966459], [77.5476869377731, 12.9181737572049], [77.5475284403832, 12.9181753037223], [77.5474139935093, 12.9182085901359], [77.5471465892025, 12.9182597829517], [77.5468631982645, 12.9183051486905], [77.546873006719, 12.9183523396244], [77.546842605925, 12.918359669671], [77.5467291200505, 12.9180491135861], [77.5464022454853, 12.9180979349679], [77.5462062414734, 12.918127353461], [77.5459261346039, 12.9181597105411], [77.5456747696289, 12.9182036406118], [77.5447997214493, 12.9182973680015], [77.5447219190747, 12.9175360833041], [77.5444197954126, 12.9175514611307], [77.5443954080104, 12.9175516987776], [77.5439476054226, 12.9175859678131], [77.543447321325, 12.9176234252144], [77.543310769498, 12.9176190869609], [77.5431800249609, 12.9176532567054], [77.5431103372309, 12.9176929581507], [77.5428711190641, 12.9178566297486], [77.5419651912975, 12.9184856676539], [77.541967259916, 12.9185123360503], [77.5419795059328, 12.9187056689566], [77.5419957873467, 12.9187896190772], [77.5420012121369, 12.9188069933133], [77.5419585861501, 12.9188102298699], [77.5419039291979, 12.9188081491739], [77.5418185324007, 12.9187972146726], [77.5417624860554, 12.9187817968786], [77.5416234396327, 12.918732246227], [77.5414168596721, 12.9185992559412], [77.5412734126832, 12.9185011745662], [77.5412248870548, 12.9184779632726], [77.5412054799331, 12.9184686783603], [77.5411546114554, 12.918452594755], [77.5411352743626, 12.9184504149595], [77.5411062535163, 12.9184459605083], [77.5407554860635, 12.9182343912196], [77.5406155433387, 12.9181397012631], [77.540555343827, 12.9181216935751], [77.5404656483434, 12.9181027007782], [77.5403384980231, 12.9180333324647], [77.540176873753, 12.9178781831997], [77.5399923060305, 12.9177436456506], [77.539808239588, 12.9176586774995], [77.5396434688983, 12.9176076041197], [77.5392792772037, 12.9175150916257], [77.5386845765798, 12.9179244414274], [77.5384776169467, 12.9180428381408], [77.5384057413643, 12.9180980127554], [77.5383927639875, 12.9181197111556], [77.5382892177417, 12.9181548447134], [77.5382880750556, 12.9181463071563], [77.5382713335612, 12.9181609119334], [77.538131028032, 12.9182833187522], [77.5380953163588, 12.9183673465319], [77.5380354751641, 12.9184755192998], [77.536812260836, 12.9196596190183], [77.5344088805586, 12.9183794700149], [77.5317111827813, 12.9179980239664], [77.5316895618661, 12.9179949666328], [77.5316095739837, 12.9162981897511], [77.5312854142433, 12.9142291989637], [77.5307632859788, 12.9124012176258], [77.5302045775906, 12.9112430460333], [77.5290924740351, 12.9094526498772], [77.5284094350553, 12.9083169286149], [77.5272685728007, 12.9063567783109], [77.5258286402848, 12.9042773051233], [77.5255202332268, 12.9040388876145], [77.5252980845035, 12.9037842725196], [77.5248086616918, 12.903360092185], [77.5243119442309, 12.9029441521795], [77.5238063114138, 12.902538681647], [77.523293712608, 12.9021417201362], [77.5217334791951, 12.9009241763932], [77.5201708321827, 12.8997096190167], [77.5184077877717, 12.8983461733331], [77.5178329139518, 12.8978678975384], [77.5172095909479, 12.8972595406017], [77.5160299214457, 12.8960185978961], [77.5150997525572, 12.895055085388], [77.5141648387865, 12.8940960030233], [77.5141062406599, 12.8940357930284], [77.5131119666197, 12.8930141545628], [77.5126697731279, 12.8924963411185], [77.5121998563495, 12.8918922546211], [77.511661957117, 12.8911279971295], [77.5113425267188, 12.8906546813198]], [[77.532672191824, 12.9395620711003], [77.5325097324633, 12.939815875429], [77.5325745615351, 12.9397145948077], [77.532672191824, 12.9395620711003]]]]}, "properties": {"id": "bbmp_c2__wards_c2.2", "tessellate": -1, "extrude": 0, "visibility": -1, "OBJECTID": 16, "NewCorp": "West", "name": "Bengaluru West City Corporation"}}