{"type": "Feature", "geometry": {"type": "MultiPolygon", "coordinates": [[[[77.5710995743976, 12.9436644630973], [77.5701643432931, 12.9436710237044], [77.5683317431717, 12.9436677778299], [77.568078032118, 12.943648964645], [77.5678505386986, 12.9436306960534], [77.5678706521702, 12.9435277291678], [77.5678610286125, 12.9433996808943], [77.5678532026967, 12.9430150007566], [77.567839409955, 12.9428056140934], [77.5678071683367, 12.9426916503278], [77.5677635916198, 12.9426082689959], [77.5677083650527, 12.9425250051326], [77.5676453307433, 12.9424380064981], [77.5671536122654, 12.9418295261191], [77.5669611364482, 12.9416180900938], [77.5668271479295, 12.9414289353028], [77.566767568359, 12.9413000001272], [77.5667395650568, 12.9412202768303], [77.5667271744267, 12.9411480186182], [77.5667140430494, 12.9410033874735], [77.5666594489131, 12.9402229792797], [77.5661855049799, 12.9402124085637], [77.5661073668914, 12.940167462058], [77.5660248401563, 12.940073038571], [77.5659735367488, 12.9399935444715], [77.5659296494768, 12.939879692158], [77.5658971392478, 12.9397390605756], [77.5659162318944, 12.9393274502286], [77.5652670139851, 12.9393152670591], [77.5647424811813, 12.939294713815], [77.564492344938, 12.939283967828], [77.5643636350374, 12.9392784390328], [77.564142307161, 12.9392834745781], [77.5641334470523, 12.939282476673], [77.563993479923, 12.9392858219376], [77.5640629655424, 12.9394124842474], [77.5643134860014, 12.9398933860998], [77.5649087542511, 12.9408823678606], [77.5649607154822, 12.9410042991432], [77.5649925854997, 12.9410690316013], [77.5650090902489, 12.941156872952], [77.5650718250201, 12.9415694959845], [77.5650841638946, 12.9416485316808], [77.5650885246346, 12.9416764678675], [77.565088534282, 12.9416774109797], [77.5651047471502, 12.9417845213599], [77.5650272461978, 12.9417880341666], [77.5649921408422, 12.941788379632], [77.5648885139086, 12.9417893993782], [77.5645864338004, 12.9417885438374], [77.5643875021414, 12.9417905010882], [77.5643328906097, 12.9417910383741], [77.5642793189761, 12.9417901316341], [77.5642789698199, 12.9418313796244], [77.5642711841751, 12.9418605194832], [77.5642703240014, 12.9418951212608], [77.5642682860115, 12.942721466182], [77.5642548989262, 12.9437011298133], [77.5642306575055, 12.9455265137352], [77.5642331093799, 12.9465289808872], [77.5642117545269, 12.9471107859217], [77.5642287384869, 12.9476271702619], [77.5642649571946, 12.9481165796142], [77.5642557578992, 12.9483615544175], [77.5642475798252, 12.9484267089862], [77.5641389019126, 12.9484854931683], [77.5640540357225, 12.9485243404068], [77.563942043965, 12.9485634536766], [77.5638530705241, 12.9485795344502], [77.5636661804958, 12.9487136476346], [77.563385775003, 12.9488199383452], [77.5630299966317, 12.9489698330067], [77.5629670434578, 12.9490059410075], [77.5628903872561, 12.9490288777029], [77.5628273886554, 12.9490605474429], [77.5627597344553, 12.949078959577], [77.56266480748, 12.9490843293574], [77.5625789251285, 12.9490896101354], [77.5624838167199, 12.949077237753], [77.5624111856785, 12.9490513354321], [77.5622566966441, 12.948981873972], [77.5621473836857, 12.9489075357503], [77.5618665753913, 12.9491079862921], [77.5617174699065, 12.9492177977942], [77.5615342688969, 12.9492219464031], [77.5614851337642, 12.9493440700744], [77.5615903086233, 12.9494399045586], [77.5616288877839, 12.9495137188891], [77.5617650984042, 12.9496236762966], [77.5619719786208, 12.9497753305942], [77.5620645855825, 12.9498486161793], [77.5621410933174, 12.9499326594184], [77.5622018241518, 12.9500592552107], [77.5622419767936, 12.9502867472216], [77.5622329582564, 12.9504617288341], [77.5622368165039, 12.9505989792187], [77.5622614239838, 12.9507431257646], [77.5621111307465, 12.9510520512404], [77.5620933642632, 12.9510778660901], [77.5619603493723, 12.9512805639182], [77.5618702332071, 12.9514510399165], [77.5618124828944, 12.9516159006054], [77.5617867145804, 12.9517380466125], [77.5617720771574, 12.9518918839137], [77.5617735400462, 12.9520349607959], [77.5617531219518, 12.9523749679263], [77.5617458355716, 12.9524963087709], [77.5616919283927, 12.953037409628], [77.5616898624969, 12.9533186841288], [77.5616892289126, 12.9533916697799], [77.5614077017589, 12.9533651559597], [77.5611210855282, 12.9533831817056], [77.5607729963671, 12.9534608886637], [77.5606011002236, 12.9535327232502], [77.5603403210064, 12.9536219540146], [77.5601640546388, 12.9536670185034], [77.5600927580574, 12.9536743868982], [77.5600281916908, 12.9536750215982], [77.5599840130044, 12.9536754558741], [77.5599160147848, 12.9536727914255], [77.5597626492147, 12.9536309654568], [77.5593157748757, 12.9534686910687], [77.5589230356427, 12.9532825511887], [77.558762840758, 12.9532374587999], [77.5586470968897, 12.9532185969869], [77.5586028842013, 12.9532156984892], [77.5585654367452, 12.9532094006626], [77.5585177563104, 12.9531998659822], [77.5584349180853, 12.9532080854169], [77.5584431119116, 12.9531566875659], [77.5576542427065, 12.9531879574765], [77.5566364136555, 12.95331960476], [77.5565875600624, 12.953248277349], [77.5562845185317, 12.9528317989634], [77.5561567763844, 12.9526363857114], [77.5560602330585, 12.9525006667804], [77.5559911101578, 12.952388012371], [77.5559005805856, 12.9521755675851], [77.5558518151839, 12.9520593813756], [77.5557957102724, 12.9518899313793], [77.5557733756023, 12.9518036432937], [77.5557607947047, 12.9517663625743], [77.5557226098244, 12.9516008709365], [77.5559370524721, 12.9515440911093], [77.5561195633644, 12.9514798131687], [77.5562862677096, 12.951427408122], [77.5564886434777, 12.9513590311458], [77.5567505057681, 12.9512666334778], [77.5569649857657, 12.9512137590856], [77.5571672831985, 12.9511375692929], [77.557325546217, 12.9510383813709], [77.5574479736927, 12.9509395443142], [77.5575223470895, 12.950813841258], [77.5575298221117, 12.950804629373], [77.5575878456418, 12.950642606053], [77.5575897932555, 12.9505485069934], [77.5575951395715, 12.9505028406428], [77.5576357133624, 12.9504910369957], [77.5577110200353, 12.950464639332], [77.5579429245218, 12.9504024935567], [77.5580862527427, 12.9503907893474], [77.5580842322894, 12.9501928685292], [77.5577153108748, 12.9501524908517], [77.5577033989552, 12.9501498116043], [77.5576554807009, 12.9501390276988], [77.5576409354673, 12.9501383564932], [77.5573332001177, 12.9500819211046], [77.5568347565363, 12.9499714393958], [77.5568131728676, 12.9499622823632], [77.55678459438, 12.94996958907], [77.5567609330324, 12.9499908981221], [77.5566900225226, 12.9500618543698], [77.5565192672274, 12.9501759441504], [77.5564051634929, 12.9502262447101], [77.5563171838407, 12.9502622382493], [77.556193341282, 12.9502938974378], [77.5559956290787, 12.9503403347341], [77.5557454758853, 12.9503740218035], [77.5557142542107, 12.9503782256551], [77.5556187888382, 12.9503959440455], [77.5555595351633, 12.9504131806631], [77.5549908897564, 12.9505608099716], [77.5547415040462, 12.9496802798009], [77.5545786050943, 12.949757130199], [77.5545242375362, 12.9499432894211], [77.5544997868087, 12.9500539032622], [77.5544603529356, 12.9501997779632], [77.5543996954419, 12.9502706096762], [77.5542220137296, 12.9504027928436], [77.5540443336434, 12.9505349740986], [77.5539275165336, 12.9506163893109], [77.5538409752716, 12.950657373173], [77.5536374122014, 12.9507597073367], [77.553464488288, 12.9508567222887], [77.5532806175435, 12.9508836102104], [77.5527913564086, 12.9505572892933], [77.5526703329699, 12.9507033717172], [77.5525888402509, 12.9508156151259], [77.5523703335368, 12.951120880664], [77.5523540463698, 12.9511436367641], [77.5522870182305, 12.9512373447908], [77.5519750354017, 12.9516734973269], [77.5516431535852, 12.9520425212542], [77.5515692628878, 12.9521107717697], [77.5515226535628, 12.952166320652], [77.5514762461789, 12.9520543681842], [77.5514338885651, 12.9520813919171], [77.5513372389624, 12.9521051466003], [77.5512753510655, 12.9521171572365], [77.5511630045894, 12.9521220576491], [77.5510425204004, 12.9520890281063], [77.5508987480684, 12.952052422098], [77.5507324191607, 12.9520844607254], [77.550507418455, 12.9520638570669], [77.5495865199084, 12.9522097137081], [77.5491259798478, 12.9522788499216], [77.5491473831834, 12.9523519421453], [77.5492067793601, 12.9526155835567], [77.5492073237833, 12.9526690904372], [77.5492204537178, 12.9528103875626], [77.5492494739082, 12.9533643356576], [77.5492798918567, 12.9540558748955], [77.5493335778457, 12.9547357195144], [77.5495867931482, 12.9547255989897], [77.5493059816878, 12.9550876451297], [77.5490991711726, 12.9554451414254], [77.5490951848063, 12.955451792906], [77.548792601047, 12.9559565092933], [77.5485856886951, 12.9563109138532], [77.5484112576689, 12.9566096794717], [77.5483624958941, 12.9566931977969], [77.5481552512288, 12.9570674690469], [77.5477829461408, 12.9577398276258], [77.5474058251051, 12.9584141674378], [77.5470603140695, 12.9590933574529], [77.5468074288782, 12.9595704447176], [77.5464811692228, 12.9600740454438], [77.5463027026913, 12.9604230085847], [77.5461845226063, 12.9606540894936], [77.5459196256865, 12.9611357714963], [77.5457412670401, 12.9614108588091], [77.545583751044, 12.9616537938407], [77.5453204265625, 12.9620810290625], [77.5451831123531, 12.9622548102333], [77.545257026166, 12.9622978404987], [77.5453572065337, 12.9623431851253], [77.5454417462743, 12.9623989794813], [77.5455027520577, 12.9624627249993], [77.5455532357423, 12.9625240012414], [77.5455722567325, 12.9625881564648], [77.5455701838673, 12.9626422239042], [77.5455575085115, 12.9626861009484], [77.5455132657684, 12.9627225657192], [77.5454273044159, 12.9627851764612], [77.5452681335967, 12.9628742366008], [77.5451113252802, 12.9629375401183], [77.5449728313838, 12.9629955156067], [77.5448448352417, 12.9630533865757], [77.5447352844133, 12.9631188017778], [77.5446365163346, 12.9632124189407], [77.5445689737471, 12.9632799955198], [77.544488493984, 12.9633657155153], [77.5444118510339, 12.9633124158376], [77.5438157028691, 12.9640258699753], [77.543816113103, 12.9640256274498], [77.5438756971483, 12.9640644009512], [77.543956039637, 12.9641166852407], [77.5442152055696, 12.9642406189406], [77.5444627371126, 12.9643234282468], [77.5447324426301, 12.9643812772087], [77.544970755912, 12.9643844451865], [77.5453153320672, 12.9643618294683], [77.5456375414135, 12.9643449324039], [77.5459671370417, 12.9643445385745], [77.5461591002987, 12.9643590727934], [77.5463697997804, 12.9644037519742], [77.5466284353697, 12.9644754525178], [77.5470222573527, 12.9646090640914], [77.5475144091462, 12.9647637072443], [77.5480235749322, 12.9649374283625], [77.5482572908494, 12.9650396163907], [77.54846600342, 12.9651640402767], [77.5486834031025, 12.9653158721909], [77.5489969756956, 12.9655519927786], [77.5494149607112, 12.9658558208959], [77.5497569833011, 12.9661329028647], [77.550005976934, 12.9663586541261], [77.5500559650689, 12.9664144138408], [77.5502356548326, 12.9666148405306], [77.5502810846116, 12.9666906366946], [77.5503055833561, 12.9667315104599], [77.5506757583786, 12.9671631422019], [77.5509963701611, 12.9675394034833], [77.551174782238, 12.9677163616741], [77.5514349354916, 12.9679365049418], [77.5516971867392, 12.9680878954991], [77.5519057079963, 12.9681930721732], [77.5522713666897, 12.9683132043056], [77.5525722470242, 12.9684037289858], [77.5528590276081, 12.9684861439391], [77.5534746355721, 12.9686505600898], [77.554250440781, 12.9688546402398], [77.5545599042234, 12.968940482193], [77.5550066794563, 12.9690644120901], [77.5552039326193, 12.9691267630714], [77.5553852277574, 12.9691840712327], [77.5555627520468, 12.9692389968319], [77.555655298537, 12.9692676298761], [77.5559944800418, 12.9693544545672], [77.5563776710251, 12.9694300246554], [77.5567090186622, 12.9694700439267], [77.5569849212207, 12.9694817576134], [77.557117138914, 12.9694660324199], [77.5571592870812, 12.9699921302853], [77.5571661300715, 12.9703021986619], [77.557382506479, 12.9702459759438], [77.5575452997, 12.9710629935307], [77.5577316274897, 12.9720240254701], [77.5578014569938, 12.972316462099], [77.5579432113487, 12.9728562735973], [77.5579501080375, 12.9729578366498], [77.5579932415409, 12.9730249341315], [77.5579587250219, 12.9734873191662], [77.5579522307772, 12.9736665269982], [77.5579059664102, 12.9737024427821], [77.557950485401, 12.9738210454014], [77.558057081724, 12.9740042525686], [77.5583264205486, 12.9744523822613], [77.5584433909711, 12.9747433355363], [77.5585158324123, 12.9749950605448], [77.5585761725958, 12.9751423203479], [77.5586552659526, 12.9753254607054], [77.5586871922486, 12.9755703710622], [77.5587038896099, 12.9757649415521], [77.5585430364755, 12.975763698373], [77.5556943792681, 12.9756067265102], [77.5544962999311, 12.9755603076491], [77.5544928457526, 12.9755601726367], [77.5546638108663, 12.9759585874742], [77.5549022601714, 12.9764194799691], [77.5550187334829, 12.9766189133995], [77.5551365018593, 12.9769448861042], [77.5551693247964, 12.9770119597993], [77.5551869589794, 12.9770479971481], [77.5552981413171, 12.9772752013906], [77.5555292351939, 12.9774926097026], [77.5557762247009, 12.9775976346915], [77.5560851787398, 12.97780949855], [77.5564140730553, 12.9780665375584], [77.556656730353, 12.9782241357313], [77.5568720727996, 12.9783294679803], [77.5569743020005, 12.9783260764705], [77.5573745717784, 12.9784200397411], [77.5576316439698, 12.9785583886988], [77.5578862583315, 12.9786943773091], [77.5580747945506, 12.9787975852179], [77.558257730626, 12.978829215646], [77.5584768438298, 12.9788270592596], [77.5586472158955, 12.97882060585], [77.5588104298127, 12.9788285516173], [77.5589426300491, 12.9788988836148], [77.5590533850329, 12.9790147964409], [77.5591355846208, 12.979195460094], [77.5591672665886, 12.9794363160476], [77.5591495964179, 12.9796131889919], [77.5591925754247, 12.9797679725035], [77.5592622519045, 12.9798725880035], [77.5594308826858, 12.9799757548408], [77.5595606716786, 12.9800484970543], [77.5597927402324, 12.9801226216196], [77.5600319171596, 12.9801775741693], [77.5602513491124, 12.9802064538806], [77.560490598577, 12.9802685678585], [77.5606502909863, 12.9804078769257], [77.5607664284239, 12.9805738775178], [77.5608533260717, 12.9807377791815], [77.5609257148591, 12.9809113759826], [77.5609633349991, 12.9810184578047], [77.5610248075143, 12.9812726608949], [77.5610300393768, 12.981307105081], [77.5611356840803, 12.9816631422021], [77.5611952980017, 12.9818051444044], [77.561218046853, 12.981842212153], [77.5612405269234, 12.9818529585691], [77.5612718840689, 12.9818570367331], [77.5613367028545, 12.9818520107732], [77.5613881667802, 12.981853696277], [77.5614597393446, 12.9818529909053], [77.5616049972251, 12.9818746244882], [77.561588951369, 12.9819615197472], [77.561607382893, 12.9821226012036], [77.5616110179133, 12.9822278386718], [77.5616118214053, 12.9822284830469], [77.5616121507757, 12.9822606211181], [77.5616135942076, 12.9824014618601], [77.5616144591899, 12.9824858604303], [77.5615877141821, 12.9826049699422], [77.5615235500976, 12.9828907111142], [77.5614159182902, 12.9837852077785], [77.561300922459, 12.9842076006933], [77.5610989138122, 12.9846776556349], [77.5610581372917, 12.984733629063], [77.5610542349934, 12.9847489295941], [77.5610182752892, 12.9848062053072], [77.5609851266006, 12.9849071037574], [77.560968676042, 12.9850980919181], [77.5609729671236, 12.9852505330072], [77.5609666003737, 12.9853786442863], [77.5609888652177, 12.9855285429729], [77.5610090947116, 12.9857062772936], [77.561020854793, 12.9858273617098], [77.5610115259971, 12.9859434961628], [77.5609730890338, 12.9860418673916], [77.5607833288457, 12.9865130674137], [77.5607633243028, 12.9866138363297], [77.5607692439908, 12.9866782467522], [77.5608042163239, 12.9867552640322], [77.5609901741285, 12.9869390992671], [77.5610564893547, 12.9869951798466], [77.5612805909521, 12.9870522815759], [77.5617760955085, 12.9871634377232], [77.561813383701, 12.987209486833], [77.5618166737398, 12.987273924916], [77.561791093299, 12.9873438009864], [77.5617439476877, 12.9874808944183], [77.5616257232589, 12.9876290947016], [77.5615793500542, 12.9877223873467], [77.5615407016749, 12.987800128545], [77.5614848395077, 12.9879940864338], [77.561446907874, 12.9881751676663], [77.5614458902147, 12.9882835687919], [77.5614462593321, 12.9882812017146], [77.5614755253628, 12.9882823424166], [77.562263290301, 12.9882745738028], [77.5639398069947, 12.9881752393769], [77.5639603111081, 12.9883741779803], [77.5639636636129, 12.9883853061533], [77.5650396958006, 12.9883182622565], [77.5650880229932, 12.9883177850771], [77.5650692424552, 12.9885348081554], [77.5656957233251, 12.9885166272327], [77.5668029148996, 12.9884672713223], [77.5677940422644, 12.9884172420846], [77.5679056044886, 12.9884098251042], [77.5679145638666, 12.9885051852039], [77.567918519103, 12.9885435644435], [77.5679259997946, 12.9885784215134], [77.567926277447, 12.9886054328476], [77.5679264664768, 12.9886238225246], [77.5679238753874, 12.9887181539339], [77.567918153794, 12.9888544291727], [77.5678775579562, 12.9897559755418], [77.5678668233213, 12.9904441659306], [77.5678427412864, 12.9912198067614], [77.5678200296551, 12.9917823732824], [77.5677858036538, 12.9926105072961], [77.5677851891518, 12.9926283384514], [77.5677583949184, 12.9934075792177], [77.5683849240348, 12.9933806772203], [77.5680262585971, 12.9937192489716], [77.567653936917, 12.994216429685], [77.5673225324599, 12.9946145044686], [77.5670991354789, 12.9949128119144], [77.5669681634003, 12.9952266564845], [77.5667132487266, 12.995722674893], [77.5663827727345, 12.9962112132917], [77.5660516147432, 12.9966339616619], [77.5661610257068, 12.9966849714616], [77.5662134435043, 12.9967075546053], [77.5663995425925, 12.9967826023922], [77.566560312155, 12.9968371201488], [77.5667494557264, 12.9968689164561], [77.5669440288624, 12.9968726031705], [77.5671440370407, 12.996848182044], [77.5671967678836, 12.9968431415766], [77.5674482597742, 12.9968190965205], [77.568085359471, 12.9967861959951], [77.5685456134283, 12.9967816429533], [77.568641368029, 12.9967806956027], [77.5691838133138, 12.9967753282398], [77.5701330896732, 12.9967659326575], [77.5713963686949, 12.9968333247555], [77.5714015115495, 12.9973326312049], [77.5713600198287, 12.9994146395325], [77.5713191657354, 13.0021138263232], [77.571291753545, 13.0033497786335], [77.571354750158, 13.0033493992528], [77.5714858241146, 13.0033600458142], [77.5717295706981, 13.0033695766166], [77.5719734431524, 13.0033910531253], [77.5720648626802, 13.0033961188139], [77.5721764482437, 13.003401629645], [77.5721799996979, 13.0033382347913], [77.572185876344, 13.003317270775], [77.572188520841, 13.0032784189219], [77.5722077417996, 13.0028705144535], [77.5722085136586, 13.0028541372441], [77.5722535963286, 13.002204993661], [77.5722500630012, 13.0018622011974], [77.5725318456962, 13.0018653800159], [77.5725576999946, 13.0018651237386], [77.5725552989076, 13.0016322000566], [77.5725594273918, 13.001252707778], [77.5725671430872, 13.001008398854], [77.5735365999926, 13.0010167005659], [77.5737235900119, 13.0010183020633], [77.5738098246775, 13.001015987853], [77.5738336091288, 13.0005657851771], [77.5738864652014, 12.9997847855799], [77.5738901976941, 12.9996549947147], [77.5739112906293, 12.9989215097253], [77.5740809268601, 12.9989205025069], [77.5748712113594, 12.998915801442], [77.5751550207088, 12.9989244201161], [77.5756330963935, 12.9989273002661], [77.5760294864261, 12.9989233669021], [77.5764919376146, 12.9989187772509], [77.5767292281344, 12.9989392862862], [77.5768809054396, 12.998949215522], [77.5770484045672, 12.9989856653988], [77.57718088765, 12.9990186493706], [77.5776058572346, 12.999147821509], [77.5780559359186, 12.9992245732391], [77.5784080295085, 12.9992154142123], [77.5784086652147, 12.9991454009739], [77.5784143014085, 12.9991282400958], [77.5784093517616, 12.9990937768203], [77.5783739032224, 12.9988548085766], [77.578300763747, 12.9978114055192], [77.5794438506497, 12.997767080871], [77.5794222000519, 12.9973469394084], [77.5796105722514, 12.997339540469], [77.5796628986611, 12.9973358096915], [77.579808314917, 12.9973343647054], [77.5799867186833, 12.9973354466929], [77.5804129571311, 12.9973007852208], [77.5808581042417, 12.997268809846], [77.5810438932013, 12.9974716583338], [77.5816500969744, 12.9981335169233], [77.5820472311821, 12.9985556932368], [77.58250277432, 12.9989690952019], [77.5829088496873, 12.9993007083868], [77.5832838650327, 12.9993464751001], [77.583610083959, 12.9993760078745], [77.5838776454778, 12.9993897330174], [77.5840571819313, 12.9993807923536], [77.5841695935799, 12.9993376588075], [77.5842192224372, 12.9992879968313], [77.584235339356, 12.999230471575], [77.5842421677581, 12.9990828999096], [77.5842949947022, 12.9984313490737], [77.5843520553136, 12.9977789312636], [77.5853887800704, 12.9976861011139], [77.5861125512497, 12.9976147208669], [77.5862479939157, 12.9976042062107], [77.5863646476002, 12.9975847105821], [77.5864392381676, 12.9975656312685], [77.5866207549868, 12.9974904843665], [77.5867322990475, 12.9974290223966], [77.586954995809, 12.9972679048831], [77.5873010548986, 12.9969833263217], [77.5877152208273, 12.9966552881289], [77.5882540805257, 12.9963321172635], [77.5890849383197, 12.9959204739037], [77.5893268327904, 12.9958080537791], [77.5895635712689, 12.9956003018833], [77.5897458927556, 12.9953516230734], [77.5906249304032, 12.9953795253433], [77.5914347960672, 12.9954146603708], [77.591736352993, 12.9954277406389], [77.5928009683081, 12.9954739205089], [77.593723690225, 12.9955074867078], [77.5940101539028, 12.9954862915316], [77.5941597118604, 12.9954847973097], [77.5943027213841, 12.9954528097995], [77.5943586166193, 12.9954339179308], [77.5944394345971, 12.9954147743085], [77.5945697898339, 12.9953645797387], [77.5946754735106, 12.9953390794618], [77.5948804183833, 12.9952698059963], [77.5951186582217, 12.995168347286], [77.5951596324378, 12.9951508972089], [77.5956803546797, 12.9948828972026], [77.5961168144975, 12.9946720614994], [77.5961481258433, 12.9947855447595], [77.5961364187217, 12.9949116833743], [77.5959612642039, 12.9957723177103], [77.595880482618, 12.9963486623407], [77.5957552402865, 12.9972422039352], [77.5955187989796, 12.9981086920016], [77.5952187222651, 12.9990468396709], [77.5948106228014, 13.0004319384261], [77.5942342293731, 13.0022724841482], [77.5933829729196, 13.0051233782397], [77.5932533526717, 13.0055595152779], [77.5932147390104, 13.0056894472526], [77.5932615497026, 13.0056680929043], [77.593445039797, 13.0060117109755], [77.5935584675403, 13.0061749242833], [77.5937640382304, 13.0065964420039], [77.5942362847825, 13.0076245516432], [77.594743973426, 13.0092151326298], [77.5949558300952, 13.009102767455], [77.5953022013685, 13.0099754657525], [77.5953206745603, 13.0100449102113], [77.5953276208853, 13.010143481011], [77.5954552530912, 13.0104671384637], [77.5957518475531, 13.0113020253675], [77.5959009734938, 13.0112318521088], [77.596005165392, 13.0111828234543], [77.5962040002221, 13.0110994529466], [77.5966052406356, 13.0109312176554], [77.5969134237907, 13.0108360299775], [77.5973221108752, 13.0106208753933], [77.5981041799243, 13.0101832391525], [77.6002540448207, 13.009183133718], [77.6009624359528, 13.0088114665311], [77.6012506486293, 13.0086781006652], [77.6013376271505, 13.00863511784], [77.601472577037, 13.0085684258629], [77.602446096213, 13.008101997257], [77.6052664194981, 13.0067139943953], [77.6051405273707, 13.0064395158956], [77.6049426200735, 13.0059788036006], [77.6046051287189, 13.0060844416701], [77.6045914664966, 13.0060583216503], [77.6045610842115, 13.0059441336586], [77.604531548623, 13.0059039819646], [77.6043414485588, 13.0054492886725], [77.6041013777769, 13.005033130888], [77.6040234337407, 13.0048258793215], [77.603996417342, 13.0047687864833], [77.6038228915641, 13.0044020662316], [77.6037429196915, 13.0042435837519], [77.6037420468588, 13.0041599442277], [77.603741702799, 13.0041269744106], [77.6037477895392, 13.0040849157347], [77.6037849926077, 13.0038278797918], [77.60378560935, 13.003705022021], [77.6037868611227, 13.0034554052968], [77.6025930578481, 13.0017377826931], [77.6025674576691, 13.0016755086716], [77.6025078404288, 13.0015802998114], [77.6024347139203, 13.0014635088928], [77.6023353898079, 13.0013962391219], [77.6022667756828, 13.001381822695], [77.6022445383112, 13.0013771490825], [77.6022191071613, 13.0013718046236], [77.6020713068565, 13.0013846651789], [77.6020216667333, 13.0013937318785], [77.6018570670043, 13.0014237903624], [77.6016574445209, 13.0014741466257], [77.601650607481, 13.0014798859821], [77.601650568456, 13.0014761425666], [77.6014925959871, 13.0014952869375], [77.6014962017773, 13.0014118381572], [77.6015410502389, 13.0009899474139], [77.6015571702389, 13.00081857532], [77.6015697768473, 13.0007394287896], [77.6015782257708, 13.0006910531461], [77.6015955830364, 13.000638198451], [77.601602736777, 13.0005247013175], [77.6016751512675, 13.000540821686], [77.6017733020506, 13.0000788852456], [77.6018290242787, 12.9998412653153], [77.6021943045945, 12.9996663930742], [77.6032732813773, 12.999242912675], [77.6038350130352, 12.9990177772969], [77.6043834535649, 12.9988059461885], [77.6046017411268, 12.9987027854542], [77.6046993034286, 12.998614004308], [77.6047523330311, 12.9985476250613], [77.6048228564458, 12.9984415543987], [77.6048712238914, 12.9983576593134], [77.604944253628, 12.9980627970772], [77.6049919357018, 12.9979130572203], [77.6050094295526, 12.9978733721325], [77.6050673472521, 12.9978464515433], [77.6051567815461, 12.9978367745615], [77.6058775177618, 12.9978339277839], [77.6062579583713, 12.9978257215741], [77.6063565756231, 12.997837899811], [77.6063969995232, 12.9978506658962], [77.6064241326939, 12.9978767310342], [77.6064648306701, 12.9979158337207], [77.6064965316066, 12.9979506351835], [77.606523848171, 12.9979942619567], [77.606547653046, 12.9981301131129], [77.6065483500589, 12.9982138048507], [77.6065926147875, 12.9985774407492], [77.606733580409, 12.9995153867535], [77.6067816179133, 12.9995454184114], [77.6068616808651, 12.9995446143423], [77.6071278979078, 12.9994791263339], [77.6084418139767, 12.9990419336853], [77.608676346137, 12.9989325834132], [77.608500863867, 12.9986855809774], [77.6081245938062, 12.9980811070259], [77.607669029079, 12.9974423315435], [77.606927206155, 12.9963220092546], [77.6056812739758, 12.9944731529726], [77.6055020134803, 12.9942452863943], [77.604782921197, 12.9945857044271], [77.6035575182613, 12.9950203663883], [77.6024076988109, 12.99536040498], [77.6015338537232, 12.9955474979139], [77.6007555178634, 12.99571485819], [77.6006026325876, 12.9957398552396], [77.6005021413085, 12.9957408617651], [77.6004303126871, 12.9957368887681], [77.6003871974124, 12.9957326254663], [77.6003103905178, 12.9957099317412], [77.6002576524926, 12.9957010723764], [77.6002143906492, 12.9956827350804], [77.6001614590121, 12.9956551070778], [77.600046173078, 12.9956140235361], [77.5998687766784, 12.9955598053492], [77.5986634722198, 12.9951914135239], [77.5971748644485, 12.9947088467859], [77.596837931833, 12.9946115852077], [77.5965714711332, 12.9945480997329], [77.5965313503464, 12.9944767855996], [77.5966354397121, 12.9944333213684], [77.5974058662536, 12.994205603308], [77.5985259558908, 12.9938141564194], [77.5991634448748, 12.9935913623622], [77.6006873289878, 12.9929410647534], [77.6012316934869, 12.9927329328317], [77.6015052379628, 12.9926584568631], [77.6018700292573, 12.9925651334029], [77.6020953091816, 12.9925389643142], [77.6022903007092, 12.9925310324985], [77.6025341130878, 12.9925285892743], [77.6028363144156, 12.9925491184096], [77.6038343499747, 12.992774558518], [77.6039030852702, 12.9928108158907], [77.6038689149823, 12.992727278899], [77.6041052993479, 12.9922228515848], [77.604185277043, 12.9921826285756], [77.6043637298189, 12.992123501276], [77.6044114019668, 12.992112310371], [77.6044542666144, 12.992099409601], [77.6044892162241, 12.9920611133692], [77.6045459450651, 12.992007672297], [77.6045722120582, 12.9919413168696], [77.6046484960463, 12.9917454278841], [77.604797216503, 12.9915744814746], [77.6048932062666, 12.99143010878], [77.6049966401162, 12.9912523845875], [77.605102029635, 12.9910733316972], [77.6052114616629, 12.9907014804457], [77.6052649449081, 12.9905311404528], [77.605280081546, 12.9903319122698], [77.605295992074, 12.9901830324158], [77.6056027989247, 12.9901832225463], [77.6060606695579, 12.9901720746409], [77.6064619853343, 12.9901877181006], [77.6066005829963, 12.9902121679407], [77.6066026504229, 12.9902125329559], [77.6067300456217, 12.9902473128863], [77.6069210187637, 12.9902880135119], [77.6071056168638, 12.9903582847492], [77.6071186838832, 12.990520412389], [77.6071642910354, 12.9915525091285], [77.6072221146907, 12.9929402464709], [77.6072408871778, 12.993354427465], [77.6072861125507, 12.9934816029581], [77.6074010441308, 12.9935920246666], [77.6076755690821, 12.9935820054068], [77.6081739059378, 12.9935362381332], [77.6082985958335, 12.9935349857355], [77.6084350398222, 12.993521968264], [77.6085002329647, 12.9935096664547], [77.6085713013227, 12.9934914839459], [77.608630372245, 12.9934617731897], [77.6087073194595, 12.9934377081194], [77.6087900201917, 12.9933961148138], [77.6089786236996, 12.9932602856023], [77.6097094749774, 12.9927346740278], [77.6097849677641, 12.9926781389137], [77.6098638619268, 12.9926190571801], [77.6103163642688, 12.9922801857942], [77.6110477545992, 12.9918069735634], [77.6112782255582, 12.9916998376795], [77.6116919687574, 12.9915151591399], [77.6117807886964, 12.9914909721153], [77.6118991159247, 12.9914490197473], [77.6119762428945, 12.9914424224392], [77.6121125024904, 12.9914119347472], [77.6123554543405, 12.9913629052893], [77.6125034676226, 12.9913206540774], [77.6125924092002, 12.9913081142966], [77.6127992484838, 12.9912128591729], [77.6128760734916, 12.9911771473761], [77.6130532254142, 12.9910821934578], [77.6132480059714, 12.9909695935164], [77.613696825233, 12.990732148259], [77.613913862582, 12.990591721725], [77.615004093454, 12.9899931268632], [77.6162473998043, 12.9892992902581], [77.6167153104061, 12.9890144819039], [77.6171210618543, 12.9887305792058], [77.6171214715665, 12.9887302923079], [77.6172538255297, 12.9886255254982], [77.6176777366063, 12.988289971429], [77.6182663116101, 12.9877572133446], [77.6183440664456, 12.9877030909612], [77.6185841274477, 12.9875210166991], [77.6188051016452, 12.987336022404], [77.6193264518666, 12.987219675927], [77.6193294638968, 12.9872772790805], [77.6193261505522, 12.9872773124868], [77.6193261769706, 12.9872779870734], [77.6193327588276, 12.9874475382569], [77.6194072905561, 12.9882492780485], [77.6194986886696, 12.988889032013], [77.6195215124592, 12.9895463297444], [77.6195274490023, 12.9901124170837], [77.6194733054857, 12.9906033949351], [77.6194461626171, 12.990773894174], [77.6193689521669, 12.9912934566283], [77.6193380603654, 12.991500470062], [77.6193026952911, 12.9916751040629], [77.6191818617421, 12.9919762446163], [77.6189434365578, 12.9924933793286], [77.6185057011009, 12.993316494933], [77.6181173426609, 12.9941188478624], [77.6178048666042, 12.9946691516426], [77.6175326980857, 12.9951217787894], [77.6172217599001, 12.9954248345816], [77.6169425235356, 12.9955978731128], [77.6169104916067, 12.9956206133963], [77.6167071648839, 12.9957259749198], [77.6168281780418, 12.9957805160882], [77.6168621782466, 12.9957974567056], [77.616931654309, 12.9961102887839], [77.6171763833121, 12.9967958816675], [77.6174845382767, 12.9975073805972], [77.6175772429024, 12.9976810955671], [77.6176631778397, 12.9978989754793], [77.6178912689477, 12.9983350435668], [77.6179016414432, 12.9983548773943], [77.6179759512809, 12.9983718575546], [77.6182951035694, 12.9984578041704], [77.6187352517008, 12.9986519597846], [77.6189309353528, 12.998787788337], [77.6190976431697, 12.9989198527234], [77.619215017129, 12.9990767356617], [77.6194501075807, 12.9994229196593], [77.620165437662, 12.9999584967635], [77.6207523300903, 12.999450305746], [77.6220423393102, 12.9983146029042], [77.6237010348843, 12.996867145379], [77.6243762727829, 12.9962280591222], [77.6246223561071, 12.996047241295], [77.6249753756107, 12.9958167041881], [77.6253944324172, 12.9955773935473], [77.6260564991775, 12.995258622269], [77.6268346633643, 12.994975149448], [77.6274200435769, 12.9948314264597], [77.6284472260788, 12.9946467523991], [77.6290819444328, 12.9945133267898], [77.6290910857755, 12.9944795243628], [77.6290813888962, 12.9944401787282], [77.6290511866246, 12.9943631191392], [77.628790844996, 12.9941730971512], [77.6291124448363, 12.9942587430729], [77.6302098203893, 12.9940905068031], [77.6311421047335, 12.9939130077667], [77.6319302941796, 12.9937732154249], [77.6333887590333, 12.9934651573194], [77.634092807409, 12.9933130296053], [77.6343715041865, 12.9932937261093], [77.6347606956714, 12.9932370547433], [77.6353472877601, 12.9930992953753], [77.6356960196792, 12.9930298534921], [77.6369833960426, 12.9927498754162], [77.6371631802977, 12.9927230209036], [77.6372951664537, 12.9936007446322], [77.6374758429342, 12.9936129593403], [77.637939168549, 12.993598800641], [77.6379792597556, 12.9938027110447], [77.6380576082162, 12.994201198375], [77.637845133076, 12.9942320301201], [77.6378545550538, 12.9943439457853], [77.637922610734, 12.9951311861324], [77.6394203784302, 12.995019304271], [77.6400488045013, 12.9949829177698], [77.6401134831303, 12.9949922598934], [77.6403681669472, 12.9949696696738], [77.6404052076401, 12.9950775071664], [77.6405579720503, 12.9955006280969], [77.6406643603183, 12.9958344863984], [77.640980013274, 12.9956142603135], [77.6411993494629, 12.9954259950432], [77.6412961991471, 12.9958396436372], [77.6427149650365, 12.9958616594367], [77.6426157780461, 12.9959820210431], [77.6422103567355, 12.9965461879017], [77.6415393513159, 12.9975804312712], [77.6409564247275, 12.9984435540874], [77.6403933477248, 12.9994250225271], [77.6399005864984, 13.0003145848642], [77.6396175110001, 13.0008068547601], [77.6394864826703, 13.0010209659844], [77.639138442881, 13.0015260543428], [77.6388301827853, 13.0019821041377], [77.6387326695314, 13.0021411579328], [77.6386687689023, 13.0022542769514], [77.6386120971189, 13.002464591077], [77.6385425110196, 13.0026264026562], [77.6384967553013, 13.0026967814201], [77.6384476463478, 13.0027428755369], [77.6383336705523, 13.002810908837], [77.6379420240175, 13.0030033513944], [77.6370142398611, 13.0035021701494], [77.6366637618542, 13.0036977892241], [77.6364872715349, 13.0037962983736], [77.6363239913601, 13.0038921861381], [77.6362480148751, 13.003944187462], [77.6363002545703, 13.0039927396425], [77.6364316226814, 13.0041038725702], [77.6364567404619, 13.0041340151443], [77.636457379476, 13.0041351144197], [77.6364660719908, 13.0041369593857], [77.6369007619346, 13.0044973065436], [77.6375029443672, 13.005159919666], [77.6375719041388, 13.0052321703811], [77.6377280068192, 13.0053369728671], [77.6380240725025, 13.0054859478986], [77.6381110198506, 13.0055002627057], [77.6383059685788, 13.005467882651], [77.6384764447504, 13.0054661490679], [77.6387310265217, 13.0055030766913], [77.6390758162518, 13.0055694833132], [77.6393742723437, 13.0056515578492], [77.6399342490137, 13.0058403985101], [77.6402639941979, 13.0059495148888], [77.6404749259056, 13.0059905698446], [77.6405311318844, 13.0060015080556], [77.6409130870732, 13.0060644947043], [77.6411256250904, 13.0060886174377], [77.6418224454008, 13.0061677037365], [77.6425319948262, 13.0062388295476], [77.6426758204282, 13.0062532436391], [77.6431817869733, 13.0063180025713], [77.6436627010497, 13.0063586971142], [77.6442798661065, 13.0063858422696], [77.644869359219, 13.0064345494255], [77.6451267201479, 13.0064410444766], [77.6454642774065, 13.0064102458611], [77.6455232990708, 13.0064218019553], [77.6455368274049, 13.0065280528206], [77.6456628387787, 13.0067182685559], [77.6457013717743, 13.0068007814372], [77.6457037284829, 13.0068037386201], [77.6457041006621, 13.0068090350674], [77.6458149043097, 13.0070267634048], [77.6459565460963, 13.0072289774352], [77.6461039336161, 13.0073885772286], [77.64618845979, 13.0074667470665], [77.6462740028606, 13.0075194478131], [77.6467022552207, 13.0080569074445], [77.6472458553559, 13.0077903218206], [77.6474620181413, 13.0077121246771], [77.6476565474405, 13.007640226239], [77.6477158598027, 13.0076234184263], [77.6480330249504, 13.0075067179217], [77.6480202537856, 13.0076229014522], [77.648090453299, 13.0076327591281], [77.6482639316887, 13.0076218692948], [77.6488740593757, 13.0075700427819], [77.6495430793527, 13.0075176151859], [77.6496822675682, 13.007488836882], [77.6498954573524, 13.0074228261641], [77.6502680177547, 13.0071849665544], [77.650489891953, 13.0070611144004], [77.6506686648071, 13.0069650573154], [77.6507921301057, 13.0069151596536], [77.6509994100584, 13.0068765660832], [77.6513582470691, 13.0068060278291], [77.6515281703583, 13.0067526160255], [77.6515403110929, 13.0067281734397], [77.6514138121498, 13.0064923720028], [77.6512524414168, 13.006183976731], [77.6512360227686, 13.0061252539672], [77.651298221216, 13.0061166350399], [77.6516818839767, 13.0060488836735], [77.6524677748942, 13.0059101441955], [77.6528731988655, 13.005848244024], [77.6529415807211, 13.005865782521], [77.6529916252113, 13.0059078260823], [77.6531323633843, 13.0060249357136], [77.6536361412583, 13.006466611093], [77.6540114784512, 13.006781936108], [77.6545277359702, 13.0072801034747], [77.6547294866254, 13.0075466638115], [77.6554727165565, 13.0083506430729], [77.6558195113709, 13.0087368820918], [77.6559432800539, 13.0088747245947], [77.6560468271264, 13.0089922128714], [77.6561313554665, 13.0090703760512], [77.6564470640157, 13.0093163951087], [77.657496871563, 13.0100898716071], [77.6578939185934, 13.0103578529367], [77.6579120280272, 13.0103591868555], [77.6583552754063, 13.0106464482804], [77.658564275174, 13.0107689341001], [77.6588947084778, 13.01094184509], [77.6593124830881, 13.0111655357041], [77.6600036333498, 13.0114441744661], [77.6609963868078, 13.011807863805], [77.6615128939156, 13.0119879820993], [77.6618682569916, 13.0121727923496], [77.6620991529489, 13.012313287589], [77.6621707655498, 13.0123429478251], [77.6622763400962, 13.0123874444234], [77.6622926562162, 13.0123889834159], [77.6623443496566, 13.0118448851232], [77.6623713534976, 13.0112609470473], [77.6624273336552, 13.0105611654887], [77.6624313567765, 13.0105154145678], [77.6624758298005, 13.0100095965138], [77.6624974726248, 13.0095904480768], [77.662510882775, 13.009330767976], [77.6625320697446, 13.0090038790979], [77.6625523900426, 13.0086903882304], [77.6625875535962, 13.0083048705588], [77.6626460947556, 13.0078450441608], [77.6627548244662, 13.0072750801163], [77.6628506160558, 13.0066252557134], [77.6629983839626, 13.005749729338], [77.6631263972875, 13.0050047655413], [77.6631291053641, 13.0049798656736], [77.6631782749809, 13.0045280862923], [77.6631841798729, 13.0044738422946], [77.6632331666447, 13.0036852475252], [77.6632601694993, 13.0031013096225], [77.6632748944617, 13.0030656083803], [77.6633846769725, 13.0015451596352], [77.6634442468775, 13.0002488942032], [77.6635599231695, 12.9987073216771], [77.6636001213621, 12.9983470040144], [77.6637435344057, 12.9980288191175], [77.6638568309063, 12.99781356086], [77.6639612078446, 12.9976441525069], [77.6639612259687, 12.9976441243159], [77.6639682594641, 12.9976327083], [77.664037433849, 12.9975224545503], [77.6640420997671, 12.9975150124405], [77.6636898585575, 12.9973350170311], [77.6633813621075, 12.9971773755746], [77.6629099323874, 12.9968948204386], [77.6627856394427, 12.9968279310638], [77.6632196625917, 12.9960924220537], [77.663331738079, 12.9959054589758], [77.6633631287467, 12.9958517738244], [77.6636069912526, 12.9954361690296], [77.6637994013129, 12.9951141066422], [77.6638043339548, 12.995105848757], [77.6640652469774, 12.9946758865708], [77.6641261777847, 12.9945673824597], [77.6641283302955, 12.9945635444646], [77.6641296863412, 12.9945611257331], [77.66419027437, 12.994453223176], [77.6646906629284, 12.9936112554726], [77.6648663453449, 12.9933369964182], [77.6651226883451, 12.9929312697848], [77.6652046220217, 12.9928015851156], [77.6655603699218, 12.9923535704167], [77.6657008132097, 12.9921867060689], [77.6660670329368, 12.9917904794358], [77.6663651502767, 12.9915214501621], [77.6665650872504, 12.9913507324596], [77.6668734721098, 12.9911140325403], [77.6670802681434, 12.990965949829], [77.6672143360511, 12.9908732154329], [77.6678213075568, 12.99051092376], [77.6679448208978, 12.9904062372962], [77.6683160171626, 12.9902154098124], [77.6681230387227, 12.9900149743611], [77.6681734409557, 12.9899851986642], [77.6679840709763, 12.9897929332407], [77.6678673485029, 12.9897769859052], [77.6677853217649, 12.9897549149446], [77.667698958346, 12.9896908738411], [77.6675502203556, 12.9894202275914], [77.6674515790066, 12.9889778010677], [77.6674156870631, 12.9885483739219], [77.6674231898616, 12.9879479464228], [77.6674100428593, 12.9873681989497], [77.6674509229451, 12.9863103443682], [77.667445114474, 12.9860920971885], [77.6674461401005, 12.9860375076956], [77.6674688419771, 12.9860338634308], [77.6677289236994, 12.9859595608733], [77.6678248895117, 12.9858255438126], [77.6679341437797, 12.9856334001526], [77.6679547545157, 12.9856093120289], [77.6679735809648, 12.9855795373465], [77.6679928675916, 12.9855952759234], [77.6680558006039, 12.9856253303283], [77.6682393421875, 12.9857253048928], [77.6682832134397, 12.9857492023843], [77.6682847159275, 12.9857505835876], [77.6684165443608, 12.9858228790702], [77.6684196567548, 12.9858228471043], [77.6685734886236, 12.9858963104269], [77.66860546681, 12.9859111118658], [77.668804197831, 12.9860030939707], [77.6688399921034, 12.9860155227326], [77.6691664844075, 12.9861288724648], [77.6692336282511, 12.9861521810599], [77.6692586691251, 12.98615665301], [77.6693536124148, 12.9861736142466], [77.6694322718494, 12.9861876631201], [77.6694817073824, 12.9861897524108], [77.6697967758157, 12.9862030567967], [77.6698220234953, 12.9862041226123], [77.6699367606407, 12.9861995323447], [77.6699990013299, 12.9861950289371], [77.6701647877016, 12.9861830265376], [77.6702113367925, 12.9861796572952], [77.670551738168, 12.9861352244023], [77.6708433397983, 12.98608106103], [77.6709991982765, 12.9860464897665], [77.671171576373, 12.9862223209275], [77.6712956999832, 12.9861752124796], [77.6714970536926, 12.9860662041212], [77.6717054212831, 12.9859705559152], [77.6720215666886, 12.9860440579196], [77.6721396366303, 12.9860895313194], [77.6721993579614, 12.9861125314997], [77.6726193602104, 12.9862742837179], [77.6727100405033, 12.9863071156898], [77.6730252174678, 12.9864316059601], [77.6731225282781, 12.9864685368487], [77.6735059408709, 12.9866140515936], [77.6737318373536, 12.9866997812791], [77.6744813712635, 12.9866237850942], [77.6748881449295, 12.9864312938208], [77.6757025501696, 12.9859368617446], [77.6765075186792, 12.9854518721703], [77.6766470634981, 12.9853611201696], [77.6767765502318, 12.9852519289615], [77.6768009533163, 12.9852274868498], [77.6768087700902, 12.9851897796496], [77.6768307793471, 12.9851976173712], [77.6768500186226, 12.9852027933638], [77.676903664745, 12.9851942412388], [77.6770186509754, 12.9851194609129], [77.6775874618487, 12.9848331890308], [77.6779285475215, 12.9846427331406], [77.6782029219901, 12.9844529645109], [77.6784872262704, 12.9843004814393], [77.678628475713, 12.9841401256007], [77.6790752953796, 12.9840327038284], [77.6798071596427, 12.9836641293669], [77.6798083031107, 12.9836392430668], [77.6798110320103, 12.983634207501], [77.679880196916, 12.9835579772465], [77.6799718112932, 12.9834662239789], [77.6800630820359, 12.9833426916026], [77.6800880768128, 12.9833010609271], [77.6801448576265, 12.9832064915123], [77.6802527024956, 12.9830455455173], [77.6803026906278, 12.9829671443355], [77.6803621639135, 12.9828738633506], [77.6803704169266, 12.9828487113078], [77.6804025811547, 12.9827506494686], [77.6803981887004, 12.9826654204592], [77.6803910854617, 12.9826282275974], [77.6803760770636, 12.9825496720219], [77.6803470113411, 12.9824339971094], [77.6802575781424, 12.982130901336], [77.6801051792466, 12.9816144283956], [77.6799394948217, 12.9810840130827], [77.6798563567369, 12.9807915200453], [77.6798189634186, 12.9806253344507], [77.6798088779557, 12.9805805251957], [77.6798035574833, 12.9805518472129], [77.6796844955193, 12.9799100845954], [77.6796427612137, 12.9796851310483], [77.6795772333674, 12.9794129240409], [77.6794274040787, 12.9787390821617], [77.679379452102, 12.9784837469089], [77.6793335517837, 12.9780953598768], [77.6793003920194, 12.9775976889816], [77.6792912108638, 12.9774635966705], [77.6792813224149, 12.9773192013869], [77.679263279539, 12.9770557137345], [77.6792632983945, 12.9770504242589], [77.6792634395475, 12.9770116741892], [77.6792641626095, 12.9768135187877], [77.679314209763, 12.9766151631205], [77.6793234393096, 12.976502504331], [77.6793258920754, 12.9764069693605], [77.6793057622677, 12.9762982438129], [77.6793000501877, 12.9762673827412], [77.6787342259659, 12.9747484712003], [77.6784037496612, 12.973769495832], [77.6782607712163, 12.9733575016822], [77.6782350722875, 12.9732834516605], [77.6782193475324, 12.9731920226812], [77.6781917812434, 12.9730317534716], [77.6781861988978, 12.9730325950961], [77.6781221473928, 12.9728070656732], [77.6781040669936, 12.9727424425196], [77.6776839168061, 12.9728081671799], [77.6766728579286, 12.9730177855642], [77.6763006686653, 12.9730949481315], [77.6759755868482, 12.9731777305081], [77.6758462839345, 12.9731985289057], [77.6755478910726, 12.973246520684], [77.6749539741446, 12.9733753143941], [77.6745883422896, 12.973472147943], [77.674435331692, 12.9735177895167], [77.6740666757538, 12.97364130057], [77.6738708183084, 12.973706917191], [77.6734814175589, 12.9738222637587], [77.6732888661694, 12.9738793009065], [77.6728190682311, 12.974042563739], [77.6723605412323, 12.9742019031413], [77.6714033411648, 12.9745135185873], [77.6712462716722, 12.9745585886088], [77.6710363569958, 12.9746188208608], [77.6706493358596, 12.9747327913753], [77.6704601845664, 12.9748044907134], [77.6698845793156, 12.9750226790859], [77.6694418695121, 12.975177434923], [77.6692112662881, 12.9752580418321], [77.6691430298204, 12.9752871583121], [77.6689335711786, 12.9753765285019], [77.668798871759, 12.9754202166797], [77.668536248375, 12.9754615427836], [77.6682619888996, 12.975504697257], [77.6679585779575, 12.975552148975], [77.6679145866384, 12.9755590297742], [77.6678492779148, 12.9755622113146], [77.6675289470629, 12.9755778219603], [77.667474808078, 12.9755804615094], [77.6673537170911, 12.9755699715156], [77.6673046732624, 12.9755657219289], [77.6672128626899, 12.9755577672172], [77.6669362979675, 12.9755126578101], [77.6667845835204, 12.9754661176163], [77.666784736002, 12.9754642632058], [77.6666265949365, 12.9754180959753], [77.6666050579586, 12.9754090941787], [77.6663856072552, 12.9753308890825], [77.6664842347968, 12.9745604917149], [77.666603421049, 12.9745529900141], [77.6670181640235, 12.9744888201665], [77.6670418272619, 12.9744213203089], [77.6670327193226, 12.9743380970717], [77.6668397532207, 12.9733889632984], [77.6669007012805, 12.9733793576811], [77.6668725933918, 12.9733197712587], [77.6668319231029, 12.9732273833971], [77.6667860436095, 12.9732188733235], [77.6667139500838, 12.9732325843653], [77.6666428739101, 12.9732472841023], [77.666547701102, 12.9729099695241], [77.6668116832124, 12.9727605696733], [77.6669386989573, 12.972648501951], [77.6665251754127, 12.9725150300093], [77.6665165298047, 12.9722763163633], [77.666507971466, 12.9718944781668], [77.6661443678988, 12.9714502711311], [77.6660397834231, 12.9714864822945], [77.6654281147501, 12.9717239584888], [77.6654116910683, 12.9717689511161], [77.6653451870941, 12.9718909604092], [77.6650377891833, 12.9718334887065], [77.6645864638081, 12.9717493362439], [77.6641990769718, 12.9716771555388], [77.6638327488437, 12.9716079312246], [77.6635401245484, 12.9715871239301], [77.663126104101, 12.9715350427756], [77.6630378412988, 12.9715478523112], [77.6629215178262, 12.9715617350785], [77.6628176692791, 12.9715789735429], [77.6628017529294, 12.9715821962828], [77.6625278163647, 12.9716561942684], [77.6622536541667, 12.9717351503019], [77.6621910716198, 12.9717586566244], [77.6618975771672, 12.9718688859352], [77.6617205980858, 12.9719595412185], [77.6616561696974, 12.9719855840718], [77.6616543849954, 12.971985197618], [77.6615506656932, 12.9721063820338], [77.6615578762099, 12.9719216985698], [77.6615465756741, 12.9718828437545], [77.6615444614172, 12.971824906561], [77.6615403996529, 12.9717472122701], [77.6615252658106, 12.9716934284011], [77.6614989997032, 12.9716572056349], [77.6614810549378, 12.9716431129888], [77.6614517538992, 12.9716259611349], [77.6614410222593, 12.9716191012951], [77.6614273227732, 12.9716103466998], [77.6614078637264, 12.9716057858608], [77.6613236688722, 12.9715987156481], [77.6610873610403, 12.9715863342675], [77.6610184635687, 12.971587039205], [77.6609068255833, 12.9715811674835], [77.6605715539732, 12.9715635312916], [77.660511745986, 12.9715603850018], [77.6600571668476, 12.9715523005531], [77.6597454820392, 12.9715491193133], [77.6595607557069, 12.9715377610358], [77.6585704063891, 12.9715435275023], [77.6586870225598, 12.9713257199573], [77.6587848394971, 12.9711327689932], [77.6583325109252, 12.9710815096113], [77.6576793738058, 12.9707929302085], [77.6576348450458, 12.9700506631417], [77.6575131681674, 12.9692833290529], [77.6573811879866, 12.9688878364853], [77.6573328892213, 12.9684722701695], [77.6572871788111, 12.9683005737679], [77.6581055405998, 12.9682204782644], [77.658668027774, 12.9674283756525], [77.6587546188657, 12.9673125873045], [77.6587531132549, 12.9671708838654], [77.6594885315546, 12.9670413613189], [77.6596802006833, 12.9670453408424], [77.6599252139001, 12.9670121603626], [77.6615452736024, 12.966823457038], [77.6616225492468, 12.9668310617006], [77.6619623528539, 12.9662822154724], [77.6617788634261, 12.9660096887058], [77.661717194605, 12.9658192415989], [77.6616624834693, 12.9656774946454], [77.6616264548036, 12.9655121063362], [77.6615862405898, 12.9654696228947], [77.6615383663087, 12.9654545128536], [77.6614471762281, 12.9654788434534], [77.6613672067529, 12.9654367684193], [77.6612877348183, 12.9654414803129], [77.6612083881235, 12.9654601365512], [77.6611250715923, 12.9651403534532], [77.6607119145561, 12.9652300809733], [77.6605277319449, 12.9649897080953], [77.6608601695508, 12.9649115215066], [77.6608625442457, 12.9648108467703], [77.6608625853677, 12.9648091696553], [77.6608995384614, 12.9646332221671], [77.6610634068935, 12.9643336269128], [77.661112660815, 12.9641637698716], [77.6616037298972, 12.9642614702843], [77.6618427119257, 12.9643064935292], [77.661844142022, 12.9637578370067], [77.6618012311636, 12.9631383853757], [77.6617689135271, 12.9628323318005], [77.6617165498737, 12.9626903646725], [77.6616197667525, 12.9624704745098], [77.6615441709413, 12.9621933627178], [77.6615319329359, 12.9621477012992], [77.661456470135, 12.9621443842682], [77.6613111842648, 12.9621458699667], [77.6611661283511, 12.9621687292794], [77.6609776375651, 12.9622122577484], [77.6609754749521, 12.9622027418526], [77.6609314931044, 12.9620091204558], [77.6609303045392, 12.9620042371292], [77.6609141540933, 12.9619378963747], [77.6608441052133, 12.9616185671021], [77.659992640324, 12.9617330091637], [77.6599921105285, 12.9617330814294], [77.6599644714818, 12.9616312173539], [77.6599520683989, 12.9615855068982], [77.6598563372287, 12.9612533268381], [77.6597958405795, 12.9610768377195], [77.6602081532713, 12.9608959854662], [77.659918416679, 12.9602933051701], [77.6598385106334, 12.9602941217208], [77.6598171625842, 12.9601923812], [77.6598131833466, 12.9601602963257], [77.6597803276803, 12.9599226631427], [77.6597739450577, 12.959877897513], [77.659728881726, 12.9595619312146], [77.6597108541121, 12.9594355329647], [77.6597101412823, 12.9594299066926], [77.6597019669515, 12.9593654383039], [77.659693036915, 12.9592950351194], [77.6596927663856, 12.9592928932297], [77.6596879047535, 12.9592545622722], [77.6596669659181, 12.9590636761693], [77.6597810593791, 12.9590778599734], [77.6598048096956, 12.9590821550409], [77.6598204478746, 12.959084980966], [77.6599305677048, 12.9591048894474], [77.6604715618269, 12.959211207145], [77.6607638645833, 12.9592618737835], [77.6607733099218, 12.9592631160641], [77.6610190886949, 12.9592954231262], [77.6611326295068, 12.9593005879735], [77.6611365055471, 12.959300763356], [77.6611385522934, 12.9593007677271], [77.6612754574086, 12.9592972198446], [77.6612901579047, 12.959296838285], [77.6615991701365, 12.9592639311186], [77.6621053557762, 12.9591997211196], [77.662131505205, 12.95919583652], [77.6622352971913, 12.9591804084206], [77.6622867416111, 12.9591727599535], [77.6627268661543, 12.9591005193536], [77.6627450685929, 12.9590975326502], [77.6627577606142, 12.9590949446973], [77.6630981537276, 12.9590255394681], [77.6633164509571, 12.958981030174], [77.6633287032029, 12.9589785785897], [77.6635616169957, 12.9589319610101], [77.6635531938053, 12.9587691948937], [77.6634877876643, 12.9585509320599], [77.66347182862, 12.9584953344974], [77.6633618005161, 12.9581119773773], [77.6633393176752, 12.9580284333122], [77.6632771737481, 12.9577975346786], [77.663198903935, 12.9575103905697], [77.6631365203838, 12.957292871703], [77.6630716537019, 12.957066691196], [77.6630396327946, 12.9569075784526], [77.6630429840055, 12.9568322411631], [77.6630454999083, 12.9567756261501], [77.6630455071972, 12.9567754453974], [77.6630713599641, 12.9566966519439], [77.6631796569318, 12.9563849929322], [77.6632928570437, 12.9560780455354], [77.6633921331941, 12.9558307297152], [77.6634101688371, 12.9557621893006], [77.6630068916726, 12.9557386451249], [77.6627691328273, 12.9557410767133], [77.6626120101878, 12.9557466358409], [77.6619386943414, 12.9557218971324], [77.6619346880125, 12.9557525305309], [77.6613502465816, 12.9557233033336], [77.6612294437858, 12.9557161545795], [77.6612259377438, 12.9557159474015], [77.6611365980775, 12.9557106578133], [77.661121763618, 12.9557102014437], [77.6610429972379, 12.955707777726], [77.6610208968805, 12.9557063386396], [77.6610032447711, 12.9557051865391], [77.6609979150723, 12.9557016084692], [77.6609819435717, 12.9556908831127], [77.6609797940822, 12.9556894415851], [77.6609724697946, 12.9556845233906], [77.6609410137128, 12.9556589653937], [77.6609323989831, 12.9556519672265], [77.6609252477629, 12.9556425312056], [77.6609235979685, 12.9556403528234], [77.6609076056053, 12.9556192531216], [77.6608887329515, 12.955568498298], [77.6608756536539, 12.9554877133375], [77.6608726029065, 12.955444527147], [77.6619237891901, 12.9554572122454], [77.6619288926586, 12.9551846087419], [77.6619182843984, 12.9550144685908], [77.6624588637281, 12.9549751748189], [77.6624467901861, 12.954569635092], [77.6624248946215, 12.9543613599448], [77.6624173921688, 12.954290020886], [77.6624145333783, 12.9542628345586], [77.6624138140132, 12.9542559887896], [77.6623124182576, 12.9542626066109], [77.66228930025, 12.9542641149389], [77.6622155676669, 12.954268927687], [77.6621833418107, 12.9542710305014], [77.6614496687384, 12.9543189098499], [77.6614394231853, 12.9543195764744], [77.6610498471238, 12.9543450007573], [77.6610488259047, 12.9542488704228], [77.6610486592336, 12.9542331811124], [77.6610461748348, 12.9541337954505], [77.6610456242611, 12.9541117077247], [77.6610430928325, 12.9540104082547], [77.6610378826037, 12.9533743444016], [77.6610307488104, 12.9531504546891], [77.6610298084111, 12.9531209748747], [77.6610290443414, 12.9530969958188], [77.6610258509851, 12.9528882789574], [77.6610254902164, 12.9528647203743], [77.6609953676986, 12.9528663371749], [77.6600565776565, 12.9529167078349], [77.6600349392188, 12.9529191927543], [77.659926080002, 12.9529231882576], [77.6596016708425, 12.9529234931628], [77.6595415144621, 12.9529235473941], [77.6593677954525, 12.9529326018314], [77.6591140240515, 12.9529458269418], [77.6590123942833, 12.9529511196009], [77.6590019595556, 12.9529516633834], [77.6584242945507, 12.9529325747147], [77.6581637609637, 12.9529178220704], [77.6580118158397, 12.9529092196671], [77.6578367762355, 12.9528993062566], [77.6572285593756, 12.9528591090098], [77.6570770952437, 12.9528451431059], [77.6569811329081, 12.9528362932244], [77.6567986826194, 12.9528194705576], [77.6564658504723, 12.9528009295148], [77.6563274095449, 12.9527932155152], [77.6560946360277, 12.9527802472765], [77.6558870086354, 12.9527633274981], [77.6555907787931, 12.9527425501358], [77.6555626685748, 12.9527402440248], [77.6554875697133, 12.9527340834438], [77.655374671582, 12.9527269070783], [77.6553502564769, 12.9527255299017], [77.6551780208896, 12.9527158218519], [77.6550699852852, 12.9527097864518], [77.6549959417992, 12.9527057813088], [77.6547324514476, 12.9526834794022], [77.6547194253092, 12.952682337492], [77.6544410228952, 12.9526578944654], [77.6540294670595, 12.9526299613781], [77.6536628296652, 12.9526051401602], [77.6535232692342, 12.9526006159934], [77.6534019037879, 12.9525959018577], [77.6531457288261, 12.9525770939869], [77.6531064604539, 12.9525766059846], [77.6529704696892, 12.9525749107272], [77.6529599902808, 12.9525737617548], [77.6529505126567, 12.9525738835948], [77.6527781312925, 12.9525760794693], [77.6525348414358, 12.952577807667], [77.6525089315734, 12.9524729223969], [77.6524970075303, 12.9524158858719], [77.6524950652922, 12.9524066087879], [77.6524875599785, 12.9523852665723], [77.6524098580884, 12.9521481120054], [77.6523860606004, 12.9520721301787], [77.6523779508377, 12.952046240987], [77.6523261499398, 12.9518808486785], [77.6523242142954, 12.9518775005236], [77.6523083847046, 12.9518501108036], [77.652294791944, 12.9518265901411], [77.6522833084152, 12.9518067185034], [77.6522539450737, 12.9517832202161], [77.6522116074194, 12.9517566849244], [77.6521254677644, 12.9517178993001], [77.6518966137181, 12.9516440776296], [77.6518088400843, 12.9516037212502], [77.6517030230684, 12.9515397539314], [77.6516102121825, 12.9514820005219], [77.651396777377, 12.9513366303043], [77.6513055820226, 12.9512788594096], [77.6511070016149, 12.9511134439401], [77.6510968130482, 12.9511049563224], [77.6506150412986, 12.9506596127128], [77.6506028773744, 12.950648369929], [77.6504875083579, 12.9505417232363], [77.6504354993866, 12.9504936486795], [77.6503891484565, 12.9504283149137], [77.6501943009473, 12.9502050176712], [77.6501268085441, 12.9501231336481], [77.6501044983202, 12.9500960662253], [77.6499829253785, 12.9499485709895], [77.6497553452426, 12.9496891179563], [77.6496390703195, 12.9495538629564], [77.6494488587997, 12.9493098922192], [77.6494021389476, 12.9492317445002], [77.6493677990101, 12.9491743014545], [77.6493253624503, 12.949103319281], [77.6492742004921, 12.9490070646849], [77.6492506989113, 12.9489716627553], [77.6492485861146, 12.948940224241], [77.6492482650413, 12.9489354683951], [77.649185634415, 12.9487000261158], [77.6491843107663, 12.9486950537115], [77.6491746306737, 12.9486586719536], [77.6491652363705, 12.9486233596244], [77.6491638258893, 12.9486141809688], [77.6491119732693, 12.9482769911046], [77.6490995547968, 12.9479955709288], [77.649097790388, 12.9479556088972], [77.6491016462307, 12.9479353272027], [77.6491111840376, 12.9478851439085], [77.6491263935174, 12.9478051313916], [77.6491684495846, 12.9477031688017], [77.6491880697796, 12.9476750641681], [77.6491967411407, 12.9476626400647], [77.6492576812569, 12.9475753427635], [77.6493593769558, 12.9474671382874], [77.6493925723807, 12.9474272327045], [77.6494240068602, 12.9473867316181], [77.6494326850652, 12.9473464646547], [77.6494136771182, 12.9472707642231], [77.6492826864421, 12.9468821535503], [77.6492727059289, 12.9468525440134], [77.649228235594, 12.9467363645311], [77.6491788475752, 12.9465544629863], [77.6490827940627, 12.9460028929246], [77.6488975168065, 12.946129778258], [77.6482532964289, 12.9467613428114], [77.6478206709466, 12.9471719992203], [77.6476669194216, 12.9472673139961], [77.6469966391374, 12.9475866339655], [77.6466890394646, 12.9477683326263], [77.6465625930974, 12.9478633722043], [77.6464636448511, 12.9479759863371], [77.6463245373822, 12.9481649040831], [77.6460556087142, 12.9485605008812], [77.6455575815125, 12.9492441496649], [77.6453513811454, 12.9495453575645], [77.645163430699, 12.9498508446804], [77.6449851492417, 12.9502098089533], [77.6447765171959, 12.9507119382595], [77.64463605772, 12.9512044497257], [77.6445802829722, 12.9515264531211], [77.6444586869361, 12.952081275016], [77.6443305345571, 12.9528772393093], [77.6442842866539, 12.9532393248634], [77.6442802995923, 12.953292938953], [77.6442716694913, 12.9533376718551], [77.6442085147389, 12.9533918849079], [77.6441404342365, 12.9534104346314], [77.6440874773445, 12.9534220155141], [77.6439905676414, 12.9534432058514], [77.6436729632907, 12.9535401827154], [77.6430244728919, 12.9537699835702], [77.642825061968, 12.9538523669609], [77.6427210385045, 12.9539159264442], [77.6426802635011, 12.9539341969193], [77.6426394432674, 12.9539480059353], [77.6425757247193, 12.9539486525392], [77.642471091716, 12.9539541780215], [77.6424164744933, 12.9539547322327], [77.6423618591101, 12.9539552864138], [77.6422067357697, 12.9539211451967], [77.6420740860454, 12.9538599872171], [77.6419867141469, 12.9537760530022], [77.6419176916665, 12.9537053201452], [77.6418714234953, 12.9536343591368], [77.6418333877444, 12.953588428346], [77.6417918947989, 12.9535386235861], [77.6417403740339, 12.953509011357], [77.6415347527857, 12.9534340863862], [77.6410209244195, 12.9532685334463], [77.6409287571926, 12.9532694681177], [77.6407716853404, 12.9532715071966], [77.6404388253014, 12.9526921956158], [77.6404352681632, 12.9526860036019], [77.6399446428198, 12.9518321093421], [77.6399394495127, 12.9518349769945], [77.6399390560632, 12.9518277952915], [77.6397933720802, 12.9515969032172], [77.6424193684889, 12.9489966093119], [77.6465636178634, 12.9455542376939], [77.6466527733338, 12.9454798205177], [77.6471394576172, 12.9452140213236], [77.6474543118145, 12.9449371488699], [77.6476271572703, 12.9447909542191], [77.6476799195806, 12.9446497802337], [77.6476407695841, 12.9446121692135], [77.6476016980275, 12.9445821586069], [77.6476008952329, 12.9445061455434], [77.6476236651212, 12.9444603032729], [77.6474689071744, 12.944380997681], [77.6474677403916, 12.944270512702], [77.6488827436691, 12.9433158152617], [77.6499302828559, 12.9426970078431], [77.6503552364275, 12.9424899665162], [77.6505951240272, 12.9423726506598], [77.6510199316356, 12.9421520968825], [77.6530547707233, 12.9410840073736], [77.653767321584, 12.9407118560672], [77.6540828367334, 12.9405802545954], [77.6542955956634, 12.9405037575537], [77.6544807292566, 12.9404207869882], [77.6546312039429, 12.9403178943482], [77.6547152507556, 12.9402208781264], [77.655882718919, 12.9394469674262], [77.6563701599931, 12.9392865833015], [77.6565899457949, 12.9392235260936], [77.6567755793614, 12.9391878481844], [77.6572229025966, 12.939142745439], [77.6574364464341, 12.9391405686633], [77.6575637831282, 12.9390982293283], [77.6576964909307, 12.9388523906419], [77.6578555611469, 12.9387930573362], [77.6579329691097, 12.9387881612913], [77.6581470601235, 12.9388104513703], [77.6582087754493, 12.9387832171132], [77.6582067613809, 12.9385931869126], [77.658208035353, 12.9379485539738], [77.6590144926976, 12.9379073507204], [77.6589827298727, 12.9383154035427], [77.6590740440118, 12.9383271648708], [77.6604541669744, 12.9383520829835], [77.660518126847, 12.9383477272567], [77.6605413473392, 12.9383446391764], [77.6605406825908, 12.9382755472304], [77.6605402442802, 12.9382342268902], [77.6605439317242, 12.9381431109748], [77.6605046711545, 12.9381116932246], [77.6580934973063, 12.9366861688345], [77.655221992623, 12.9351152965627], [77.6591399475634, 12.9297635267105], [77.6595791725288, 12.9297846810373], [77.6597234699489, 12.9297893610444], [77.6601131864697, 12.9298715122883], [77.6604021715914, 12.929917778483], [77.6606413186371, 12.9299953123122], [77.6608147926202, 12.9300359761806], [77.6610465164973, 12.9301659676616], [77.6611946108155, 12.9302725749543], [77.6613691131392, 12.9302707946382], [77.6614971106404, 12.93010618779], [77.6619929981464, 12.9294456713157], [77.6633171947189, 12.9282901751411], [77.6635561354945, 12.9282137714935], [77.6635266045321, 12.9278029313139], [77.663394185325, 12.9277582887705], [77.663276559029, 12.9275336885493], [77.6628360597524, 12.9264923312478], [77.6624968753444, 12.9256904741999], [77.6622607028349, 12.924734053649], [77.6619749562827, 12.92386299115], [77.661759002662, 12.9231352052511], [77.6615641812927, 12.9226283857016], [77.6615540417895, 12.9226020061279], [77.6612817281857, 12.9219077995371], [77.6612115436612, 12.9217276927913], [77.6611698782166, 12.9216206209896], [77.6612887050455, 12.9215996594791], [77.66133634793, 12.9215857809043], [77.6614215046321, 12.9215681691325], [77.6621196775487, 12.9214137122876], [77.6628426619558, 12.9212221674917], [77.662839842133, 12.920956202278], [77.6628068215166, 12.9203137699242], [77.662208994434, 12.9183144317466], [77.6605126405214, 12.9165319675632], [77.6568704889593, 12.9191144288182], [77.6548676934846, 12.9205746113321], [77.6537939736845, 12.9206626624828], [77.653743505739, 12.9206658261299], [77.6536636786346, 12.9206653701937], [77.6536720329752, 12.9207357368025], [77.653672398433, 12.9207703269292], [77.6536727464649, 12.9208032676272], [77.6536749646761, 12.9208543096812], [77.6536784056768, 12.9209588476012], [77.65360513477, 12.9209596900476], [77.6535774004165, 12.920966031087], [77.6534581511287, 12.920981884714], [77.6532612907051, 12.9209985280954], [77.6531209593616, 12.9209970283701], [77.6529716724808, 12.9209956159755], [77.6526972880358, 12.9210218324046], [77.6520019703278, 12.9211169466057], [77.6515559773052, 12.9211486101943], [77.6515621546355, 12.9212412886763], [77.6515570483469, 12.9213233376445], [77.6515439617749, 12.9217803109029], [77.651523155509, 12.922354502835], [77.6515116288762, 12.9226767542768], [77.6515193011869, 12.9228377398869], [77.6515321997612, 12.9229283915002], [77.6515512248733, 12.9230336249794], [77.6515702163156, 12.92313592907], [77.6515985043904, 12.9232703521336], [77.6516582835176, 12.9235596629256], [77.6517482873581, 12.9240483964894], [77.6517529109168, 12.9241460052068], [77.6509492540809, 12.9242154775228], [77.6505114280181, 12.9242199246588], [77.6501753431768, 12.9243183647931], [77.65004081453, 12.9244223572611], [77.6498983797476, 12.9245112266278], [77.6493730837512, 12.9246828943631], [77.6493221314141, 12.9246892141951], [77.6490673969599, 12.9246918001995], [77.6485575425916, 12.924660532148], [77.6480581925213, 12.9246187438705], [77.6475164433776, 12.9245825910643], [77.6468097390745, 12.9245064606274], [77.6463105553594, 12.9244802852326], [77.6458646600686, 12.9244743947465], [77.6456576880398, 12.9244764931183], [77.645429433671, 12.9244736007531], [77.6452617869781, 12.924459271064], [77.6449175098966, 12.9242676000058], [77.6444552707801, 12.9240391554603], [77.6434809447521, 12.923755080234], [77.6417557210095, 12.9233062916633], [77.6413569704178, 12.9232191015989], [77.6411969288241, 12.9232308583956], [77.6410166478382, 12.9232833611903], [77.6408626222462, 12.9233761449104], [77.6399742035995, 12.9238350255636], [77.6395007323824, 12.9240288355652], [77.6392308983038, 12.9241322258758], [77.639192332567, 12.9241470243465], [77.6392723922234, 12.9247721670477], [77.6393130507626, 12.9253283824389], [77.6393189217315, 12.9254086875066], [77.6392916941304, 12.9254714904614], [77.6392644263424, 12.9255303838731], [77.6392567864029, 12.9255617244771], [77.6392574846995, 12.9256281531234], [77.6392666444615, 12.9257413911836], [77.6392874662841, 12.925827153386], [77.6393161316374, 12.9259011154358], [77.6394083700738, 12.9259588009654], [77.6395283309487, 12.9260005743633], [77.63974430605, 12.9260804568946], [77.6398121514384, 12.9260914931422], [77.6398679613553, 12.9260948348533], [77.6399755590786, 12.9260976544055], [77.6400949840674, 12.9260886316337], [77.6402342879455, 12.9260754995276], [77.6408980395932, 12.9260592164134], [77.6411226289447, 12.9260665094375], [77.6411874178467, 12.9260828286587], [77.6412773940494, 12.9261148904292], [77.6413429082942, 12.926164785496], [77.6413559071006, 12.9262125669757], [77.6413685505552, 12.9262590493388], [77.6414431934176, 12.9265374643596], [77.6415094062545, 12.9270797511717], [77.6415680992558, 12.9273687076865], [77.6416717174123, 12.9277506332307], [77.6418076189168, 12.9281713122115], [77.6418631995469, 12.9284241077976], [77.642053916463, 12.9288605198113], [77.6421196698909, 12.929051342489], [77.6418163269541, 12.9291750273336], [77.6410930552965, 12.9291823507], [77.6407368351019, 12.9291017782812], [77.6405175040368, 12.929140474326], [77.6402897615051, 12.9292100109162], [77.6399944300218, 12.9293698737065], [77.6396688717977, 12.9295524529129], [77.6395937311276, 12.9295997522639], [77.6396472147515, 12.9298617277114], [77.6396411690713, 12.9299088275009], [77.639598432846, 12.9299905060768], [77.6395323294447, 12.9301301488282], [77.6394876202789, 12.9302262711648], [77.6394874773408, 12.9302267794227], [77.6395073712048, 12.9302759918007], [77.6395511922184, 12.9303895791778], [77.6395990465535, 12.9305183300714], [77.6396073157291, 12.9305676600651], [77.6396076355114, 12.9305980646167], [77.6395846676843, 12.9306249050902], [77.6394110251417, 12.9306950790112], [77.6388823872943, 12.9309094842425], [77.6382600002093, 12.9317900198569], [77.6380791782502, 12.9322629671785], [77.637249586375, 12.9332984802383], [77.6358884336719, 12.9348867167079], [77.6355072130641, 12.9353300967814], [77.6353621700418, 12.9354608144404], [77.6347480292165, 12.9358658020878], [77.6347077368659, 12.9359485306707], [77.6345964910606, 12.9360971843321], [77.6345855207747, 12.9361421946698], [77.6346184499591, 12.9361643116968], [77.634630028298, 12.9361770231334], [77.6345856450661, 12.9362484814466], [77.6344170382855, 12.9363804495703], [77.6341959158843, 12.9365702650595], [77.6336219720005, 12.9370554362211], [77.6333802584864, 12.9373079861063], [77.6332753362389, 12.9374340996077], [77.6331914432345, 12.937539159001], [77.6330767727408, 12.9377487404101], [77.6328477612319, 12.9381991632999], [77.6324577465431, 12.9390003199834], [77.6321762694871, 12.9395137993967], [77.6317297328287, 12.9404978991089], [77.6314179705428, 12.9411627941443], [77.6312368676924, 12.941623152907], [77.6309883484958, 12.9422405114456], [77.6306194638161, 12.9430310341279], [77.6300122960409, 12.9444023364212], [77.6295707860331, 12.9453603309976], [77.6295032612599, 12.9455069100246], [77.6292997037376, 12.9458528628269], [77.6290127931129, 12.9463559760384], [77.628829773908, 12.9466339844211], [77.6287198597963, 12.9467914110363], [77.6286153152098, 12.9469539943459], [77.6283336051991, 12.9474466311933], [77.6280202437642, 12.9479604334812], [77.6278115861008, 12.9483272781089], [77.6276656383662, 12.9485944904117], [77.627561037871, 12.9487518641141], [77.6274563817071, 12.9489040274644], [77.6273620222716, 12.9490248224841], [77.6272621071954, 12.9491368769694], [77.6272355555917, 12.9491619859364], [77.6271372596522, 12.9492456577512], [77.6270689520741, 12.9493037992668], [77.6270460207085, 12.9493233211328], [77.6269906559503, 12.9493704468683], [77.6269376820143, 12.9494143793075], [77.626867336133, 12.9494727129899], [77.626725531794, 12.9495846549297], [77.6266606112352, 12.9496367662533], [77.6265852932371, 12.9496972170305], [77.6264837932177, 12.9497786850282], [77.626366509368, 12.9498728208209], [77.6262901115959, 12.9499341406684], [77.6261738144831, 12.9500216344809], [77.6261737815448, 12.9500216555915], [77.6260289695464, 12.9501292378883], [77.6258369046254, 12.9502331687653], [77.6258096186839, 12.9502472064524], [77.6258027664201, 12.950249470826], [77.625764446779, 12.9502621146443], [77.6256488859739, 12.9503082732165], [77.6255048468967, 12.9503451407802], [77.6254744484155, 12.9503545084357], [77.6254639035302, 12.9503567793045], [77.6254353935177, 12.9503629153758], [77.6249609021549, 12.9504650386809], [77.6247575454088, 12.9505088076657], [77.6244172754613, 12.9505820413992], [77.6240463127254, 12.9506604135894], [77.6236312527893, 12.950748101017], [77.6236125614912, 12.9507526446569], [77.6234676623619, 12.9507878494352], [77.6234651274077, 12.9507888091001], [77.6233929998929, 12.9508173345929], [77.6233681409623, 12.9508271638916], [77.6233119326862, 12.950858228443], [77.6233007800324, 12.9508643909485], [77.6232746244587, 12.9508772380635], [77.6231424371785, 12.9509421698796], [77.6228599342948, 12.9510809329681], [77.6227198786597, 12.951149731869], [77.6224445542681, 12.9512849694437], [77.6223635360013, 12.9513247640037], [77.6223428869362, 12.951334907685], [77.6222134611851, 12.9513893361834], [77.6218505239735, 12.951541963417], [77.6216578082255, 12.9516230065479], [77.6215043062541, 12.9516875577699], [77.621455099688, 12.9516039935903], [77.6213552633581, 12.9513910644616], [77.62120450635, 12.9510123003932], [77.6211088176999, 12.9507499177773], [77.6208995204332, 12.9503318194693], [77.6207434849793, 12.9500787924834], [77.6206718715222, 12.9499438863366], [77.620202511521, 12.949059720403], [77.6200147188987, 12.9487059538201], [77.6195012099089, 12.9477386073695], [77.6194424429947, 12.9476291201651], [77.6193671862298, 12.9474889117077], [77.6193662919494, 12.9474872466619], [77.6193366403118, 12.9474319989135], [77.6192479266458, 12.9474986633643], [77.6182006521348, 12.9482824806954], [77.6175821720241, 12.9487252312422], [77.6173120467121, 12.9489175263499], [77.6171412359641, 12.9490488128688], [77.6170696917587, 12.9490971762388], [77.617093269914, 12.9491282980183], [77.6169922651261, 12.9491977315085], [77.6169779698359, 12.9492206810805], [77.6169492359465, 12.9492523283873], [77.6168514464162, 12.9492494115724], [77.6166492347593, 12.9492559526654], [77.6161916179592, 12.9492730214821], [77.6151491544824, 12.9493009500547], [77.6144549038249, 12.9493079186212], [77.6136511187431, 12.9492985229676], [77.6131272524667, 12.9493037784481], [77.6124888181265, 12.9492977091909], [77.6117538229986, 12.9493000904453], [77.6117023132661, 12.9492382425644], [77.611573367382, 12.9490674148189], [77.6114681663931, 12.9489786672052], [77.6112821868562, 12.9489481039555], [77.6110988291073, 12.948924996452], [77.6107483798138, 12.9489759042738], [77.6099615701385, 12.9491309635499], [77.6095805532436, 12.9491771874205], [77.6093140261183, 12.9492272527284], [77.6084557965487, 12.9493630691241], [77.6073154970539, 12.9495216602136], [77.6058810661185, 12.9497078183321], [77.6058631656345, 12.9497705643308], [77.6058621578597, 12.9497740995895], [77.6058430513473, 12.9498410694359], [77.6057963599487, 12.9499782423899], [77.6057562030372, 12.9500962099425], [77.6057326898907, 12.9500994906085], [77.6043422424546, 12.9502933599095], [77.6034160312401, 12.9504383354144], [77.6032079826651, 12.9496944705507], [77.6028761914455, 12.9488446360984], [77.602681214169, 12.9483144219963], [77.6025837711484, 12.9480535379106], [77.6025627576803, 12.9479757167196], [77.6025121169667, 12.9477881726005], [77.6024841796947, 12.9475857245383], [77.6024692445293, 12.9473915909547], [77.6024589650018, 12.9472312000727], [77.6024575180055, 12.9470918395594], [77.6024725492958, 12.9468805115859], [77.6025146484046, 12.9463732700666], [77.6025769915792, 12.9456358246416], [77.6025820008915, 12.9456043677435], [77.6026105388334, 12.9452404111919], [77.6027549234496, 12.9446307831779], [77.6028407169934, 12.9444248104795], [77.6028715979492, 12.9440994404778], [77.60289333738, 12.9436882166223], [77.6028784548752, 12.9433680629647], [77.6028736807902, 12.9431867035763], [77.6028241640316, 12.9428303700843], [77.6026665078625, 12.942159840768], [77.6021878326562, 12.9422609937825], [77.600955077294, 12.9425138446719], [77.6009022825265, 12.942487117696], [77.6007656376388, 12.9425047864108], [77.6003963530225, 12.9425651597008], [77.6000905229369, 12.9426135650064], [77.5998222607986, 12.9426615925182], [77.5994444549532, 12.9427362244003], [77.5990578922542, 12.9428024390835], [77.5987201887721, 12.9428426539972], [77.598495179703, 12.9428817476345], [77.5982644206675, 12.9429237333881], [77.5980597566225, 12.9429739601323], [77.5976251906554, 12.9431025374771], [77.5972452691506, 12.9432018123921], [77.5973656214708, 12.9423343405793], [77.5975054413191, 12.9414273645824], [77.5975642050019, 12.9405564221828], [77.5975975453671, 12.9402055303562], [77.5976376536113, 12.939990319316], [77.5976588155265, 12.9399506726319], [77.5977292694428, 12.9398186853055], [77.5978800694216, 12.9393990090791], [77.5980566845401, 12.9390941802998], [77.5983677610809, 12.938622541123], [77.5984986409161, 12.9384508653047], [77.5987420795798, 12.938157080574], [77.5989141978129, 12.9379941860128], [77.5990834110474, 12.9378561186795], [77.5993030497253, 12.9377051516379], [77.5996140651907, 12.9375284759484], [77.5998500825356, 12.9374331376496], [77.6000895476711, 12.9373656555626], [77.6003070213002, 12.937310794928], [77.6004993472737, 12.9372685836582], [77.600884351473, 12.937218249133], [77.6012935065174, 12.9371659457536], [77.6015969165128, 12.9371425009269], [77.6015944221043, 12.9371274764488], [77.6015242101512, 12.9367562332073], [77.6014214046886, 12.9362892242505], [77.6013977450488, 12.9361406840171], [77.6013718036768, 12.9357720950113], [77.6013055138169, 12.9349546542803], [77.6012937112586, 12.9348985875699], [77.6012485837232, 12.9345552004715], [77.600924209002, 12.9329854118118], [77.6007812156348, 12.9321974861214], [77.6007405163305, 12.9319292643762], [77.6007173119866, 12.9317228572018], [77.6007048607819, 12.9313345043812], [77.6006148194894, 12.9303029067075], [77.6005276615979, 12.9289757978589], [77.600515439662, 12.9286101639415], [77.6005201282594, 12.9283491931091], [77.5986937111523, 12.9284182333846], [77.597150768225, 12.9284279058872], [77.5955048550695, 12.92845742941], [77.5953879566297, 12.9284603314549], [77.5934880558807, 12.9285074661829], [77.5926454543267, 12.9285201240946], [77.5926106021673, 12.9285257392868], [77.5925046833604, 12.9285332116516], [77.592507478342, 12.9286898626441], [77.5925047938465, 12.9292753380271], [77.5925456314522, 12.9306926189783], [77.5926069317576, 12.93197692347], [77.5926505052093, 12.9332357065702], [77.5927207311501, 12.9349610750397], [77.5927240657607, 12.9357062903298], [77.5927036743168, 12.9361797110105], [77.5924366548283, 12.9362107139744], [77.5920069825597, 12.9362864366193], [77.5917426509572, 12.9363410280624], [77.591577647241, 12.9363946347634], [77.5913865541229, 12.9364874713805], [77.5911103238711, 12.9366720949723], [77.5910699882782, 12.9366140351889], [77.5906267797673, 12.9361420755894], [77.5901735891467, 12.9363470888533], [77.5900449008171, 12.9355827799933], [77.5900397256665, 12.9355056388237], [77.5895450507224, 12.9355479089413], [77.5895111237063, 12.9355818664616], [77.5894795330717, 12.9356422923418], [77.5893115806604, 12.935751760379], [77.5892273476682, 12.9357816197951], [77.5891683453224, 12.9357987910067], [77.5890880419068, 12.9357995883554], [77.5890161465545, 12.935796155408], [77.588927171897, 12.9357763066581], [77.5888083142724, 12.9357277333445], [77.5886043225288, 12.935621959077], [77.5884425571487, 12.9355116177721], [77.5880983218395, 12.9353326045849], [77.5879793334786, 12.9352715944533], [77.5879199489691, 12.9352514516439], [77.5878435689906, 12.9352231884109], [77.5877970755136, 12.9352236498013], [77.5877632638328, 12.9352239853353], [77.5876915387209, 12.9352371356677], [77.5876074338716, 12.9352794318671], [77.5875361390423, 12.9353340367997], [77.5873943398738, 12.9354414906204], [77.587280240082, 12.9355231527626], [77.5870828702913, 12.9356494985776], [77.586696459055, 12.935889659628], [77.5861321928901, 12.9363497239017], [77.5859306057902, 12.9364770287805], [77.5857807817615, 12.9365227380932], [77.5856010507061, 12.9365834898786], [77.5854285345626, 12.9366146843685], [77.5851958281883, 12.9366391043396], [77.5849026013025, 12.9366462422527], [77.5828817355334, 12.9367212556453], [77.5810955066916, 12.9367437445861], [77.5800783806147, 12.9367220351658], [77.5799414438286, 12.9368787493896], [77.5797381685089, 12.937113076363], [77.5791596286001, 12.9378279717572], [77.5779165409318, 12.9393808842872], [77.5778408832543, 12.9394745871943], [77.5776782085221, 12.9397045293629], [77.5777539148752, 12.9403781588274], [77.5777481807873, 12.9405869226386], [77.5776568673208, 12.9405878256126], [77.5762524169636, 12.9406017098113], [77.5740275923407, 12.9406359141115], [77.5738511630129, 12.9406330630913], [77.5738488443891, 12.9407090552499], [77.5737960789774, 12.9407090170155], [77.5737731954614, 12.9414559837774], [77.5737561747987, 12.9427350596222], [77.5737731973047, 12.943693876909], [77.5737731976385, 12.9436939094299], [77.5736167854702, 12.9436859434711], [77.5734357506763, 12.9436840324459], [77.5723057417778, 12.9436792026579], [77.5710995743976, 12.9436644630973]]]]}, "properties": {"id": "bbmp_c2__wards_c2.1", "tessellate": -1, "extrude": 0, "visibility": -1, "OBJECTID": 69, "NewCorp": "Central", "name": "Bengaluru Central City Corporation"}}