{"type": "Feature", "geometry": {"type": "MultiPolygon", "coordinates": [[[[77.557566411737, 13.0252281280479], [77.5575186444236, 13.025058513255], [77.5574093089275, 13.0247036545223], [77.5573373537993, 13.0244590088011], [77.5571950833667, 13.0240435991784], [77.5570903168691, 13.0237251341168], [77.556924904331, 13.0232822507812], [77.5568281264226, 13.0230128103876], [77.5567131096976, 13.0226964355371], [77.5566012230276, 13.0223940359778], [77.5562916412605, 13.0216197995178], [77.555984795536, 13.0209038516407], [77.5558980354415, 13.0206744541086], [77.555708792431, 13.0201740940709], [77.5555961167283, 13.0199287962534], [77.5555578028374, 13.0198852922116], [77.5554678925689, 13.0198456739844], [77.555306710521, 13.019845813002], [77.5551875292478, 13.019845916425], [77.5546504160536, 13.0198246436916], [77.5543246619364, 13.0198282471125], [77.5542628344639, 13.0197379450654], [77.5539332639718, 13.0192565877009], [77.5538641144965, 13.0191555911386], [77.5537653124913, 13.0193220843952], [77.5535458901662, 13.0196541628067], [77.5535339426687, 13.019665883621], [77.5533934510724, 13.0199276623703], [77.5526611847241, 13.0212920767981], [77.5515798829553, 13.0235673572062], [77.5508228742898, 13.0250424495736], [77.5500188655283, 13.0266091213278], [77.549610192573, 13.0276621050887], [77.5489611638262, 13.0291730601167], [77.5487195428083, 13.0295890600457], [77.5483430329803, 13.0302648238351], [77.5479596835459, 13.0309528577406], [77.5476026206258, 13.0316382224038], [77.5465328508747, 13.0336461287794], [77.5461036902178, 13.0345282791343], [77.5455963487002, 13.0354343708429], [77.5449820110344, 13.036674480598], [77.5443005020794, 13.0377771765387], [77.5436827054121, 13.0384024120771], [77.5433542434204, 13.0388069887601], [77.5429305662174, 13.0392030594418], [77.5429221130274, 13.039220057137], [77.5426036933352, 13.0389433950224], [77.5420549384881, 13.0384629666737], [77.5419937905149, 13.0383924717395], [77.5419070232194, 13.0381800402161], [77.5415512410547, 13.0364772509692], [77.54073709908, 13.0324920622596], [77.5359273911457, 13.0360702788826], [77.531513188281, 13.0393364803518], [77.5275902373916, 13.0421949503262], [77.5221987420661, 13.0458887884885], [77.522140657621, 13.0457990892948], [77.5214984201048, 13.0447856120296], [77.5208999564929, 13.043868514254], [77.5203287071712, 13.0430382788185], [77.5198435513281, 13.0422588369125], [77.5193021928109, 13.0414541210288], [77.5187372447511, 13.0405947782068], [77.5183849859356, 13.0399366641066], [77.5180255709019, 13.0402032026079], [77.5172538725046, 13.040991181907], [77.5168330293756, 13.04142090062], [77.5168034401602, 13.0414478057962], [77.5163480041799, 13.0417715984476], [77.5159196627749, 13.0419435691147], [77.5151019099399, 13.0422311930417], [77.5135884782623, 13.0427278018956], [77.5122369670882, 13.0431798062167], [77.5114539628192, 13.0434326590159], [77.5110217887876, 13.0436605953804], [77.5103494381699, 13.0440070349171], [77.5098646944748, 13.0442440862822], [77.5089782713501, 13.0446872573171], [77.5082442644547, 13.0450127781981], [77.5074656769196, 13.0452698819427], [77.5073431088342, 13.0453011883552], [77.5073088403248, 13.0453212363101], [77.507290756039, 13.045331815198], [77.5060341345555, 13.0456884438614], [77.5052557886477, 13.045882989123], [77.5041672335831, 13.0462675415612], [77.5028886344687, 13.0467219314937], [77.5013740942892, 13.0472806003491], [77.4995888189127, 13.0479325482818], [77.4980569227064, 13.0484913678598], [77.4976733794761, 13.0486248363668], [77.496772059021, 13.0489384825259], [77.4968010239361, 13.0494070196032], [77.4968948004962, 13.0496360323314], [77.4969810798874, 13.0498467294998], [77.4973068854014, 13.0506423755661], [77.4945836316017, 13.0512405935234], [77.4944935992723, 13.0512621835376], [77.4943026963823, 13.051307961651], [77.4936418572264, 13.0514530648438], [77.4930060841998, 13.0515681059178], [77.4925548319103, 13.0516532305574], [77.4925534190589, 13.0516534962494], [77.4925236870532, 13.0522373048271], [77.492425348749, 13.0535692140947], [77.4924233437815, 13.0535963599427], [77.4924333213197, 13.0538528155843], [77.4924176359094, 13.0545040331133], [77.4924180485112, 13.0545451742791], [77.4922702694842, 13.054875478923], [77.4916489996073, 13.0558958602184], [77.4911000923786, 13.0567966652594], [77.4909778063627, 13.0569115990413], [77.4923179467639, 13.0607787855005], [77.4923832684549, 13.0609128900596], [77.4928431543291, 13.0622138335385], [77.493079594666, 13.0621636638757], [77.4930238514342, 13.0625961665174], [77.4927781103041, 13.0644338421244], [77.4927875404085, 13.0647177346012], [77.4927811796183, 13.0650387955588], [77.4927800062002, 13.06629763836], [77.4927958607133, 13.0673738995818], [77.492836677561, 13.0682827653723], [77.4928688727268, 13.0687789324862], [77.4929269765915, 13.0698231995322], [77.4929988208937, 13.0708179551608], [77.4930839703759, 13.0721107087116], [77.4948457208263, 13.0720027410926], [77.4958813696202, 13.0719624153864], [77.4967372851742, 13.0719895116115], [77.4978248771756, 13.0719891017212], [77.4992473235639, 13.0719702853366], [77.4994804102867, 13.0719180150088], [77.4996947517722, 13.0718699473612], [77.4997855628712, 13.0718555006462], [77.5008991679391, 13.0722181973242], [77.5013622499593, 13.0726482700964], [77.50147330521, 13.0727982611322], [77.501565457283, 13.0729049449293], [77.5015724204461, 13.0729321212465], [77.5016691280478, 13.0732006938757], [77.5016851559168, 13.0732493946971], [77.5019286764566, 13.0735610984507], [77.5019386776158, 13.0735733964924], [77.5020584314264, 13.0737206709932], [77.5021598250895, 13.0738565740509], [77.5021717514293, 13.0738637396847], [77.5024014557241, 13.0739754506159], [77.5025098049198, 13.0741314229966], [77.5026884966177, 13.0743942365971], [77.5028278341725, 13.0747650819611], [77.5028785761949, 13.0748025681551], [77.50306109195, 13.074850975758], [77.5031194426595, 13.0748685963506], [77.5034980058065, 13.0750575700786], [77.5036543522024, 13.0751380725283], [77.5036864274165, 13.0751508891477], [77.5041941399907, 13.0754050733116], [77.5046636829885, 13.0761801979177], [77.5048048227947, 13.0764131882394], [77.5049300509297, 13.0765373056122], [77.5052227560712, 13.0767168437883], [77.505436488648, 13.0768134346879], [77.5055574987837, 13.0769034101434], [77.5056402307635, 13.0770393306544], [77.5056745265056, 13.0771387380073], [77.5057040164542, 13.0772172139788], [77.5057633507923, 13.0773381703288], [77.5058140955933, 13.0773756557453], [77.5058282364189, 13.077380126253], [77.5058301905313, 13.0773816079728], [77.5060226322265, 13.0774531335418], [77.5066652591136, 13.0777057217097], [77.5070819632991, 13.0778570724185], [77.5072678712405, 13.0778514694227], [77.5075766291535, 13.0777345337417], [77.5076909727368, 13.0777351161011], [77.5079174911013, 13.077727424108], [77.5081384254266, 13.0776694413635], [77.5084212337094, 13.077601006529], [77.508508339696, 13.0775943823061], [77.5085786540356, 13.0775956704098], [77.5086474635236, 13.0776494727188], [77.5086818446881, 13.0776975083714], [77.5087464991946, 13.0777952115154], [77.5087897773762, 13.0778551255051], [77.5089056791963, 13.0780294599584], [77.5089164430419, 13.0779925474428], [77.5089588643729, 13.0778398919229], [77.5090550123171, 13.0776982832964], [77.5090977238359, 13.077642212696], [77.5091931005623, 13.0775332579879], [77.5092903700359, 13.0774824113279], [77.5093286466095, 13.0774364639709], [77.5093513513425, 13.0773830733048], [77.5093423765181, 13.077317304785], [77.5094002262522, 13.0772144356716], [77.5094474976108, 13.0771612507083], [77.5095036787898, 13.077090239244], [77.5095359820019, 13.0770173141248], [77.5095527118622, 13.0769080948102], [77.5095677178817, 13.0768628886402], [77.5095755296912, 13.0768413838987], [77.5095932618026, 13.0768373464215], [77.5096098933223, 13.0768342963071], [77.5096787627341, 13.0768336267939], [77.5097614721281, 13.0768395762431], [77.5099055503239, 13.076784158978], [77.5099737366598, 13.0767159778867], [77.5100010769203, 13.0766954577965], [77.5100945462238, 13.0765846096551], [77.5102925164663, 13.0763444075313], [77.510300478002, 13.0763347017059], [77.5104376052283, 13.0762108398471], [77.5105120549665, 13.0761435933942], [77.5107931867093, 13.0760193275394], [77.5110751315628, 13.0758222681224], [77.5111510855481, 13.075769178916], [77.5114774245772, 13.0755738042081], [77.511479771179, 13.0755753633771], [77.5115268060588, 13.0756068728119], [77.5115675669183, 13.075633694572], [77.5116166921034, 13.0757527870179], [77.5116452353239, 13.0758219888637], [77.5119749468489, 13.0757453813221], [77.5120649771111, 13.0757244616029], [77.5125247642413, 13.0756176293566], [77.5127923894767, 13.075520498069], [77.5133287389671, 13.0754342568291], [77.5139408949799, 13.0751750008422], [77.5142673248372, 13.0750414157184], [77.5144364151473, 13.0753154441765], [77.5156967420404, 13.074958465149], [77.5159142264606, 13.0748904444124], [77.517149393085, 13.0745094051234], [77.5179129521862, 13.0743285592316], [77.5181392044379, 13.0752211432239], [77.5182151341965, 13.0755931033008], [77.5180397377923, 13.0766414925866], [77.5185934610585, 13.0779129786418], [77.5186210248649, 13.0779953380867], [77.5187329681256, 13.0782703438238], [77.5187693741127, 13.078438640596], [77.5187747786046, 13.0784547944256], [77.5188252081239, 13.078716365699], [77.5189991200488, 13.0795539549458], [77.519100557688, 13.0795387387877], [77.5191435395454, 13.0795322912842], [77.5194920412022, 13.0792605056453], [77.5195733433932, 13.0792613400762], [77.519575322625, 13.079269460173], [77.5196333834388, 13.0793679821474], [77.519637849197, 13.0793755503397], [77.5203035723497, 13.0792502282585], [77.5208980276741, 13.0791457797568], [77.5210148668626, 13.0794905856243], [77.5212849779049, 13.0803215918321], [77.5216055810193, 13.0803000676035], [77.5221677036199, 13.0802623280779], [77.5222779224362, 13.08043342066], [77.5224403468117, 13.0805034308716], [77.5225440611167, 13.0805481365957], [77.5226722250844, 13.0806017365072], [77.5227664857763, 13.0807274090227], [77.522801085665, 13.0808207565541], [77.5228412442176, 13.0809393976066], [77.5231766323258, 13.0809134849657], [77.5232719845657, 13.0809089830823], [77.5233447397254, 13.0814780230731], [77.5233468306362, 13.0814956546987], [77.5233671578039, 13.0814982964629], [77.5234916616345, 13.0815144925915], [77.5236405299898, 13.0825629029146], [77.5236507365178, 13.0826020364339], [77.523684529743, 13.0828697050832], [77.523649392669, 13.0834777060093], [77.5237752634735, 13.0834997032092], [77.5243390393173, 13.083598231392], [77.5247377143125, 13.0836679041742], [77.5250660479698, 13.0837240440189], [77.5252217719313, 13.0837544171377], [77.5253799405931, 13.0836498235979], [77.5256268183352, 13.0836132433256], [77.5257650592399, 13.0835920381673], [77.525764883334, 13.0835747700196], [77.525758182329, 13.082916934428], [77.5258295462899, 13.0829132472064], [77.5265696148354, 13.0828755504786], [77.5273965813, 13.0828333740186], [77.5279794196524, 13.0825778523606], [77.5283003504227, 13.0823046399916], [77.5288771284238, 13.0821301938334], [77.5292071940764, 13.0820962898601], [77.5292461447225, 13.0820969118559], [77.5294757355535, 13.0820703138828], [77.5297597168413, 13.0820863918633], [77.5300915756907, 13.0820945871475], [77.5308923222, 13.0828823288761], [77.5348350520393, 13.0838832856743], [77.5369202614388, 13.0838627919167], [77.5394768118553, 13.0876809207694], [77.5407567327619, 13.0900158095432], [77.5407303330594, 13.0908735655621], [77.5406957226853, 13.092120637482], [77.5421127173515, 13.0943450935538], [77.5424221282592, 13.0956065528628], [77.5423757503588, 13.0957719451569], [77.5430006910253, 13.0973287464498], [77.5433414802101, 13.0982127141286], [77.5433951398834, 13.098500455306], [77.5439524583169, 13.0997739444867], [77.5441744630048, 13.1003250967666], [77.544348607484, 13.1008237089003], [77.5439969125351, 13.1008106132634], [77.5438933865015, 13.1011884321079], [77.5438591879461, 13.1013160626493], [77.5441860675475, 13.1012932848404], [77.544405973655, 13.1013419459419], [77.5446546496252, 13.1012810556872], [77.546259618108, 13.1012652025894], [77.5494771489266, 13.1011104543991], [77.5542785019331, 13.1004892080337], [77.5551219868091, 13.1003575163557], [77.5551514978055, 13.100468448723], [77.5552088011272, 13.1005234898882], [77.5553034444704, 13.1005318218197], [77.5556288371203, 13.1004038312123], [77.5556815396578, 13.1004854215556], [77.5561901199972, 13.1002887798568], [77.556382070783, 13.1007209050103], [77.5573202659577, 13.1004066034191], [77.5575107226336, 13.1006940653434], [77.5570739803536, 13.10089390786], [77.5572565837287, 13.1011931782841], [77.5576877414989, 13.101611197677], [77.5580977047513, 13.101908210511], [77.55827998793, 13.1021762019508], [77.558328944489, 13.1022812904196], [77.5584462330239, 13.1024365330644], [77.5587121584346, 13.102691963161], [77.5588784456959, 13.1029562017533], [77.5592936561786, 13.1033743757665], [77.559266096876, 13.1034098415857], [77.5590787073584, 13.103419522156], [77.5588626654229, 13.103359105673], [77.559098555712, 13.1046798698051], [77.5597266303844, 13.1056746298048], [77.5599960983128, 13.106129201414], [77.5604725149808, 13.1070883914541], [77.5607560005363, 13.1076787579713], [77.5610113101842, 13.1083733873701], [77.5609314472186, 13.1088798930349], [77.5606979196597, 13.1089291373035], [77.5602951709821, 13.109073906629], [77.5599993317128, 13.109269749024], [77.560000734003, 13.1094052876732], [77.5601359090529, 13.1096176982398], [77.5602826910341, 13.1099238381478], [77.5603352723509, 13.1108930339396], [77.5602106467822, 13.111186230557], [77.560077599723, 13.1116932668792], [77.5598399892773, 13.111862462612], [77.5596701747401, 13.1119006454838], [77.5595910972691, 13.1119692064665], [77.5595606964102, 13.1121154897685], [77.5595418482477, 13.1123502856961], [77.5597206203512, 13.1131774619438], [77.5603838773388, 13.1130196753242], [77.5607510438027, 13.1135478054646], [77.561006847993, 13.1141083235159], [77.5616597939493, 13.1139819150449], [77.5621564744808, 13.1152021522904], [77.5623768900198, 13.115940280215], [77.562472492125, 13.1164398283471], [77.5628999956104, 13.1186826034681], [77.5629830475205, 13.1195107266365], [77.5629802153544, 13.11975057834], [77.5629819446686, 13.1199173924586], [77.5630657249709, 13.120302359552], [77.563236821974, 13.1209002113741], [77.563519179459, 13.1214552469786], [77.5641023993293, 13.1228101655697], [77.5654948325717, 13.1260218210947], [77.5668628740099, 13.1256506526171], [77.5679675981806, 13.1253712804471], [77.5694043064159, 13.1250243808752], [77.5696997974362, 13.1269127562501], [77.570427162093, 13.1306328293195], [77.5709177555568, 13.1313532427712], [77.5712987609499, 13.1333944314639], [77.5710682459704, 13.1339608747806], [77.5712886915974, 13.1344019197561], [77.571543854689, 13.1352153539775], [77.5717989122078, 13.1360187107932], [77.572238459367, 13.1359132000201], [77.5722887008193, 13.1360529454658], [77.5723327688113, 13.1362246260169], [77.5725343248276, 13.1362162352683], [77.5727236030245, 13.1362780885947], [77.5734049183419, 13.136118272449], [77.5735740598458, 13.1367445025797], [77.573817548584, 13.1378063732241], [77.5738683684148, 13.1382440754002], [77.5739587759803, 13.1402604613388], [77.5739952823949, 13.1408040848298], [77.5746512111053, 13.1408655103107], [77.5743166100149, 13.1413070760124], [77.5762867686182, 13.1417179880214], [77.5772292550483, 13.1419049765173], [77.5803210225002, 13.1426947308393], [77.5819839501157, 13.1408184531164], [77.5823147223169, 13.1405056087977], [77.58247581052, 13.1396637820508], [77.5825549544421, 13.1393475730244], [77.5826580910466, 13.1390363366157], [77.5827910689004, 13.1385266883519], [77.5828196691776, 13.1384638400302], [77.5828695060788, 13.1381427127219], [77.5828981496646, 13.1380861229484], [77.5830907801561, 13.1376132475321], [77.5833020179532, 13.1370541249998], [77.5834447045269, 13.1367036678879], [77.5836243745072, 13.1359249300944], [77.5837883224289, 13.1352754427058], [77.5839819619123, 13.1351324534988], [77.5840388944896, 13.1345378953397], [77.5842199904724, 13.134163346072], [77.5846135429335, 13.1334642984966], [77.58482578855, 13.1331196575417], [77.5849784754266, 13.1329770886936], [77.5851384412372, 13.1327934461632], [77.5855578668812, 13.132639173436], [77.5858716223315, 13.1326285152382], [77.5856728848719, 13.1333882884991], [77.5874610879709, 13.1333327849787], [77.5921374446019, 13.1330667298782], [77.5962800568124, 13.1328115237748], [77.599642717683, 13.1319591749439], [77.6010972214777, 13.1334149800826], [77.6016696380147, 13.1341394434782], [77.6044866690644, 13.1341309292473], [77.6044801374829, 13.1338342231473], [77.6084977998461, 13.1337901593981], [77.6084895379562, 13.1333300825988], [77.6120910869875, 13.1332046880728], [77.613754898653, 13.1314641375427], [77.6150763996887, 13.1310354173967], [77.6150865378108, 13.1310341516056], [77.6156612041412, 13.1310006995356], [77.6169033026421, 13.1309641227913], [77.6177902525199, 13.1309532432162], [77.6187963511093, 13.1309411445086], [77.620127734022, 13.1309257295468], [77.6211711578815, 13.1309185858108], [77.6217371586249, 13.130911178912], [77.6219352196414, 13.1309102228561], [77.6249033996096, 13.1289138530781], [77.6257060493671, 13.127915076496], [77.6260164915871, 13.1275232413344], [77.6266327143327, 13.1273013182195], [77.6305063978695, 13.1260449291113], [77.6327813249851, 13.1224405770453], [77.6343427335579, 13.1199776870674], [77.6386057489539, 13.1133181883789], [77.6377510514242, 13.1096972456916], [77.6370750661331, 13.1065516726191], [77.6397839303576, 13.106107965458], [77.6405878712993, 13.1058302315663], [77.6410885134941, 13.1056962107272], [77.6419116295557, 13.1055354470949], [77.6422222773505, 13.1055205449382], [77.6425629933719, 13.1055229086384], [77.6428557110285, 13.1055081869406], [77.6431184844452, 13.1054879172416], [77.6433403600986, 13.1055559438096], [77.6435497835365, 13.1055772270952], [77.6438110766193, 13.105659629166], [77.6491028083153, 13.1048002748932], [77.6504387430886, 13.1045854746825], [77.6501909535998, 13.1032757094022], [77.6498950618702, 13.1024351209444], [77.6497829102244, 13.1018842679236], [77.6493857183216, 13.1005135454994], [77.6489586653385, 13.0993306012745], [77.6486038285069, 13.0989384720278], [77.6473498050141, 13.0969308036475], [77.645224911651, 13.0919741329671], [77.6430047953077, 13.0874944772875], [77.6427127925619, 13.0868720539117], [77.6432453093923, 13.0867319916764], [77.6438240734483, 13.0866363234287], [77.6448903824966, 13.0864758308839], [77.6459115584489, 13.0863756217], [77.6464130835829, 13.0861910033116], [77.6464984641964, 13.0852283512092], [77.6462923268672, 13.0846939352708], [77.6456039584711, 13.0835210908093], [77.6452126897722, 13.0830900065328], [77.6446023990475, 13.0823883145938], [77.6441218400859, 13.0815799083033], [77.6437417148765, 13.0809404483759], [77.6427883295336, 13.0792327664471], [77.6426437535136, 13.0789738046315], [77.6426064894015, 13.0788953765083], [77.642516110729, 13.0787051646662], [77.6425146919484, 13.0787021772028], [77.6423114215861, 13.0782743693432], [77.642307729084, 13.0782666017896], [77.6422037978609, 13.0779761501742], [77.6420145574828, 13.0777944725902], [77.6417796648222, 13.0777234305197], [77.641303453028, 13.0778568340386], [77.6407204208789, 13.0776332802751], [77.6385011135177, 13.0755229132226], [77.6382498310946, 13.0752059413849], [77.6394582334658, 13.0750195154274], [77.6394524995505, 13.0744805354075], [77.6394595652349, 13.0719635673896], [77.6394492027923, 13.0709892591218], [77.6394297684917, 13.0703550515706], [77.6394762840845, 13.069558457797], [77.6393116454659, 13.0687930462558], [77.6392137562795, 13.0683379379119], [77.6390997408655, 13.0679576286227], [77.6387412253789, 13.0668583352396], [77.6387150953954, 13.0666615867728], [77.6386262884488, 13.0659929015337], [77.6385632453322, 13.0652347440114], [77.6384593667924, 13.0646138351831], [77.6383715242491, 13.0639098356657], [77.6383611726625, 13.0629355241282], [77.6383116575436, 13.0626540710394], [77.6382763729265, 13.06211953931], [77.6382933798967, 13.0609334792494], [77.6381754590836, 13.0593880557057], [77.6382150659344, 13.0583385984069], [77.6383032633543, 13.0574835268877], [77.638258433131, 13.0552531910936], [77.6381679103389, 13.0550924032634], [77.638102845833, 13.0549396488324], [77.6382490117297, 13.0547640059236], [77.6380680453044, 13.0538042610072], [77.6379840604444, 13.0530200880118], [77.6378191146382, 13.0517360501199], [77.6384419224546, 13.0516060704615], [77.6382820933325, 13.0508041253737], [77.6381105752366, 13.0500888405682], [77.6383937378504, 13.0500365016436], [77.6383278430418, 13.0497799013266], [77.6383082417808, 13.0497035804459], [77.6381331082751, 13.0492417663888], [77.638097326575, 13.0488403442813], [77.6380316041314, 13.0479941701463], [77.6377993739549, 13.0471649920256], [77.6374955377648, 13.0466992251601], [77.6372462978164, 13.0457444955187], [77.6371153597393, 13.044671342941], [77.6371101815374, 13.0441829926992], [77.6371440219491, 13.0436161004231], [77.6374014241828, 13.0428744411094], [77.6374393559658, 13.0429125981632], [77.6376222445719, 13.0430538745029], [77.637831301627, 13.0431601797046], [77.6381021556973, 13.0432528447704], [77.6384788991831, 13.0433184036835], [77.6388066144024, 13.0433497614532], [77.6390587622326, 13.0433471898763], [77.6393283262473, 13.0433184161223], [77.639539969973, 13.0432511933683], [77.639786955924, 13.0431792744847], [77.6399588318689, 13.0431167961656], [77.6403383428451, 13.0430261739732], [77.6406026982016, 13.0429237129585], [77.6407745764144, 13.0428612323339], [77.6408625866983, 13.0428169591708], [77.641065244617, 13.0427368162512], [77.6411929300362, 13.0426791245669], [77.6413119529983, 13.0426388710498], [77.6413818553957, 13.0425557466569], [77.6414429581162, 13.0424770483983], [77.6414820778698, 13.0424115862021], [77.6415258069598, 13.0423634258445], [77.6415960334526, 13.0423106595755], [77.641666304118, 13.0422622291612], [77.6417146416255, 13.042231374242], [77.6417790039387, 13.0421864036145], [77.6417246996198, 13.0420052418229], [77.6415804071083, 13.0417443385369], [77.641495991907, 13.0416315606208], [77.6414339683558, 13.0414820784294], [77.6414296174858, 13.0414555339674], [77.6414280636631, 13.0414460469617], [77.6414081151309, 13.0413243267934], [77.6413934297988, 13.041079552262], [77.641403692017, 13.0409879430245], [77.641427224345, 13.0407778574467], [77.641441274736, 13.0406524232857], [77.6414718558044, 13.0402526194995], [77.6414766544866, 13.0401898682305], [77.6414693972696, 13.0398857638594], [77.6414745186009, 13.0396091835154], [77.6415263475687, 13.0395572989669], [77.6416668492017, 13.0395084608635], [77.6416972652747, 13.0394867741696], [77.6418634504572, 13.0393682610983], [77.6418747910698, 13.0393601737421], [77.6418899924816, 13.0393402910346], [77.6420178524683, 13.0391730476227], [77.642117808872, 13.0391160689014], [77.6421660358882, 13.0390885757875], [77.6423347403798, 13.0390394494914], [77.6426487699847, 13.039016491536], [77.6429537368638, 13.0389818643947], [77.643031076495, 13.0389730840969], [77.6430911471138, 13.0389724706869], [77.6434097771908, 13.0389692167688], [77.6436240733913, 13.0389793802814], [77.6437524274789, 13.0389854699261], [77.6437966897039, 13.0390004966534], [77.6438823151154, 13.0390295696953], [77.6438635727806, 13.0387914689767], [77.6438576730027, 13.0386527283626], [77.6438650917591, 13.0385181898278], [77.643899283942, 13.0384050666171], [77.64398949729, 13.0382468815106], [77.6440010575416, 13.0382266122191], [77.6440195153305, 13.0381780611414], [77.6440561899981, 13.0380586357583], [77.6440705889447, 13.0379800809117], [77.6441422661574, 13.0375889947672], [77.6441480967485, 13.0375511803792], [77.6441500783367, 13.0375383129077], [77.6441813153431, 13.0373356117895], [77.6441805643081, 13.0372649321418], [77.6441799714191, 13.0372091352721], [77.6441794575459, 13.0371607743716], [77.6441790622897, 13.0371235764581], [77.6441785484297, 13.0370752164606], [77.6441777578954, 13.0370008179232], [77.6442068454683, 13.0368814700519], [77.6442581037241, 13.0367060900855], [77.6442691306994, 13.0366724938894], [77.6442989315621, 13.0366201058559], [77.6443210617838, 13.0365603530739], [77.6443472894221, 13.0365129078946], [77.6443582914326, 13.0364930056665], [77.6443654754415, 13.036443822642], [77.6443795152937, 13.0363476976636], [77.6444090761641, 13.0362729891043], [77.6444463857624, 13.0362130839779], [77.644491479881, 13.0361716975926], [77.6446762078183, 13.0360650958383], [77.6448993391516, 13.0359568901813], [77.6449572257489, 13.0359122834218], [77.6449699889635, 13.0358461299844], [77.6443774694911, 13.0358521828351], [77.6432358068156, 13.0359279892738], [77.643204725006, 13.0357541204039], [77.6431516103538, 13.0354025357134], [77.6431755504699, 13.0351205924362], [77.6432158108355, 13.0346844267724], [77.6432483137381, 13.0341596526991], [77.6432497885011, 13.0341539760404], [77.6432681086331, 13.0340835244259], [77.6432680185392, 13.0340750406196], [77.6432679344504, 13.0340671222799], [77.6432598292367, 13.0340643746736], [77.6432407622841, 13.0340627652329], [77.6431984628164, 13.0340631970479], [77.6430987203744, 13.0340612502865], [77.6425486551284, 13.0340520517515], [77.642376177263, 13.0340301094867], [77.6423033502858, 13.0340012247891], [77.6421853718562, 13.0339970516873], [77.6421733615409, 13.0339966258822], [77.642055700659, 13.0340379076687], [77.6420168123582, 13.0340515519412], [77.6417156051744, 13.034143508991], [77.6417102434925, 13.0341452385991], [77.6416941758647, 13.0341504191144], [77.6412789373795, 13.0342842544661], [77.6411456163255, 13.0343444908914], [77.6411045089671, 13.0343630649524], [77.6410773149906, 13.0343633423447], [77.6410468485989, 13.0343399505891], [77.6410390720552, 13.0343275385903], [77.6410172542377, 13.0342927146085], [77.64100074132, 13.034266351969], [77.6409003711027, 13.0340547612517], [77.6408734659202, 13.0339924589003], [77.6408057983586, 13.0338357739111], [77.6406762875864, 13.0335911826841], [77.6406367092998, 13.0335464785967], [77.6405723004516, 13.0334737304884], [77.6404106219335, 13.0333302035428], [77.6402636434099, 13.033148008252], [77.6401407105237, 13.0329537177566], [77.6401107175805, 13.0329191667167], [77.6400642319749, 13.0328656154506], [77.639875989795, 13.0326308894536], [77.6398603434637, 13.0325995085003], [77.6398126079272, 13.0325037557577], [77.6396962515303, 13.0321984809262], [77.6396944924955, 13.0321938662129], [77.6396186142187, 13.0319614283038], [77.6396164105373, 13.0319546770594], [77.6396149531098, 13.0319520901178], [77.6395592049671, 13.0318531658072], [77.6394588694966, 13.0316751197694], [77.6394492184948, 13.031661180172], [77.6393059038325, 13.0314541681583], [77.6388267636505, 13.0310087065984], [77.6385186126467, 13.0307303794438], [77.638329087033, 13.0305249133738], [77.638056212554, 13.030253729756], [77.6379593173508, 13.0301346291396], [77.6379138149009, 13.0300451534017], [77.6379004969112, 13.0300019022122], [77.6378969589211, 13.0299930433403], [77.6377669439373, 13.0296676490552], [77.6376329613617, 13.0292253007064], [77.6375628154776, 13.0287062374082], [77.637506133607, 13.0282377485752], [77.6374294476137, 13.0279846188229], [77.6370358879235, 13.0278851868134], [77.6365954980282, 13.0278163403569], [77.6363529572299, 13.0278121435962], [77.6361884804614, 13.0278359201829], [77.6361379860779, 13.0278432195193], [77.6358328921867, 13.0279240964503], [77.6356135016737, 13.0280163557477], [77.6352101617577, 13.028185975728], [77.6351381251341, 13.0282155416388], [77.6348603991116, 13.0283295253826], [77.6345552560099, 13.028405957634], [77.6343873934635, 13.028445947602], [77.6342726794308, 13.0284732732607], [77.6338069983109, 13.0285846693607], [77.6336666550839, 13.0286299549017], [77.6336150128023, 13.0286466202265], [77.633482064568, 13.0287153479561], [77.6334584934202, 13.0286878720091], [77.6331961239704, 13.0283820116803], [77.633085954511, 13.0282535822346], [77.6330130107389, 13.0281685443708], [77.6329537531541, 13.0280869873138], [77.6327663053908, 13.0278289960525], [77.6327286137779, 13.027770185224], [77.6327247624872, 13.0277641787694], [77.6327372500154, 13.0277588690105], [77.6326531031346, 13.0276317891933], [77.6327008447374, 13.0276628491422], [77.6327724856758, 13.0276654654422], [77.6328405746553, 13.0276547437938], [77.6333610993837, 13.0274153820715], [77.6335023370031, 13.0273504323088], [77.6343070261456, 13.0270179189088], [77.634726523814, 13.0268787381781], [77.6353570715861, 13.0266695317368], [77.6362719304145, 13.0264362000105], [77.6372656322147, 13.0262421865272], [77.6382082573342, 13.0260553775254], [77.6393283595187, 13.0258543608606], [77.6394131493299, 13.0258391446983], [77.6397940841671, 13.0257449865587], [77.6399248479725, 13.0256938405611], [77.640364615518, 13.0255218359025], [77.6418444888945, 13.0248681214799], [77.6435551140022, 13.0241083906129], [77.6454152534566, 13.0233003152063], [77.6473227626061, 13.0224583071895], [77.6497804143338, 13.0214033624672], [77.6518678157171, 13.020485927037], [77.6535411453271, 13.0197532710136], [77.653901213215, 13.0196225293882], [77.6547777619548, 13.0193193168423], [77.6555187773847, 13.0190918430683], [77.6557683393339, 13.0189937885977], [77.6560018780362, 13.018902031236], [77.656777763718, 13.0185563269996], [77.6575025690685, 13.0182378062786], [77.6582184653883, 13.0179341908168], [77.6594666856315, 13.0173969809038], [77.6600448272763, 13.0171382184055], [77.6600561001774, 13.0171331747441], [77.6602017621877, 13.0170693949709], [77.6606034638366, 13.0168935003498], [77.6612052410897, 13.0166562295311], [77.6615210473751, 13.016519664553], [77.6616115158692, 13.0164733838566], [77.6616548446071, 13.0164512161369], [77.661698351136, 13.0164289607641], [77.6617029277629, 13.0164252920928], [77.661732000819, 13.0164019924326], [77.6618032072257, 13.0163449269616], [77.6618657990872, 13.0162642911002], [77.66187475991, 13.016250237233], [77.6619133462105, 13.0161897323175], [77.6619615607432, 13.0160981296854], [77.6619933072931, 13.0160378106283], [77.6619997151838, 13.0160159108505], [77.6620091851828, 13.0159835400808], [77.6620428626564, 13.0158684278855], [77.6620710192767, 13.0156755581619], [77.6620987637065, 13.0154441794423], [77.6621591242273, 13.0148717512966], [77.6621894147218, 13.0145959033771], [77.6622256208379, 13.013742261931], [77.6622317547104, 13.0135385428062], [77.6622395628906, 13.0132791126277], [77.6622456945156, 13.0130754368867], [77.6622764444565, 13.0125596037913], [77.6622926562162, 13.0123889834159], [77.6622763400962, 13.0123874444234], [77.6621707655498, 13.0123429478251], [77.6620991529489, 13.012313287589], [77.6618682569916, 13.0121727923496], [77.6615128939156, 13.0119879820993], [77.6609963868078, 13.011807863805], [77.6600036333498, 13.0114441744661], [77.6593124830881, 13.0111655357041], [77.6588947084778, 13.01094184509], [77.658564275174, 13.0107689341001], [77.6583552754063, 13.0106464482804], [77.6579120280272, 13.0103591868555], [77.6578939185934, 13.0103578529367], [77.657496871563, 13.0100898716071], [77.6564470640157, 13.0093163951087], [77.6561313554665, 13.0090703760512], [77.6560468271264, 13.0089922128714], [77.6559432800539, 13.0088747245947], [77.6558195113709, 13.0087368820918], [77.6554727165565, 13.0083506430729], [77.6547294866254, 13.0075466638115], [77.6545277359702, 13.0072801034747], [77.6540114784512, 13.006781936108], [77.6536361412583, 13.006466611093], [77.6531323633843, 13.0060249357136], [77.6529916252113, 13.0059078260823], [77.6529415807211, 13.005865782521], [77.6528731988655, 13.005848244024], [77.6524677748942, 13.0059101441955], [77.6516818839767, 13.0060488836735], [77.651298221216, 13.0061166350399], [77.6512360227686, 13.0061252539672], [77.6512524414168, 13.006183976731], [77.6514138121498, 13.0064923720028], [77.6515403110929, 13.0067281734397], [77.6515281703583, 13.0067526160255], [77.6513582470691, 13.0068060278291], [77.6509994100584, 13.0068765660832], [77.6507921301057, 13.0069151596536], [77.6506686648071, 13.0069650573154], [77.650489891953, 13.0070611144004], [77.6502680177547, 13.0071849665544], [77.6498954573524, 13.0074228261641], [77.6496822675682, 13.007488836882], [77.6495430793527, 13.0075176151859], [77.6488740593757, 13.0075700427819], [77.6482639316887, 13.0076218692948], [77.648090453299, 13.0076327591281], [77.6480202537856, 13.0076229014522], [77.6480330249504, 13.0075067179217], [77.6477158598027, 13.0076234184263], [77.6476565474405, 13.007640226239], [77.6474620181413, 13.0077121246771], [77.6472458553559, 13.0077903218206], [77.6467022552207, 13.0080569074445], [77.6462740028606, 13.0075194478131], [77.64618845979, 13.0074667470665], [77.6461039336161, 13.0073885772286], [77.6459565460963, 13.0072289774352], [77.6458149043097, 13.0070267634048], [77.6457041006621, 13.0068090350674], [77.6457037284829, 13.0068037386201], [77.6457013717743, 13.0068007814372], [77.6456628387787, 13.0067182685559], [77.6455368274049, 13.0065280528206], [77.6455232990708, 13.0064218019553], [77.6454642774065, 13.0064102458611], [77.6451267201479, 13.0064410444766], [77.644869359219, 13.0064345494255], [77.6442798661065, 13.0063858422696], [77.6436627010497, 13.0063586971142], [77.6431817869733, 13.0063180025713], [77.6426758204282, 13.0062532436391], [77.6425319948262, 13.0062388295476], [77.6418224454008, 13.0061677037365], [77.6411256250904, 13.0060886174377], [77.6409130870732, 13.0060644947043], [77.6405311318844, 13.0060015080556], [77.6404749259056, 13.0059905698446], [77.6402639941979, 13.0059495148888], [77.6399342490137, 13.0058403985101], [77.6393742723437, 13.0056515578492], [77.6390758162518, 13.0055694833132], [77.6387310265217, 13.0055030766913], [77.6384764447504, 13.0054661490679], [77.6383059685788, 13.005467882651], [77.6381110198506, 13.0055002627057], [77.6380240725025, 13.0054859478986], [77.6377280068192, 13.0053369728671], [77.6375719041388, 13.0052321703811], [77.6375029443672, 13.005159919666], [77.6369007619346, 13.0044973065436], [77.6364660719908, 13.0041369593857], [77.636457379476, 13.0041351144197], [77.6364567404619, 13.0041340151443], [77.6364316226814, 13.0041038725702], [77.6363002545703, 13.0039927396425], [77.6362480148751, 13.003944187462], [77.6363239913601, 13.0038921861381], [77.6364872715349, 13.0037962983736], [77.6366637618542, 13.0036977892241], [77.6370142398611, 13.0035021701494], [77.6379420240175, 13.0030033513944], [77.6383336705523, 13.002810908837], [77.6384476463478, 13.0027428755369], [77.6384967553013, 13.0026967814201], [77.6385425110196, 13.0026264026562], [77.6386120971189, 13.002464591077], [77.6386687689023, 13.0022542769514], [77.6387326695314, 13.0021411579328], [77.6388301827853, 13.0019821041377], [77.639138442881, 13.0015260543428], [77.6394864826703, 13.0010209659844], [77.6396175110001, 13.0008068547601], [77.6399005864984, 13.0003145848642], [77.6403933477248, 12.9994250225271], [77.6409564247275, 12.9984435540874], [77.6415393513159, 12.9975804312712], [77.6422103567355, 12.9965461879017], [77.6426157780461, 12.9959820210431], [77.6427149650365, 12.9958616594367], [77.6412961991471, 12.9958396436372], [77.6411993494629, 12.9954259950432], [77.640980013274, 12.9956142603135], [77.6406643603183, 12.9958344863984], [77.6405579720503, 12.9955006280969], [77.6404052076401, 12.9950775071664], [77.6403681669472, 12.9949696696738], [77.6401134831303, 12.9949922598934], [77.6400488045013, 12.9949829177698], [77.6394203784302, 12.995019304271], [77.637922610734, 12.9951311861324], [77.6378545550538, 12.9943439457853], [77.637845133076, 12.9942320301201], [77.6380576082162, 12.994201198375], [77.6379792597556, 12.9938027110447], [77.637939168549, 12.993598800641], [77.6374758429342, 12.9936129593403], [77.6372951664537, 12.9936007446322], [77.6371631802977, 12.9927230209036], [77.6369833960426, 12.9927498754162], [77.6356960196792, 12.9930298534921], [77.6353472877601, 12.9930992953753], [77.6347606956714, 12.9932370547433], [77.6343715041865, 12.9932937261093], [77.634092807409, 12.9933130296053], [77.6333887590333, 12.9934651573194], [77.6319302941796, 12.9937732154249], [77.6311421047335, 12.9939130077667], [77.6302098203893, 12.9940905068031], [77.6291124448363, 12.9942587430729], [77.628790844996, 12.9941730971512], [77.6290511866246, 12.9943631191392], [77.6290813888962, 12.9944401787282], [77.6290910857755, 12.9944795243628], [77.6290819444328, 12.9945133267898], [77.6284472260788, 12.9946467523991], [77.6274200435769, 12.9948314264597], [77.6268346633643, 12.994975149448], [77.6260564991775, 12.995258622269], [77.6253944324172, 12.9955773935473], [77.6249753756107, 12.9958167041881], [77.6246223561071, 12.996047241295], [77.6243762727829, 12.9962280591222], [77.6237010348843, 12.996867145379], [77.6220423393102, 12.9983146029042], [77.6207523300903, 12.999450305746], [77.620165437662, 12.9999584967635], [77.6194501075807, 12.9994229196593], [77.619215017129, 12.9990767356617], [77.6190976431697, 12.9989198527234], [77.6189309353528, 12.998787788337], [77.6187352517008, 12.9986519597846], [77.6182951035694, 12.9984578041704], [77.6179759512809, 12.9983718575546], [77.6179016414432, 12.9983548773943], [77.6178912689477, 12.9983350435668], [77.6176631778397, 12.9978989754793], [77.6175772429024, 12.9976810955671], [77.6174845382767, 12.9975073805972], [77.6171763833121, 12.9967958816675], [77.616931654309, 12.9961102887839], [77.6168621782466, 12.9957974567056], [77.6168281780418, 12.9957805160882], [77.6167071648839, 12.9957259749198], [77.6169104916067, 12.9956206133963], [77.6169425235356, 12.9955978731128], [77.6172217599001, 12.9954248345816], [77.6175326980857, 12.9951217787894], [77.6178048666042, 12.9946691516426], [77.6181173426609, 12.9941188478624], [77.6185057011009, 12.993316494933], [77.6189434365578, 12.9924933793286], [77.6191818617421, 12.9919762446163], [77.6193026952911, 12.9916751040629], [77.6193380603654, 12.991500470062], [77.6193689521669, 12.9912934566283], [77.6194461626171, 12.990773894174], [77.6194733054857, 12.9906033949351], [77.6195274490023, 12.9901124170837], [77.6195215124592, 12.9895463297444], [77.6194986886696, 12.988889032013], [77.6194072905561, 12.9882492780485], [77.6193327588276, 12.9874475382569], [77.6193261769706, 12.9872779870734], [77.6193261505522, 12.9872773124868], [77.6193294638968, 12.9872772790805], [77.6193264518666, 12.987219675927], [77.6188051016452, 12.987336022404], [77.6185841274477, 12.9875210166991], [77.6183440664456, 12.9877030909612], [77.6182663116101, 12.9877572133446], [77.6176777366063, 12.988289971429], [77.6172538255297, 12.9886255254982], [77.6171214715665, 12.9887302923079], [77.6171210618543, 12.9887305792058], [77.6167153104061, 12.9890144819039], [77.6162473998043, 12.9892992902581], [77.615004093454, 12.9899931268632], [77.613913862582, 12.990591721725], [77.613696825233, 12.990732148259], [77.6132480059714, 12.9909695935164], [77.6130532254142, 12.9910821934578], [77.6128760734916, 12.9911771473761], [77.6127992484838, 12.9912128591729], [77.6125924092002, 12.9913081142966], [77.6125034676226, 12.9913206540774], [77.6123554543405, 12.9913629052893], [77.6121125024904, 12.9914119347472], [77.6119762428945, 12.9914424224392], [77.6118991159247, 12.9914490197473], [77.6117807886964, 12.9914909721153], [77.6116919687574, 12.9915151591399], [77.6112782255582, 12.9916998376795], [77.6110477545992, 12.9918069735634], [77.6103163642688, 12.9922801857942], [77.6098638619268, 12.9926190571801], [77.6097849677641, 12.9926781389137], [77.6097094749774, 12.9927346740278], [77.6089786236996, 12.9932602856023], [77.6087900201917, 12.9933961148138], [77.6087073194595, 12.9934377081194], [77.608630372245, 12.9934617731897], [77.6085713013227, 12.9934914839459], [77.6085002329647, 12.9935096664547], [77.6084350398222, 12.993521968264], [77.6082985958335, 12.9935349857355], [77.6081739059378, 12.9935362381332], [77.6076755690821, 12.9935820054068], [77.6074010441308, 12.9935920246666], [77.6072861125507, 12.9934816029581], [77.6072408871778, 12.993354427465], [77.6072221146907, 12.9929402464709], [77.6071642910354, 12.9915525091285], [77.6071186838832, 12.990520412389], [77.6071056168638, 12.9903582847492], [77.6069210187637, 12.9902880135119], [77.6067300456217, 12.9902473128863], [77.6066026504229, 12.9902125329559], [77.6066005829963, 12.9902121679407], [77.6064619853343, 12.9901877181006], [77.6060606695579, 12.9901720746409], [77.6056027989247, 12.9901832225463], [77.605295992074, 12.9901830324158], [77.605280081546, 12.9903319122698], [77.6052649449081, 12.9905311404528], [77.6052114616629, 12.9907014804457], [77.605102029635, 12.9910733316972], [77.6049966401162, 12.9912523845875], [77.6048932062666, 12.99143010878], [77.604797216503, 12.9915744814746], [77.6046484960463, 12.9917454278841], [77.6045722120582, 12.9919413168696], [77.6045459450651, 12.992007672297], [77.6044892162241, 12.9920611133692], [77.6044542666144, 12.992099409601], [77.6044114019668, 12.992112310371], [77.6043637298189, 12.992123501276], [77.604185277043, 12.9921826285756], [77.6041052993479, 12.9922228515848], [77.6038689149823, 12.992727278899], [77.6039030852702, 12.9928108158907], [77.6038343499747, 12.992774558518], [77.6028363144156, 12.9925491184096], [77.6025341130878, 12.9925285892743], [77.6022903007092, 12.9925310324985], [77.6020953091816, 12.9925389643142], [77.6018700292573, 12.9925651334029], [77.6015052379628, 12.9926584568631], [77.6012316934869, 12.9927329328317], [77.6006873289878, 12.9929410647534], [77.5991634448748, 12.9935913623622], [77.5985259558908, 12.9938141564194], [77.5974058662536, 12.994205603308], [77.5966354397121, 12.9944333213684], [77.5965313503464, 12.9944767855996], [77.5965714711332, 12.9945480997329], [77.596837931833, 12.9946115852077], [77.5971748644485, 12.9947088467859], [77.5986634722198, 12.9951914135239], [77.5998687766784, 12.9955598053492], [77.600046173078, 12.9956140235361], [77.6001614590121, 12.9956551070778], [77.6002143906492, 12.9956827350804], [77.6002576524926, 12.9957010723764], [77.6003103905178, 12.9957099317412], [77.6003871974124, 12.9957326254663], [77.6004303126871, 12.9957368887681], [77.6005021413085, 12.9957408617651], [77.6006026325876, 12.9957398552396], [77.6007555178634, 12.99571485819], [77.6015338537232, 12.9955474979139], [77.6024076988109, 12.99536040498], [77.6035575182613, 12.9950203663883], [77.604782921197, 12.9945857044271], [77.6055020134803, 12.9942452863943], [77.6056812739758, 12.9944731529726], [77.606927206155, 12.9963220092546], [77.607669029079, 12.9974423315435], [77.6081245938062, 12.9980811070259], [77.608500863867, 12.9986855809774], [77.608676346137, 12.9989325834132], [77.6084418139767, 12.9990419336853], [77.6071278979078, 12.9994791263339], [77.6068616808651, 12.9995446143423], [77.6067816179133, 12.9995454184114], [77.606733580409, 12.9995153867535], [77.6065926147875, 12.9985774407492], [77.6065483500589, 12.9982138048507], [77.606547653046, 12.9981301131129], [77.606523848171, 12.9979942619567], [77.6064965316066, 12.9979506351835], [77.6064648306701, 12.9979158337207], [77.6064241326939, 12.9978767310342], [77.6063969995232, 12.9978506658962], [77.6063565756231, 12.997837899811], [77.6062579583713, 12.9978257215741], [77.6058775177618, 12.9978339277839], [77.6051567815461, 12.9978367745615], [77.6050673472521, 12.9978464515433], [77.6050094295526, 12.9978733721325], [77.6049919357018, 12.9979130572203], [77.604944253628, 12.9980627970772], [77.6048712238914, 12.9983576593134], [77.6048228564458, 12.9984415543987], [77.6047523330311, 12.9985476250613], [77.6046993034286, 12.998614004308], [77.6046017411268, 12.9987027854542], [77.6043834535649, 12.9988059461885], [77.6038350130352, 12.9990177772969], [77.6032732813773, 12.999242912675], [77.6021943045945, 12.9996663930742], [77.6018290242787, 12.9998412653153], [77.6017733020506, 13.0000788852456], [77.6016751512675, 13.000540821686], [77.601602736777, 13.0005247013175], [77.6015955830364, 13.000638198451], [77.6015782257708, 13.0006910531461], [77.6015697768473, 13.0007394287896], [77.6015571702389, 13.00081857532], [77.6015410502389, 13.0009899474139], [77.6014962017773, 13.0014118381572], [77.6014925959871, 13.0014952869375], [77.601650568456, 13.0014761425666], [77.601650607481, 13.0014798859821], [77.6016574445209, 13.0014741466257], [77.6018570670043, 13.0014237903624], [77.6020216667333, 13.0013937318785], [77.6020713068565, 13.0013846651789], [77.6022191071613, 13.0013718046236], [77.6022445383112, 13.0013771490825], [77.6022667756828, 13.001381822695], [77.6023353898079, 13.0013962391219], [77.6024347139203, 13.0014635088928], [77.6025078404288, 13.0015802998114], [77.6025674576691, 13.0016755086716], [77.6025930578481, 13.0017377826931], [77.6037868611227, 13.0034554052968], [77.60378560935, 13.003705022021], [77.6037849926077, 13.0038278797918], [77.6037477895392, 13.0040849157347], [77.603741702799, 13.0041269744106], [77.6037420468588, 13.0041599442277], [77.6037429196915, 13.0042435837519], [77.6038228915641, 13.0044020662316], [77.603996417342, 13.0047687864833], [77.6040234337407, 13.0048258793215], [77.6041013777769, 13.005033130888], [77.6043414485588, 13.0054492886725], [77.604531548623, 13.0059039819646], [77.6045610842115, 13.0059441336586], [77.6045914664966, 13.0060583216503], [77.6046051287189, 13.0060844416701], [77.6049426200735, 13.0059788036006], [77.6051405273707, 13.0064395158956], [77.6052664194981, 13.0067139943953], [77.602446096213, 13.008101997257], [77.601472577037, 13.0085684258629], [77.6013376271505, 13.00863511784], [77.6012506486293, 13.0086781006652], [77.6009624359528, 13.0088114665311], [77.6002540448207, 13.009183133718], [77.5981041799243, 13.0101832391525], [77.5973221108752, 13.0106208753933], [77.5969134237907, 13.0108360299775], [77.5966052406356, 13.0109312176554], [77.5962040002221, 13.0110994529466], [77.596005165392, 13.0111828234543], [77.5959009734938, 13.0112318521088], [77.5957518475531, 13.0113020253675], [77.5954552530912, 13.0104671384637], [77.5953276208853, 13.010143481011], [77.5953206745603, 13.0100449102113], [77.5953022013685, 13.0099754657525], [77.5949558300952, 13.009102767455], [77.594743973426, 13.0092151326298], [77.5942362847825, 13.0076245516432], [77.5937640382304, 13.0065964420039], [77.5935584675403, 13.0061749242833], [77.593445039797, 13.0060117109755], [77.5932615497026, 13.0056680929043], [77.5932147390104, 13.0056894472526], [77.5931999146131, 13.0057393203991], [77.5930837687567, 13.0060424575106], [77.5930314561789, 13.0061789868529], [77.5927392120399, 13.0067106412179], [77.5924830155558, 13.0071068248886], [77.5923154612445, 13.0073659291097], [77.5918484743076, 13.0081202928412], [77.5911315274861, 13.0092164895652], [77.5906451978887, 13.0099440581165], [77.5906164165268, 13.0099871159985], [77.5901807064665, 13.0106543585072], [77.5897765718936, 13.0112621004154], [77.5890655394254, 13.0123180288614], [77.5883475382261, 13.0132353674295], [77.5881426147979, 13.0134971814433], [77.5878818759635, 13.0137321800939], [77.5876686593573, 13.0138672224072], [77.5872642400684, 13.0140817017778], [77.5868424720386, 13.0142575863249], [77.5865721496954, 13.0143322788403], [77.5859799906567, 13.0144157163881], [77.5846593837911, 13.0145119557119], [77.5839926872868, 13.0145239145928], [77.5839983180421, 13.0154446596769], [77.5839718288338, 13.0166429884099], [77.5839491809344, 13.0170858106329], [77.5839239710294, 13.0180323020355], [77.5839002279844, 13.0191199537449], [77.5838974290973, 13.0196007303046], [77.5838997630222, 13.0198258213788], [77.5839073730768, 13.0201844007363], [77.583921102012, 13.0203826698408], [77.5839498413966, 13.0205273707698], [77.5839711170645, 13.0207026732912], [77.5840926705165, 13.0211669490534], [77.5845328821211, 13.022715463102], [77.5845909667458, 13.0228967395546], [77.5845148050792, 13.0229388197165], [77.5842676497883, 13.0231861380753], [77.5828537909443, 13.0244051592581], [77.5826829416815, 13.0245618824926], [77.5824437193352, 13.0247087150745], [77.5819217567395, 13.0249640630442], [77.5814279480878, 13.025162757696], [77.5812955974511, 13.0252204464436], [77.5812384390713, 13.0252527239292], [77.5811886147525, 13.025299021103], [77.5811494237466, 13.0253311222858], [77.5811209718249, 13.0253595894496], [77.5810997773126, 13.0253950338562], [77.5810372250104, 13.0256000007268], [77.5809986161481, 13.0256884662528], [77.5809631623171, 13.0257346202467], [77.5809241144284, 13.0257808091373], [77.5808920711902, 13.0258093147748], [77.580859953986, 13.0258307716014], [77.5807812404222, 13.0258632664512], [77.5806314346383, 13.0259704539621], [77.5804923706471, 13.026074010096], [77.5802754686487, 13.0262946079041], [77.5801661531764, 13.02643065169], [77.5800744900599, 13.0264775795185], [77.5799963553808, 13.0265297878203], [77.5799354362643, 13.0265561082197], [77.5798002638714, 13.0265874512401], [77.5794949106864, 13.0266462051564], [77.5789060120148, 13.0267592089689], [77.5785963327732, 13.0268222908885], [77.5783561829519, 13.0268461089301], [77.5780940897567, 13.0268615741731], [77.5777011055014, 13.0268997703061], [77.577697966223, 13.0271213545023], [77.5776866132271, 13.0272416921458], [77.5776864395867, 13.0272421862496], [77.5776395693382, 13.0272487978297], [77.5773049729387, 13.0273057362412], [77.5765461942523, 13.027427305802], [77.5753233973019, 13.0276593648208], [77.5739844438005, 13.027904786318], [77.5728156249619, 13.0281362988318], [77.5718542771041, 13.0283494539026], [77.571252308276, 13.0284842956116], [77.5711690043004, 13.0287893282505], [77.5710632729361, 13.0291764872495], [77.5698700084863, 13.0322511265487], [77.5696419906132, 13.0325592187076], [77.5691943332343, 13.0331706171318], [77.5687266316962, 13.033839542259], [77.5682278501437, 13.034517037264], [77.5670658937774, 13.0358271552895], [77.5667056779782, 13.0361566268609], [77.5659603664788, 13.0369418060982], [77.5654663395414, 13.0375984860445], [77.5649587095422, 13.0382444570629], [77.5644820813122, 13.0388509711721], [77.5642909188038, 13.0390901688684], [77.5638520187712, 13.0396393505342], [77.5634150534346, 13.0402433177402], [77.5622131410586, 13.0418803329392], [77.5621443828723, 13.0419829311381], [77.5621326085338, 13.0420004978744], [77.5617792928064, 13.0413586980643], [77.5616951133537, 13.0412057855145], [77.5614825883326, 13.0408382814678], [77.5613645496408, 13.0406341673326], [77.5612690404833, 13.0404690092558], [77.5612373611523, 13.0404245250844], [77.5610525083934, 13.0401649666157], [77.5610091941662, 13.0401041447602], [77.5608231574885, 13.0398851094609], [77.5608131898668, 13.0398733755641], [77.5607213443699, 13.0397785092659], [77.5607103523117, 13.0397671559143], [77.5607087000572, 13.0397654493769], [77.5605606631459, 13.0396125455077], [77.5603789829626, 13.0394654076841], [77.560239435414, 13.0393523928533], [77.5599124700049, 13.0391412888709], [77.5596111153638, 13.0389911725992], [77.5593537303681, 13.0388651146866], [77.5591924991347, 13.0388086800029], [77.5588773140515, 13.0386983556583], [77.5585582325084, 13.0386463918582], [77.558227237153, 13.0385956629573], [77.5581453424836, 13.0385831111267], [77.55792609171, 13.0385712670505], [77.5579013208273, 13.038569927172], [77.5578578660312, 13.0385675811652], [77.5577992818976, 13.0385676812304], [77.5573439632946, 13.0385684523309], [77.5573805769994, 13.0380196502594], [77.5573948128277, 13.0377134625424], [77.5575158683521, 13.0366666316875], [77.5575582724008, 13.0361577069448], [77.5575566363586, 13.0359985018703], [77.5575295761024, 13.035796678116], [77.5574815655818, 13.0355944894095], [77.5574381782239, 13.0354117705385], [77.5574163131595, 13.0353249820107], [77.5573542082484, 13.0350784860938], [77.5573535290924, 13.0350757914719], [77.5573410911118, 13.0349139872047], [77.5573387370695, 13.0348102495669], [77.55733795447, 13.0347758727074], [77.5573446786075, 13.0347603843192], [77.557378700559, 13.0346819988208], [77.557380666451, 13.0346774666467], [77.5575103050384, 13.0344338073289], [77.5575112605939, 13.0344320144708], [77.5575413455557, 13.0343754664099], [77.5582754980126, 13.0333154447309], [77.55865738018, 13.0327640510617], [77.5597904520858, 13.0311386844957], [77.5599292963851, 13.030959521548], [77.5599235634787, 13.0309452105931], [77.5598475585091, 13.0307555644247], [77.5595119018644, 13.0299180319372], [77.5594966043681, 13.0298798622093], [77.5593934778502, 13.0296333005764], [77.5592612885748, 13.0293172522705], [77.5590596590801, 13.0288402059197], [77.5588760409634, 13.0284057716443], [77.558824388545, 13.0282835647796], [77.5587863086189, 13.0281960411513], [77.5585355683727, 13.0276197196792], [77.5584084568148, 13.0272729869342], [77.5580072930709, 13.0263872937893], [77.557766272343, 13.0258379559739], [77.5577149717118, 13.0257251167461], [77.557648526334, 13.0254936145139], [77.557566411737, 13.0252281280479]]]]}, "properties": {"id": "bbmp_c2__wards_c2.3", "tessellate": -1, "extrude": 0, "visibility": -1, "OBJECTID": 1, "NewCorp": "North", "name": "Bengaluru North City Corporation"}}