{"type": "Feature", "geometry": {"type": "MultiPolygon", "coordinates": [[[[77.582248990077, 12.8371754732144], [77.5813521268172, 12.8375806147792], [77.5806093460046, 12.8378622909913], [77.5791828009955, 12.8381201957801], [77.5760516558557, 12.8387911475657], [77.5746131022455, 12.83911885668], [77.5735045791521, 12.8393713784537], [77.5659247803444, 12.8398017528043], [77.5632015676672, 12.8391987103991], [77.5601072016148, 12.840557046891], [77.5574706535343, 12.8417165967018], [77.5573840704536, 12.8422201427782], [77.5573121514254, 12.8431360629547], [77.5573045156043, 12.8432042188858], [77.5573304222222, 12.8441984064178], [77.557191792201, 12.8442102787333], [77.5558353512866, 12.8458215091801], [77.554148742037, 12.8481207230948], [77.55341094274, 12.8477561776306], [77.5534164487242, 12.8475568994841], [77.5531705400608, 12.8470354089317], [77.5522042161611, 12.8474063617416], [77.5515847421036, 12.8478698614739], [77.5448010485018, 12.847802917256], [77.5447636761798, 12.8478254138496], [77.5447793100812, 12.8478842942834], [77.5445099541904, 12.8480197221353], [77.5444315512335, 12.8484484459495], [77.5446284655359, 12.8485867321167], [77.5450807356557, 12.8486930269001], [77.5451787107855, 12.8487142108182], [77.5452323100226, 12.8488096135601], [77.5452091670053, 12.8490002467538], [77.545222320187, 12.8491184054559], [77.5452807375028, 12.8492485794689], [77.5453399928977, 12.849301266212], [77.5454945599401, 12.8493741352745], [77.5455456939158, 12.8494109923964], [77.5456421128695, 12.8495345735969], [77.5456903223654, 12.84959636237], [77.5457671793901, 12.8496672141908], [77.5457778230273, 12.8497791749408], [77.5457498849265, 12.8499094005828], [77.5457296704607, 12.8500212740405], [77.5457244562136, 12.8502097817655], [77.5456477612206, 12.8503640827808], [77.5455560687092, 12.8504417512909], [77.5454435276523, 12.8505684791326], [77.5453801456429, 12.8506319124853], [77.5452103483503, 12.8507242990819], [77.545026821147, 12.8508656758763], [77.5449637174756, 12.8509570273864], [77.5449149134168, 12.8510552177065], [77.5449159681731, 12.8511599055355], [77.544913315027, 12.8512290523726], [77.5449370764761, 12.8512848534698], [77.5450003081742, 12.8513612846607], [77.5450869272574, 12.8514567491873], [77.5452033993496, 12.8515126546176], [77.5452470296774, 12.8515405877377], [77.5452923565899, 12.8515950673895], [77.5453049187327, 12.8516379047374], [77.5453056907211, 12.8517145117308], [77.545307167691, 12.8518610750004], [77.5453084336876, 12.851986701433], [77.5453380826605, 12.8521050713543], [77.5453889976214, 12.8522162528976], [77.5455056180869, 12.852494317857], [77.5455923109711, 12.8526260928514], [77.5457358357461, 12.85275033607], [77.5457576373314, 12.8527676003672], [77.5458159983892, 12.8528313025086], [77.5458687057142, 12.8528609236079], [77.5458717552126, 12.8528648349591], [77.5459098817267, 12.8528835788042], [77.5459331542032, 12.8529020665644], [77.5459607713375, 12.8529530154718], [77.5459670495716, 12.8530195377297], [77.5459890103598, 12.8531666718683], [77.5459983752071, 12.8533899364589], [77.5459795708465, 12.8536413935439], [77.5459562090236, 12.8539173744421], [77.5459299449139, 12.8540324317564], [77.545918482725, 12.8540903263751], [77.5459246697284, 12.8541729999799], [77.54594979081, 12.854275190018], [77.5459724497814, 12.8543464265993], [77.546059847402, 12.8545479948701], [77.5461037203351, 12.8546662246937], [77.5462764725771, 12.8548669651935], [77.5465207091966, 12.8551019081025], [77.5466864921949, 12.8553166736111], [77.546727084192, 12.8553889222023], [77.5467769938641, 12.8554576163975], [77.5468060386625, 12.855506363057], [77.5468232585087, 12.8555622273431], [77.5468095262935, 12.8556160594195], [77.5467413296277, 12.8556960997288], [77.5464814046657, 12.8558760563103], [77.5463675789624, 12.8559650150429], [77.5462749862492, 12.8561303323174], [77.5462056151075, 12.8563055014584], [77.5461435694116, 12.8565015401493], [77.5461381451253, 12.856669109145], [77.5461399046872, 12.856843587715], [77.5461556800503, 12.856996991343], [77.5462077924141, 12.8572268192013], [77.5462452584323, 12.8574149142251], [77.5462735890577, 12.8575278595175], [77.5463409592868, 12.8576019143472], [77.5465518396853, 12.8577492836572], [77.5466318698708, 12.8578201038903], [77.5466450911619, 12.8578728945307], [77.5466459075226, 12.857953821385], [77.5465997366811, 12.8580943475977], [77.5463375647129, 12.8585233601172], [77.5461158767689, 12.8588772677293], [77.5459378496959, 12.8591560414379], [77.5459032986089, 12.8591906184933], [77.5458749048146, 12.8592064600952], [77.5458495259403, 12.8592067065046], [77.5458046097121, 12.8591573350957], [77.5455124137935, 12.8588115291846], [77.5454513548506, 12.8587342995301], [77.5454099900996, 12.858722251221], [77.5453625917041, 12.8587413878991], [77.5453216967211, 12.8587822306068], [77.5452716676717, 12.8589250329915], [77.5452008446909, 12.8591886543852], [77.545227011972, 12.8594349959242], [77.5452928616844, 12.8596158326689], [77.5453370875147, 12.8597689583908], [77.5454533311327, 12.8598742878445], [77.545565776137, 12.8600132759169], [77.5457061065697, 12.8602440325694], [77.5457988543083, 12.8604609527785], [77.5458647192883, 12.8606214058713], [77.5458903970393, 12.8607948291116], [77.5459263270075, 12.8608972049537], [77.5459782486659, 12.8610118780422], [77.5460711873928, 12.861104360142], [77.5463465317455, 12.8614108476466], [77.546357082568, 12.8614481787036], [77.5463158570699, 12.8619046713922], [77.5464031508836, 12.8622466764479], [77.5464741380142, 12.8623642775094], [77.5466324719635, 12.8626491235583], [77.5467093939337, 12.8627261976746], [77.5468180104235, 12.8627998531851], [77.5469167609573, 12.8628393602325], [77.5470410820053, 12.8628972971454], [77.5471845909239, 12.8629706116352], [77.5472624356193, 12.8630447466178], [77.5474275202255, 12.863189718768], [77.5476642995196, 12.86338983479], [77.5477645885657, 12.8634586576667], [77.5480143298404, 12.8635330061931], [77.5480899605954, 12.8635639421635], [77.5481439967773, 12.8635759823464], [77.5481835195587, 12.8636018629236], [77.5482028027314, 12.8637064590348], [77.5482158254369, 12.8637613835836], [77.548267240153, 12.8639214204569], [77.5483110905427, 12.8639750740639], [77.5483981699413, 12.8640042561022], [77.5484591427783, 12.8640334299251], [77.5485615811456, 12.8641042236634], [77.5486248707938, 12.8641859053625], [77.548653052439, 12.8643257107297], [77.5486433345689, 12.8644238624183], [77.5485798079154, 12.8645814643308], [77.5484880407715, 12.8646521550764], [77.548113362759, 12.8648861330399], [77.5480711759534, 12.8649354028371], [77.5480506825502, 12.8650193591752], [77.5480587802123, 12.8651169970772], [77.5479814915045, 12.8652048773118], [77.5465558028429, 12.8658236334487], [77.5461960802295, 12.8663084473825], [77.5441208289087, 12.8669400091953], [77.543293939679, 12.8671171465377], [77.5427124457193, 12.8673049114619], [77.5418252413042, 12.8674175868702], [77.5414008699302, 12.8674086954312], [77.5412832550775, 12.867578947455], [77.5401871451198, 12.8676673071059], [77.5401599099391, 12.8675139387875], [77.540052726435, 12.8675235128553], [77.5398045960599, 12.8675173827049], [77.5398106251593, 12.8674306159403], [77.5398291481394, 12.8670149317419], [77.5396637218192, 12.8669708787204], [77.5396296825782, 12.866531253995], [77.5397712449098, 12.866305752483], [77.5397299166079, 12.8659824124503], [77.5396031957327, 12.8659821578134], [77.539019998103, 12.8660008184504], [77.5380699267904, 12.8657953765642], [77.5386507444514, 12.8642222029142], [77.538557222432, 12.8641515614885], [77.5381870610141, 12.8642592149156], [77.5381846404317, 12.8640185793173], [77.5379956371042, 12.8636821820986], [77.5377569397446, 12.8636779890066], [77.53755661608, 12.864193771809], [77.5369077878605, 12.8642781055305], [77.536344283008, 12.8642770529148], [77.5362260770257, 12.8643887724379], [77.5359348992365, 12.8643867019154], [77.5358944408768, 12.864340585914], [77.5359183788179, 12.8641412801828], [77.5357205489088, 12.8638428011471], [77.5362199321706, 12.8637774222965], [77.5363270364224, 12.8638804548618], [77.5365516936503, 12.8638067336699], [77.5365594607819, 12.8632602912876], [77.5363004188165, 12.8632107647005], [77.536356479646, 12.862852483042], [77.5363256526128, 12.8624234920372], [77.536323626338, 12.862221877986], [77.5363874295402, 12.8619740944695], [77.5362414016757, 12.8619559930284], [77.53607562019, 12.8619510926774], [77.5359694319373, 12.8619391125246], [77.5358565471242, 12.8619206902529], [77.535604007077, 12.8618580897242], [77.5354844947936, 12.8618397313808], [77.5354697986515, 12.8616967788037], [77.5354934383488, 12.8614103580475], [77.5357024194006, 12.861096127316], [77.5357318670581, 12.8600681549562], [77.5349161885399, 12.8593800744295], [77.533802455653, 12.8593778317415], [77.5329323475163, 12.8592106190467], [77.5327393353041, 12.8591344317891], [77.5325767906875, 12.8587912698073], [77.5324410871283, 12.858480370107], [77.5323798633849, 12.8583248561984], [77.5321551189382, 12.8577286232362], [77.5310285237913, 12.8577655166088], [77.5311833517878, 12.8586616263518], [77.530639649629, 12.8587931364888], [77.5302310503534, 12.8588919667613], [77.5297270431855, 12.8575504215966], [77.5299914057574, 12.8574698176787], [77.5298897501453, 12.8572131740558], [77.5294473057122, 12.8560961361284], [77.5287269954478, 12.8556607829066], [77.5284541054156, 12.8548893916341], [77.5274084293773, 12.8550620795183], [77.52738212224, 12.8557452935988], [77.5273841020563, 12.8558298424117], [77.5274601297599, 12.8562036561873], [77.5273936973098, 12.8562395177906], [77.5267078416589, 12.8565973638457], [77.5265310198014, 12.8568137135184], [77.5257131182965, 12.8578883126723], [77.5256349681605, 12.8600160066441], [77.5254655619984, 12.8609737863788], [77.5253908316255, 12.8614558322991], [77.5260288797494, 12.8616188014505], [77.5262222835273, 12.8617340149977], [77.5263659185758, 12.8619788944591], [77.5264243993871, 12.8620572872655], [77.5267258842963, 12.8621508809896], [77.5270044652601, 12.8623210701955], [77.5270492384498, 12.8623233842921], [77.5279155032388, 12.8633636465276], [77.5276758784071, 12.8660472196172], [77.5276232291915, 12.8667035133459], [77.5276385786157, 12.8669690019629], [77.5275507703435, 12.8679161759866], [77.5266978225166, 12.8686967752335], [77.5256948465482, 12.8691853183794], [77.5245418757251, 12.8692419615566], [77.5243182617219, 12.8700831842372], [77.5230431071902, 12.8705182546236], [77.5218634837894, 12.87122558268], [77.5202620710621, 12.8721841352929], [77.5194294157852, 12.8717888717971], [77.5154594323951, 12.8679178471992], [77.5133399924011, 12.8681203067235], [77.5124133035873, 12.8682657885889], [77.5117156456729, 12.8681098632785], [77.5106968337836, 12.8689912268907], [77.5102522412359, 12.8689499540029], [77.5092306101234, 12.8702151041267], [77.5084623268297, 12.8709574665636], [77.5079139618824, 12.871814804449], [77.5074502173675, 12.8725152231813], [77.5071230964723, 12.8729541552029], [77.5064983411883, 12.8741309399387], [77.5057968762716, 12.8755946576469], [77.5057402514377, 12.8759009109276], [77.5054155811685, 12.8765869880852], [77.505250239304, 12.8766275963597], [77.5050976382418, 12.8766160475825], [77.5046637960021, 12.8769909543731], [77.5045912603443, 12.8770306746597], [77.5031928615808, 12.8764131082206], [77.5027455424983, 12.8760986626819], [77.5023340807591, 12.8760570634937], [77.5022788531258, 12.8758364382392], [77.5015460271533, 12.875479185124], [77.5013113605633, 12.8752147423576], [77.5011384842545, 12.8751643562607], [77.5003167742795, 12.8745347593092], [77.5003095084682, 12.8743295471968], [77.4984070594235, 12.8733666665218], [77.4975290909857, 12.8722067165004], [77.4967038025642, 12.8732227867418], [77.496345635571, 12.8732066855028], [77.4960078722127, 12.873242426577], [77.4957694782377, 12.8732707170818], [77.495504570281, 12.8732992590654], [77.4952138526327, 12.8733995968532], [77.4950441988769, 12.8730044367482], [77.4948480284379, 12.8719395595942], [77.494555703392, 12.8718772973732], [77.4929143799798, 12.8721661109233], [77.4928365680835, 12.8723424754836], [77.4924571630025, 12.8721899761838], [77.4918066925527, 12.870771666138], [77.4905058300809, 12.8712978951502], [77.4889943324503, 12.8717820422978], [77.489794963225, 12.8726150776815], [77.4901510444137, 12.8730032230072], [77.4906097256329, 12.8735344959113], [77.4910485739094, 12.8740816573913], [77.491467018605, 12.8746439955982], [77.4917677995591, 12.8750748339538], [77.4922395341501, 12.875749867041], [77.4928327528775, 12.8765329400118], [77.4932536726624, 12.8772331945946], [77.4939390288393, 12.8776545678852], [77.4942414452114, 12.8781720305417], [77.4946093757877, 12.8785691380525], [77.495034313872, 12.8791401508531], [77.4955748717627, 12.8795440908403], [77.4957243142259, 12.8800336828999], [77.4964846802573, 12.8798835279103], [77.4964168380578, 12.8805620198219], [77.497045542616, 12.8808661041747], [77.4973460898229, 12.8812835399119], [77.4976413699989, 12.8813526182047], [77.4980485184506, 12.8816714296895], [77.4984799756511, 12.8820063833947], [77.4991006018907, 12.8824964502152], [77.4997392441566, 12.8829637086081], [77.5003950330741, 12.883407519855], [77.5010670728921, 12.8838272807348], [77.5015807608296, 12.8841267541523], [77.5020324960052, 12.8843928723398], [77.5024879701971, 12.8846527856457], [77.5029470944534, 12.8849064425021], [77.5034097789275, 12.8851537940612], [77.5038759346924, 12.885394791467], [77.5043454710141, 12.8856293894953], [77.5048182952891, 12.8858575402304], [77.5052943177383, 12.8860792020543], [77.5057734439412, 12.8862943297806], [77.5063860869616, 12.8865570216336], [77.5069022854877, 12.886786408636], [77.5075906707907, 12.8871442992631], [77.5081354445151, 12.8874690354108], [77.5087723976503, 12.887909141673], [77.5094309174263, 12.8884360934382], [77.5098981737152, 12.8888614874974], [77.5102912784865, 12.8892619227403], [77.5106335488582, 12.8896814623306], [77.5109932171083, 12.8901644401377], [77.5113425267188, 12.8906546813198], [77.511661957117, 12.8911279971295], [77.5121998563495, 12.8918922546211], [77.5126697731279, 12.8924963411185], [77.5131119666197, 12.8930141545628], [77.5141062406599, 12.8940357930284], [77.5141648387865, 12.8940960030233], [77.5150997525572, 12.895055085388], [77.5160299214457, 12.8960185978961], [77.5172095909479, 12.8972595406017], [77.5178329139518, 12.8978678975384], [77.5184077877717, 12.8983461733331], [77.5201708321827, 12.8997096190167], [77.5217334791951, 12.9009241763932], [77.523293712608, 12.9021417201362], [77.5238063114138, 12.902538681647], [77.5243119442309, 12.9029441521795], [77.5248086616918, 12.903360092185], [77.5252980845035, 12.9037842725196], [77.5255202332268, 12.9040388876145], [77.5258286402848, 12.9042773051233], [77.5272685728007, 12.9063567783109], [77.5284094350553, 12.9083169286149], [77.5290924740351, 12.9094526498772], [77.5302045775906, 12.9112430460333], [77.5307632859788, 12.9124012176258], [77.5312854142433, 12.9142291989637], [77.5316095739837, 12.9162981897511], [77.5316895618661, 12.9179949666328], [77.5344088805586, 12.9183794700149], [77.536812260836, 12.9196596190183], [77.5380354751641, 12.9184755192998], [77.5380953163588, 12.9183673465319], [77.538131028032, 12.9182833187522], [77.5382713335612, 12.9181609119334], [77.5382880750556, 12.9181463071563], [77.5382892177417, 12.9181548447134], [77.5383927639875, 12.9181197111556], [77.5384057413643, 12.9180980127554], [77.5384776169467, 12.9180428381408], [77.5386845765798, 12.9179244414274], [77.5392792772037, 12.9175150916257], [77.5396434688983, 12.9176076041197], [77.539808239588, 12.9176586774995], [77.5399923060305, 12.9177436456506], [77.540176873753, 12.9178781831997], [77.5403384980231, 12.9180333324647], [77.5404656483434, 12.9181027007782], [77.540555343827, 12.9181216935751], [77.5406155433387, 12.9181397012631], [77.5407554860635, 12.9182343912196], [77.5411062535163, 12.9184459605083], [77.5411352743626, 12.9184504149595], [77.5411546114554, 12.918452594755], [77.5412054799331, 12.9184686783603], [77.5412248870548, 12.9184779632726], [77.5412734126832, 12.9185011745662], [77.5414168596721, 12.9185992559412], [77.5416234396327, 12.918732246227], [77.5417624860554, 12.9187817968786], [77.5418185324007, 12.9187972146726], [77.5419039291979, 12.9188081491739], [77.5419585861501, 12.9188102298699], [77.5420012121369, 12.9188069933133], [77.5419957873467, 12.9187896190772], [77.5419795059328, 12.9187056689566], [77.541967259916, 12.9185123360503], [77.5419651912975, 12.9184856676539], [77.5428711190641, 12.9178566297486], [77.5431103372309, 12.9176929581507], [77.5431800249609, 12.9176532567054], [77.543310769498, 12.9176190869609], [77.543447321325, 12.9176234252144], [77.5439476054226, 12.9175859678131], [77.5443954080104, 12.9175516987776], [77.5444197954126, 12.9175514611307], [77.5447219190747, 12.9175360833041], [77.5447997214493, 12.9182973680015], [77.5456747696289, 12.9182036406118], [77.5459261346039, 12.9181597105411], [77.5462062414734, 12.918127353461], [77.5464022454853, 12.9180979349679], [77.5467291200505, 12.9180491135861], [77.546842605925, 12.918359669671], [77.546873006719, 12.9183523396244], [77.5468631982645, 12.9183051486905], [77.5471465892025, 12.9182597829517], [77.5474139935093, 12.9182085901359], [77.5475284403832, 12.9181753037223], [77.5476869377731, 12.9181737572049], [77.5478508428699, 12.9181667966459], [77.5480909922992, 12.9181322833286], [77.5484510350176, 12.9180849837293], [77.5486011870618, 12.9180680290843], [77.5485841080021, 12.9179914498925], [77.5485738772387, 12.9179467820644], [77.5485301399071, 12.9178129068048], [77.5484804741411, 12.9175853420408], [77.5484549284203, 12.9174682897305], [77.5483969554803, 12.9172162362117], [77.5481853101814, 12.9172406851257], [77.5481352836754, 12.9171292536086], [77.5481083652383, 12.9170463774286], [77.548050423409, 12.9167975226217], [77.547999370216, 12.916579743081], [77.5479994697977, 12.916526348994], [77.5479997963643, 12.9165211328007], [77.5485359787854, 12.9164146054198], [77.5486755987402, 12.9163668578377], [77.5488799548674, 12.9163133276474], [77.5491679652966, 12.9162194657705], [77.5494720845107, 12.916131269183], [77.5504720843262, 12.9158711682609], [77.550614274798, 12.9158310298396], [77.5507376906783, 12.9162190048624], [77.5510093920949, 12.9165732701999], [77.5515313126163, 12.9170518897267], [77.551618671901, 12.9171684440634], [77.5517362327191, 12.9174302893612], [77.551956231905, 12.9178789871973], [77.5519978698081, 12.9182073221456], [77.5519541833165, 12.9182924345107], [77.5519360942265, 12.9183859988553], [77.5519203127396, 12.9184725333729], [77.5519043415632, 12.9185403942245], [77.5519026978805, 12.9186127850471], [77.5519157118136, 12.9187223845469], [77.5519450754558, 12.9188014759498], [77.5519934500249, 12.9189686861614], [77.5520369920935, 12.9192307360052], [77.552123031797, 12.9196682189255], [77.5521534517178, 12.9196629642365], [77.5521732550617, 12.9197695032329], [77.5521959545027, 12.9197681086252], [77.5522035154714, 12.9197678567259], [77.5522620550056, 12.9197617398685], [77.5523193184859, 12.9197483300602], [77.5523743640721, 12.9197278461146], [77.5524262852022, 12.9197006248548], [77.5524742335706, 12.9196671163712], [77.5524831687136, 12.9196597940688], [77.5524983140109, 12.9196494440717], [77.5525176903818, 12.9196403482736], [77.5525383819342, 12.9196346917525], [77.5525597604522, 12.9196326486948], [77.5525811771596, 12.919634273327], [77.5526019795442, 12.9196395241453], [77.5526215368966, 12.9196482392723], [77.5526392542708, 12.9196601507756], [77.552654593831, 12.9196749007218], [77.5526670895682, 12.9196920392252], [77.552676360414, 12.9197110460031], [77.5526821269454, 12.9197313428606], [77.5526826066036, 12.919734042239], [77.5528592199841, 12.9200508550264], [77.5528592537716, 12.920050917035], [77.5528819468199, 12.9200925742965], [77.5529015215477, 12.9201192166618], [77.5529610543435, 12.9201917951912], [77.5530262091189, 12.9202595655959], [77.5530965828533, 12.9203221135092], [77.5531626520527, 12.9203726440604], [77.5531985384106, 12.9204035493172], [77.5532967881192, 12.9204814842586], [77.5533995317267, 12.9205536309735], [77.553506415749, 12.9206197372346], [77.5535553415304, 12.9206472235615], [77.5537153229984, 12.9207286950147], [77.554041549417, 12.9209008928017], [77.5541305654725, 12.9209493229421], [77.5541549887303, 12.9209595704731], [77.5542301263782, 12.9209857846853], [77.5543074399836, 12.9210049793559], [77.5543862435226, 12.9210169886354], [77.5544658506936, 12.9210217099206], [77.5545455545732, 12.9210190959222], [77.5546166937567, 12.9210105079972], [77.5546569474828, 12.9209978125103], [77.5547362945487, 12.9209786830324], [77.5548171025915, 12.9209668202405], [77.5548970517562, 12.9209623371835], [77.55491355333, 12.9209696093687], [77.5549802003666, 12.9209939594884], [77.5550490782054, 12.9210113419329], [77.5551194315045, 12.9210215671401], [77.5551904872746, 12.9210245216122], [77.5552188556677, 12.9210236630014], [77.5552500156042, 12.9210212538242], [77.5552500745171, 12.9210212505371], [77.5555243070558, 12.9210040970677], [77.5556456992903, 12.9209988168623], [77.5557836571609, 12.9213825624251], [77.5559719750576, 12.9220100232035], [77.5561692920705, 12.9225810402838], [77.5562813000442, 12.9229781097721], [77.5564475655208, 12.9229259705777], [77.5565496081439, 12.9228899935735], [77.5569189135508, 12.9227780645056], [77.5572154211934, 12.9226728182806], [77.5575165322987, 12.9225665265228], [77.5587510260755, 12.9221869142963], [77.5591167404713, 12.9220827476675], [77.5595024065596, 12.9220015939163], [77.5603093097408, 12.9218466758642], [77.5610966913055, 12.9217112909792], [77.561407706669, 12.9216579464082], [77.5615313822232, 12.9216289532397], [77.5616122939645, 12.9216095172621], [77.5616941582139, 12.9215158690705], [77.561852010735, 12.9211390712072], [77.5621562778978, 12.9204242719506], [77.5622607405556, 12.9202514938522], [77.56229591052, 12.9201946572295], [77.562429039857, 12.9201005057508], [77.5627110710672, 12.9199120478096], [77.5630009425544, 12.9197546458143], [77.5631620721613, 12.9196639016465], [77.5633084730717, 12.9195660734513], [77.5633265876963, 12.9195539681458], [77.5634201625641, 12.9194485988367], [77.5635254492298, 12.9193315086938], [77.5636500187155, 12.9191716745316], [77.563894779585, 12.9188094980794], [77.5640694268303, 12.9185331157404], [77.5642204160103, 12.9182569656982], [77.5643865055041, 12.9179149037864], [77.5644558266756, 12.9177517425527], [77.5647210867789, 12.9170798799059], [77.5648444623088, 12.9167443339947], [77.5648984132765, 12.9167785085359], [77.5650067896606, 12.916885028471], [77.5652308846373, 12.9171167020877], [77.565300808081, 12.9171931928914], [77.5653948819531, 12.9172998531162], [77.5654674754016, 12.9174043834901], [77.5655235011427, 12.9175207682467], [77.565745147054, 12.917979325799], [77.5660269174068, 12.9187645066115], [77.5685782743052, 12.9181794719024], [77.5686987678376, 12.9181501601511], [77.5686755421705, 12.9180894082085], [77.5686692112892, 12.9180229464561], [77.5686572287065, 12.9179565403039], [77.5686583050043, 12.9178916445439], [77.568654971548, 12.9178367545549], [77.56866680007, 12.9175399194586], [77.5687752171038, 12.9171837131972], [77.5690791120246, 12.9165550047231], [77.5694669453652, 12.9157056210954], [77.5695451289339, 12.9155101015181], [77.569646302859, 12.915543196905], [77.5699260521728, 12.9156429769452], [77.5699776887065, 12.9156843384206], [77.5700200340797, 12.9157454152331], [77.570073840053, 12.9158204966033], [77.5701175954433, 12.9159292880481], [77.5701891455543, 12.9160763951095], [77.5702622937454, 12.9161827180802], [77.5703701174012, 12.9162986169037], [77.5704250257563, 12.9163399062939], [77.5705225515275, 12.9163784497562], [77.5707937107388, 12.9164789401885], [77.5712775918334, 12.9165925534642], [77.5717600913875, 12.9165708928218], [77.5725533923224, 12.9165968992215], [77.5730979576611, 12.9167437362798], [77.5736490939022, 12.9169161969474], [77.5736140630398, 12.917730150417], [77.5736168910013, 12.9180062153435], [77.5736838665675, 12.9182037767984], [77.5737725628614, 12.9184082008258], [77.5740541780878, 12.9191275119631], [77.5741811312476, 12.919543939862], [77.5742875337479, 12.9198958823112], [77.5743623604688, 12.9202012849137], [77.5743854367761, 12.9203954970209], [77.5743949314618, 12.920498828571], [77.5743962910063, 12.9205258888586], [77.5744303720957, 12.9207711710699], [77.5743955594625, 12.9207910487947], [77.5735653777945, 12.9210365450245], [77.573568556433, 12.9211154852241], [77.5735731581316, 12.9222072483563], [77.5736007799007, 12.9235548494325], [77.5748131521201, 12.9235345138724], [77.5761256152215, 12.9235124638138], [77.5772617875073, 12.9234875965128], [77.5790288665675, 12.9234701408449], [77.5796500761459, 12.9234367011795], [77.5796989212142, 12.9234314237983], [77.5797417015776, 12.923426800822], [77.5797419367814, 12.9241485521113], [77.5797044371168, 12.9251998878259], [77.5796889790835, 12.9262596190775], [77.5796721913715, 12.9271901461821], [77.5796699089917, 12.9282497497859], [77.5796620394151, 12.9291931124306], [77.5796721758276, 12.9301793678757], [77.5796612955412, 12.9308298692155], [77.5796354745593, 12.9330579165325], [77.5796494476328, 12.9330583258157], [77.5812595087621, 12.9330237317024], [77.5823487888112, 12.9329914676176], [77.5838213081031, 12.9329553999179], [77.5839219320738, 12.9329533279398], [77.5848285706981, 12.932934679102], [77.5848841581536, 12.9346097797204], [77.5849035238373, 12.9364893295114], [77.5849026013025, 12.9366462422527], [77.5851958281883, 12.9366391043396], [77.5854285345626, 12.9366146843685], [77.5856010507061, 12.9365834898786], [77.5857807817615, 12.9365227380932], [77.5859306057902, 12.9364770287805], [77.5861321928901, 12.9363497239017], [77.586696459055, 12.935889659628], [77.5870828702913, 12.9356494985776], [77.587280240082, 12.9355231527626], [77.5873943398738, 12.9354414906204], [77.5875361390423, 12.9353340367997], [77.5876074338716, 12.9352794318671], [77.5876915387209, 12.9352371356677], [77.5877632638328, 12.9352239853353], [77.5877970755136, 12.9352236498013], [77.5878435689906, 12.9352231884109], [77.5879199489691, 12.9352514516439], [77.5879793334786, 12.9352715944533], [77.5880983218395, 12.9353326045849], [77.5884425571487, 12.9355116177721], [77.5886043225288, 12.935621959077], [77.5888083142724, 12.9357277333445], [77.588927171897, 12.9357763066581], [77.5890161465545, 12.935796155408], [77.5890880419068, 12.9357995883554], [77.5891683453224, 12.9357987910067], [77.5892273476682, 12.9357816197951], [77.5893115806604, 12.935751760379], [77.5894795330717, 12.9356422923418], [77.5895111237063, 12.9355818664616], [77.5895450507224, 12.9355479089413], [77.5900397256665, 12.9355056388237], [77.5900449008171, 12.9355827799933], [77.5901735891467, 12.9363470888533], [77.5906267797673, 12.9361420755894], [77.5910699882782, 12.9366140351889], [77.5911103238711, 12.9366720949723], [77.5913865541229, 12.9364874713805], [77.591577647241, 12.9363946347634], [77.5917426509572, 12.9363410280624], [77.5920069825597, 12.9362864366193], [77.5924366548283, 12.9362107139744], [77.5927036743168, 12.9361797110105], [77.5927240657607, 12.9357062903298], [77.5927207311501, 12.9349610750397], [77.5926505052093, 12.9332357065702], [77.5926069317576, 12.93197692347], [77.5925456314522, 12.9306926189783], [77.5925047938465, 12.9292753380271], [77.592507478342, 12.9286898626441], [77.5925046833604, 12.9285332116516], [77.5926106021673, 12.9285257392868], [77.5926454543267, 12.9285201240946], [77.5934880558807, 12.9285074661829], [77.5953879566297, 12.9284603314549], [77.5955048550695, 12.92845742941], [77.597150768225, 12.9284279058872], [77.5986937111523, 12.9284182333846], [77.6005201282594, 12.9283491931091], [77.600515439662, 12.9286101639415], [77.6005276615979, 12.9289757978589], [77.6006148194894, 12.9303029067075], [77.6007048607819, 12.9313345043812], [77.6007173119866, 12.9317228572018], [77.6007405163305, 12.9319292643762], [77.6007812156348, 12.9321974861214], [77.600924209002, 12.9329854118118], [77.6012485837232, 12.9345552004715], [77.6012937112586, 12.9348985875699], [77.6013055138169, 12.9349546542803], [77.6013718036768, 12.9357720950113], [77.6013977450488, 12.9361406840171], [77.6014214046886, 12.9362892242505], [77.6015242101512, 12.9367562332073], [77.6015944221043, 12.9371274764488], [77.6015969165128, 12.9371425009269], [77.6012935065174, 12.9371659457536], [77.600884351473, 12.937218249133], [77.6004993472737, 12.9372685836582], [77.6003070213002, 12.937310794928], [77.6000895476711, 12.9373656555626], [77.5998500825356, 12.9374331376496], [77.5996140651907, 12.9375284759484], [77.5993030497253, 12.9377051516379], [77.5990834110474, 12.9378561186795], [77.5989141978129, 12.9379941860128], [77.5987420795798, 12.938157080574], [77.5984986409161, 12.9384508653047], [77.5983677610809, 12.938622541123], [77.5980566845401, 12.9390941802998], [77.5978800694216, 12.9393990090791], [77.5977292694428, 12.9398186853055], [77.5976588155265, 12.9399506726319], [77.5976376536113, 12.939990319316], [77.5975975453671, 12.9402055303562], [77.5975642050019, 12.9405564221828], [77.5975054413191, 12.9414273645824], [77.5973656214708, 12.9423343405793], [77.5972452691506, 12.9432018123921], [77.5976251906554, 12.9431025374771], [77.5980597566225, 12.9429739601323], [77.5982644206675, 12.9429237333881], [77.598495179703, 12.9428817476345], [77.5987201887721, 12.9428426539972], [77.5990578922542, 12.9428024390835], [77.5994444549532, 12.9427362244003], [77.5998222607986, 12.9426615925182], [77.6000905229369, 12.9426135650064], [77.6003963530225, 12.9425651597008], [77.6007656376388, 12.9425047864108], [77.6009022825265, 12.942487117696], [77.600955077294, 12.9425138446719], [77.6021878326562, 12.9422609937825], [77.6026665078625, 12.942159840768], [77.6028241640316, 12.9428303700843], [77.6028736807902, 12.9431867035763], [77.6028784548752, 12.9433680629647], [77.60289333738, 12.9436882166223], [77.6028715979492, 12.9440994404778], [77.6028407169934, 12.9444248104795], [77.6027549234496, 12.9446307831779], [77.6026105388334, 12.9452404111919], [77.6025820008915, 12.9456043677435], [77.6025769915792, 12.9456358246416], [77.6025146484046, 12.9463732700666], [77.6024725492958, 12.9468805115859], [77.6024575180055, 12.9470918395594], [77.6024589650018, 12.9472312000727], [77.6024692445293, 12.9473915909547], [77.6024841796947, 12.9475857245383], [77.6025121169667, 12.9477881726005], [77.6025627576803, 12.9479757167196], [77.6025837711484, 12.9480535379106], [77.602681214169, 12.9483144219963], [77.6028761914455, 12.9488446360984], [77.6032079826651, 12.9496944705507], [77.6034160312401, 12.9504383354144], [77.6043422424546, 12.9502933599095], [77.6057326898907, 12.9500994906085], [77.6057562030372, 12.9500962099425], [77.6057963599487, 12.9499782423899], [77.6058430513473, 12.9498410694359], [77.6058621578597, 12.9497740995895], [77.6058631656345, 12.9497705643308], [77.6058810661185, 12.9497078183321], [77.6073154970539, 12.9495216602136], [77.6084557965487, 12.9493630691241], [77.6093140261183, 12.9492272527284], [77.6095805532436, 12.9491771874205], [77.6099615701385, 12.9491309635499], [77.6107483798138, 12.9489759042738], [77.6110988291073, 12.948924996452], [77.6112821868562, 12.9489481039555], [77.6114681663931, 12.9489786672052], [77.611573367382, 12.9490674148189], [77.6117023132661, 12.9492382425644], [77.6117538229986, 12.9493000904453], [77.6124888181265, 12.9492977091909], [77.6131272524667, 12.9493037784481], [77.6136511187431, 12.9492985229676], [77.6144549038249, 12.9493079186212], [77.6151491544824, 12.9493009500547], [77.6161916179592, 12.9492730214821], [77.6166492347593, 12.9492559526654], [77.6168514464162, 12.9492494115724], [77.6169492359465, 12.9492523283873], [77.6169779698359, 12.9492206810805], [77.6169922651261, 12.9491977315085], [77.617093269914, 12.9491282980183], [77.6170696917587, 12.9490971762388], [77.6171412359641, 12.9490488128688], [77.6173120467121, 12.9489175263499], [77.6175821720241, 12.9487252312422], [77.6182006521348, 12.9482824806954], [77.6192479266458, 12.9474986633643], [77.6193366403118, 12.9474319989135], [77.6193662919494, 12.9474872466619], [77.6193671862298, 12.9474889117077], [77.6194424429947, 12.9476291201651], [77.6195012099089, 12.9477386073695], [77.6200147188987, 12.9487059538201], [77.620202511521, 12.949059720403], [77.6206718715222, 12.9499438863366], [77.6207434849793, 12.9500787924834], [77.6208995204332, 12.9503318194693], [77.6211088176999, 12.9507499177773], [77.62120450635, 12.9510123003932], [77.6213552633581, 12.9513910644616], [77.621455099688, 12.9516039935903], [77.6215043062541, 12.9516875577699], [77.6216578082255, 12.9516230065479], [77.6218505239735, 12.951541963417], [77.6222134611851, 12.9513893361834], [77.6223428869362, 12.951334907685], [77.6223635360013, 12.9513247640037], [77.6224445542681, 12.9512849694437], [77.6227198786597, 12.951149731869], [77.6228599342948, 12.9510809329681], [77.6231424371785, 12.9509421698796], [77.6232746244587, 12.9508772380635], [77.6233007800324, 12.9508643909485], [77.6233119326862, 12.950858228443], [77.6233681409623, 12.9508271638916], [77.6233929998929, 12.9508173345929], [77.6234651274077, 12.9507888091001], [77.6234676623619, 12.9507878494352], [77.6236125614912, 12.9507526446569], [77.6236312527893, 12.950748101017], [77.6240463127254, 12.9506604135894], [77.6244172754613, 12.9505820413992], [77.6247575454088, 12.9505088076657], [77.6249609021549, 12.9504650386809], [77.6254353935177, 12.9503629153758], [77.6254639035302, 12.9503567793045], [77.6254744484155, 12.9503545084357], [77.6255048468967, 12.9503451407802], [77.6256488859739, 12.9503082732165], [77.625764446779, 12.9502621146443], [77.6258027664201, 12.950249470826], [77.6258096186839, 12.9502472064524], [77.6258369046254, 12.9502331687653], [77.6260289695464, 12.9501292378883], [77.6261737815448, 12.9500216555915], [77.6261738144831, 12.9500216344809], [77.6262901115959, 12.9499341406684], [77.626366509368, 12.9498728208209], [77.6264837932177, 12.9497786850282], [77.6265852932371, 12.9496972170305], [77.6266606112352, 12.9496367662533], [77.626725531794, 12.9495846549297], [77.626867336133, 12.9494727129899], [77.6269376820143, 12.9494143793075], [77.6269906559503, 12.9493704468683], [77.6270460207085, 12.9493233211328], [77.6270689520741, 12.9493037992668], [77.6271372596522, 12.9492456577512], [77.6272355555917, 12.9491619859364], [77.6272621071954, 12.9491368769694], [77.6273620222716, 12.9490248224841], [77.6274563817071, 12.9489040274644], [77.627561037871, 12.9487518641141], [77.6276656383662, 12.9485944904117], [77.6278115861008, 12.9483272781089], [77.6280202437642, 12.9479604334812], [77.6283336051991, 12.9474466311933], [77.6286153152098, 12.9469539943459], [77.6287198597963, 12.9467914110363], [77.628829773908, 12.9466339844211], [77.6290127931129, 12.9463559760384], [77.6292997037376, 12.9458528628269], [77.6295032612599, 12.9455069100246], [77.6295707860331, 12.9453603309976], [77.6300122960409, 12.9444023364212], [77.6306194638161, 12.9430310341279], [77.6309883484958, 12.9422405114456], [77.6312368676924, 12.941623152907], [77.6314179705428, 12.9411627941443], [77.6317297328287, 12.9404978991089], [77.6321762694871, 12.9395137993967], [77.6324577465431, 12.9390003199834], [77.6328477612319, 12.9381991632999], [77.6330767727408, 12.9377487404101], [77.6331914432345, 12.937539159001], [77.6332753362389, 12.9374340996077], [77.6333802584864, 12.9373079861063], [77.6336219720005, 12.9370554362211], [77.6341959158843, 12.9365702650595], [77.6344170382855, 12.9363804495703], [77.6345856450661, 12.9362484814466], [77.634630028298, 12.9361770231334], [77.6346184499591, 12.9361643116968], [77.6345855207747, 12.9361421946698], [77.6345964910606, 12.9360971843321], [77.6347077368659, 12.9359485306707], [77.6347480292165, 12.9358658020878], [77.6353621700418, 12.9354608144404], [77.6355072130641, 12.9353300967814], [77.6358884336719, 12.9348867167079], [77.637249586375, 12.9332984802383], [77.6380791782502, 12.9322629671785], [77.6382600002093, 12.9317900198569], [77.6388823872943, 12.9309094842425], [77.6394110251417, 12.9306950790112], [77.6395846676843, 12.9306249050902], [77.6396076355114, 12.9305980646167], [77.6396073157291, 12.9305676600651], [77.6395990465535, 12.9305183300714], [77.6395511922184, 12.9303895791778], [77.6395073712048, 12.9302759918007], [77.6394874773408, 12.9302267794227], [77.6394876202789, 12.9302262711648], [77.6395323294447, 12.9301301488282], [77.639598432846, 12.9299905060768], [77.6396411690713, 12.9299088275009], [77.6396472147515, 12.9298617277114], [77.6395937311276, 12.9295997522639], [77.6396688717977, 12.9295524529129], [77.6399944300218, 12.9293698737065], [77.6402897615051, 12.9292100109162], [77.6405175040368, 12.929140474326], [77.6407368351019, 12.9291017782812], [77.6410930552965, 12.9291823507], [77.6418163269541, 12.9291750273336], [77.6421196698909, 12.929051342489], [77.642053916463, 12.9288605198113], [77.6418631995469, 12.9284241077976], [77.6418076189168, 12.9281713122115], [77.6416717174123, 12.9277506332307], [77.6415680992558, 12.9273687076865], [77.6415094062545, 12.9270797511717], [77.6414431934176, 12.9265374643596], [77.6413685505552, 12.9262590493388], [77.6413559071006, 12.9262125669757], [77.6413429082942, 12.926164785496], [77.6412773940494, 12.9261148904292], [77.6411874178467, 12.9260828286587], [77.6411226289447, 12.9260665094375], [77.6408980395932, 12.9260592164134], [77.6402342879455, 12.9260754995276], [77.6400949840674, 12.9260886316337], [77.6399755590786, 12.9260976544055], [77.6398679613553, 12.9260948348533], [77.6398121514384, 12.9260914931422], [77.63974430605, 12.9260804568946], [77.6395283309487, 12.9260005743633], [77.6394083700738, 12.9259588009654], [77.6393161316374, 12.9259011154358], [77.6392874662841, 12.925827153386], [77.6392666444615, 12.9257413911836], [77.6392574846995, 12.9256281531234], [77.6392567864029, 12.9255617244771], [77.6392644263424, 12.9255303838731], [77.6392916941304, 12.9254714904614], [77.6393189217315, 12.9254086875066], [77.6393130507626, 12.9253283824389], [77.6392723922234, 12.9247721670477], [77.639192332567, 12.9241470243465], [77.6392308983038, 12.9241322258758], [77.6395007323824, 12.9240288355652], [77.6399742035995, 12.9238350255636], [77.6408626222462, 12.9233761449104], [77.6410166478382, 12.9232833611903], [77.6411969288241, 12.9232308583956], [77.6413569704178, 12.9232191015989], [77.6417557210095, 12.9233062916633], [77.6434809447521, 12.923755080234], [77.6444552707801, 12.9240391554603], [77.6449175098966, 12.9242676000058], [77.6452617869781, 12.924459271064], [77.645429433671, 12.9244736007531], [77.6456576880398, 12.9244764931183], [77.6458646600686, 12.9244743947465], [77.6463105553594, 12.9244802852326], [77.6468097390745, 12.9245064606274], [77.6475164433776, 12.9245825910643], [77.6480581925213, 12.9246187438705], [77.6485575425916, 12.924660532148], [77.6490673969599, 12.9246918001995], [77.6493221314141, 12.9246892141951], [77.6493730837512, 12.9246828943631], [77.6498983797476, 12.9245112266278], [77.65004081453, 12.9244223572611], [77.6501753431768, 12.9243183647931], [77.6505114280181, 12.9242199246588], [77.6509492540809, 12.9242154775228], [77.6517529109168, 12.9241460052068], [77.6517482873581, 12.9240483964894], [77.6516582835176, 12.9235596629256], [77.6515985043904, 12.9232703521336], [77.6515702163156, 12.92313592907], [77.6515512248733, 12.9230336249794], [77.6515321997612, 12.9229283915002], [77.6515193011869, 12.9228377398869], [77.6515116288762, 12.9226767542768], [77.651523155509, 12.922354502835], [77.6515439617749, 12.9217803109029], [77.6515570483469, 12.9213233376445], [77.6515621546355, 12.9212412886763], [77.6515559773052, 12.9211486101943], [77.6520019703278, 12.9211169466057], [77.6526972880358, 12.9210218324046], [77.6529716724808, 12.9209956159755], [77.6531209593616, 12.9209970283701], [77.6532612907051, 12.9209985280954], [77.6534581511287, 12.920981884714], [77.6535774004165, 12.920966031087], [77.65360513477, 12.9209596900476], [77.6536784056768, 12.9209588476012], [77.6536749646761, 12.9208543096812], [77.6536727464649, 12.9208032676272], [77.653672398433, 12.9207703269292], [77.6536720329752, 12.9207357368025], [77.6536636786346, 12.9206653701937], [77.653743505739, 12.9206658261299], [77.6537939736845, 12.9206626624828], [77.6548676934846, 12.9205746113321], [77.6568704889593, 12.9191144288182], [77.6605126405214, 12.9165319675632], [77.662208994434, 12.9183144317466], [77.6628068215166, 12.9203137699242], [77.662839842133, 12.920956202278], [77.6628426619558, 12.9212221674917], [77.6621196775487, 12.9214137122876], [77.6614215046321, 12.9215681691325], [77.66133634793, 12.9215857809043], [77.6612887050455, 12.9215996594791], [77.6611698782166, 12.9216206209896], [77.6612115436612, 12.9217276927913], [77.6612817281857, 12.9219077995371], [77.6615540417895, 12.9226020061279], [77.6615641812927, 12.9226283857016], [77.661759002662, 12.9231352052511], [77.6619749562827, 12.92386299115], [77.6622607028349, 12.924734053649], [77.6624968753444, 12.9256904741999], [77.6628360597524, 12.9264923312478], [77.663276559029, 12.9275336885493], [77.663394185325, 12.9277582887705], [77.6635266045321, 12.9278029313139], [77.6635561354945, 12.9282137714935], [77.6636902950459, 12.9281708728524], [77.6638837824399, 12.9280364601025], [77.6641288279568, 12.9280437100354], [77.6643246146831, 12.9280417106777], [77.6645709945097, 12.9280453899141], [77.6647669775435, 12.9280619754851], [77.6649698031178, 12.9281280564422], [77.6651551627408, 12.9282647963716], [77.6652987630637, 12.9285468241285], [77.6655873692376, 12.9293158802265], [77.6657727240482, 12.929819017381], [77.6660918055822, 12.9306952796154], [77.6661669979785, 12.9307477532396], [77.666276251248, 12.9308131883146], [77.6662793311133, 12.9308145796715], [77.6667511717694, 12.9311147521575], [77.6671685379631, 12.9311600500718], [77.668004729974, 12.9310178482418], [77.6685118982554, 12.93099355527], [77.6683692243537, 12.9288367876124], [77.6687227713229, 12.9288207802803], [77.668849208948, 12.9282370951088], [77.6690911667621, 12.9272309223554], [77.6691356735371, 12.9268053787374], [77.6691162721133, 12.9261598490036], [77.6688496052082, 12.9253695328018], [77.6687602318789, 12.9232997208162], [77.6681073906986, 12.9231521909744], [77.6677877479083, 12.9216024133981], [77.666365004458, 12.9208569471102], [77.665268710307, 12.9210871866561], [77.6641501458014, 12.9214761827391], [77.663894723819, 12.9208974564893], [77.6651316822619, 12.9205947543358], [77.6666060224171, 12.9199539533454], [77.6674468339083, 12.9195072191135], [77.6687246989558, 12.9188606592657], [77.6704150001039, 12.9183401563237], [77.6720553406229, 12.9175313594931], [77.6731855777691, 12.91695998074], [77.6734355174181, 12.9166480103082], [77.6735720742729, 12.9161203899757], [77.6739843026771, 12.9155899468792], [77.6755309681242, 12.9145690899635], [77.6776446731716, 12.9139365138924], [77.6793510687791, 12.9131973378905], [77.6806179085464, 12.9125574216542], [77.6818612459544, 12.911914345937], [77.6839031960239, 12.9109663560109], [77.6864423544993, 12.9099560726249], [77.6899030933684, 12.9086777567098], [77.6932704528363, 12.9078091463978], [77.6967254877686, 12.9068598387903], [77.698617345865, 12.9063228129345], [77.7004508007308, 12.905394460254], [77.7028785021062, 12.9040508648627], [77.7030549709605, 12.9038449493285], [77.7028387443951, 12.9034667409182], [77.7021438769851, 12.9035993858065], [77.7011620731578, 12.9038081802268], [77.7006695981413, 12.9039317591797], [77.6976627003025, 12.9045403753416], [77.6975699361405, 12.904265974843], [77.6974016559992, 12.9042787266061], [77.6968495488874, 12.9040971830033], [77.6967381097255, 12.904175433842], [77.6960869703872, 12.9041821521103], [77.6960184302379, 12.9040727156576], [77.6955803603896, 12.9040552039518], [77.6954140865843, 12.9042551764689], [77.6951092003524, 12.9040931086168], [77.6938648220242, 12.9042711509049], [77.6934630255623, 12.9044955798087], [77.6930474057221, 12.9044778352722], [77.6928648314896, 12.904204357612], [77.6926958439673, 12.9041510282788], [77.6915488486692, 12.9039866144291], [77.6915637276934, 12.9043279032181], [77.6914179015372, 12.9043404199191], [77.691432544814, 12.9046596859975], [77.6914006350999, 12.9048252300471], [77.691277259201, 12.9048375155083], [77.6911723015201, 12.9055214842218], [77.6907571489124, 12.9055477890893], [77.6905324988647, 12.9055390873776], [77.6903287724761, 12.9055258383697], [77.6891741823332, 12.9054646107797], [77.6890978055076, 12.9060843708712], [77.6890383422374, 12.9063457792689], [77.6886422850723, 12.9065171356709], [77.6883016714537, 12.9065578132811], [77.6880959161332, 12.9065389591121], [77.6876062248732, 12.9064906203827], [77.6876377811315, 12.9053069409125], [77.6876483861432, 12.9045261869097], [77.6857892004283, 12.9043036734431], [77.6864915808115, 12.903837980894], [77.6875732546305, 12.9034055607948], [77.6877674948371, 12.9032610628352], [77.6875074170952, 12.9025636373079], [77.6873297394656, 12.902484921802], [77.6857317291861, 12.9024703684541], [77.6852121198002, 12.9023084267756], [77.6850558219815, 12.9020835752779], [77.6839373221937, 12.9020368671263], [77.6838256464014, 12.902093085647], [77.683628955448, 12.9019095817172], [77.6834968707108, 12.9019605026364], [77.6830252707547, 12.9017928986107], [77.6827563038645, 12.9018397171759], [77.6824633549757, 12.9017435948967], [77.6822493452462, 12.901679704267], [77.6821558930223, 12.9013392160429], [77.682104880713, 12.9007669897731], [77.6821474385959, 12.9005462655302], [77.6822037510752, 12.900398998589], [77.6821728995879, 12.8997749959439], [77.6820284268754, 12.8991739737347], [77.6820482979699, 12.8989314515119], [77.6822481430858, 12.8987201295051], [77.6810110832415, 12.8974771727259], [77.6800994859177, 12.8962198590035], [77.6789531988945, 12.8950640718955], [77.6782611289663, 12.8943882667039], [77.6781532959119, 12.8937505323386], [77.676986462374, 12.8935703255464], [77.6751744773352, 12.8934175413189], [77.6742446869348, 12.8936142948102], [77.6740028517983, 12.8930440140563], [77.673983678402, 12.8929234914313], [77.6739657339458, 12.8928273747767], [77.6739362759282, 12.8926986479319], [77.67372034829, 12.8914869464367], [77.6735180407633, 12.8903622575528], [77.6732373164278, 12.8890235989749], [77.673002860885, 12.8878587753843], [77.6726767112063, 12.8864240890413], [77.6725546136257, 12.8856814277501], [77.6724939324066, 12.8846204012396], [77.6728134486544, 12.884558553565], [77.6740837339889, 12.8843384776549], [77.6743980955944, 12.8842763989877], [77.6747511341743, 12.8838503423236], [77.6747282340418, 12.8836898783361], [77.6746893790732, 12.8834387978711], [77.6746190009525, 12.8831267447229], [77.6746155337267, 12.883016474831], [77.6745526851438, 12.8824934481355], [77.6745286571248, 12.8822185437157], [77.6742716200002, 12.8804559308908], [77.6742600837045, 12.880183371285], [77.6721358430453, 12.8805530454565], [77.6718953690359, 12.8805764160824], [77.6725745615426, 12.878583879125], [77.6732594185002, 12.8782780784851], [77.6734482281562, 12.8779994764554], [77.6735475673253, 12.87779372107], [77.67367528161, 12.8776042783967], [77.6737081203686, 12.8775098733287], [77.6738078457005, 12.8772947223537], [77.6738347813057, 12.8772593525076], [77.6740729275178, 12.8768269326099], [77.6742927678643, 12.8763250159034], [77.674518522665, 12.875563266166], [77.6747450424414, 12.8753024891502], [77.675503942235, 12.8726497323152], [77.6754159704795, 12.8725423373867], [77.6752040689912, 12.8722762571665], [77.6748827317887, 12.871800903478], [77.6740245843745, 12.8707524663536], [77.6737466939247, 12.8703921226788], [77.6733357189146, 12.8698756019408], [77.6731322037401, 12.8695505227361], [77.6729597710265, 12.8692750925862], [77.6730230056352, 12.8683015187893], [77.6726448941025, 12.8683197189646], [77.6713069127707, 12.8678746760994], [77.6694443244745, 12.8669423042457], [77.6680188879227, 12.8664131924145], [77.6672858669301, 12.8663289545822], [77.6672792843732, 12.8662320270393], [77.666972542424, 12.8662330142012], [77.6664894222081, 12.8663396705699], [77.6663399971611, 12.8661186454807], [77.6663071740056, 12.8660446084987], [77.6661578401572, 12.8657181328291], [77.6652583002721, 12.8637515529929], [77.6650182752532, 12.8630973452973], [77.6648884271698, 12.8629068369101], [77.6647170096281, 12.8623404718831], [77.6642516129989, 12.8624189817887], [77.6640422132799, 12.8618161100612], [77.6639899360512, 12.8611378601789], [77.6639122559862, 12.8609025508637], [77.6637434900821, 12.8605870104874], [77.6637545578347, 12.8602106167879], [77.6613847228281, 12.858677911062], [77.6613530909022, 12.8585306730915], [77.6607277032436, 12.8584115904333], [77.659466394557, 12.8586014604908], [77.6583974613148, 12.8578979926273], [77.6582194450072, 12.85778701156], [77.6577823952493, 12.8586406704125], [77.6578917392152, 12.8575813997596], [77.6579804222662, 12.8570047257328], [77.6572881384954, 12.856602256821], [77.6570980969185, 12.8567646560325], [77.6572055789977, 12.8562600128759], [77.6571705801635, 12.8561496956024], [77.6570621549789, 12.8560290556067], [77.656954545976, 12.8559858756262], [77.656705610409, 12.8559109291486], [77.6564555096946, 12.8557253195468], [77.6564996249295, 12.8550940454734], [77.6561541840479, 12.8549592046095], [77.6559681585346, 12.8555033790915], [77.6556226008151, 12.8553574730061], [77.6556381798405, 12.8552300423444], [77.6552651256413, 12.8551508167817], [77.6539562688006, 12.8551087275154], [77.6539667351118, 12.8550311530828], [77.6535521140728, 12.8547531354055], [77.6525859654189, 12.8543174548916], [77.6523611769297, 12.8543935081597], [77.6519602776749, 12.8541688391776], [77.65145519978, 12.8540485177471], [77.6513231569136, 12.8540727601085], [77.6513234842085, 12.8540692940536], [77.6513880782425, 12.8533851656084], [77.6511487202607, 12.8533399123035], [77.6508444798142, 12.8532661543862], [77.6508266766286, 12.8531819437092], [77.6508305867162, 12.853017282282], [77.6508352391291, 12.8529231637948], [77.6508627391014, 12.8528564829787], [77.6509806363889, 12.8528054895754], [77.6510137792412, 12.8522019915075], [77.6508446065211, 12.8522037010607], [77.6505877650495, 12.8524497746375], [77.6505297074677, 12.8532208332616], [77.6501842415191, 12.853228556277], [77.6502697717243, 12.852242712896], [77.6494403630166, 12.8522068214456], [77.6486872909381, 12.851921145471], [77.6484195163863, 12.8525060388577], [77.6474358797362, 12.8522835556837], [77.6471824130428, 12.852313783108], [77.6469559207361, 12.8522275283945], [77.646897209189, 12.8520067771057], [77.6464219627873, 12.8518621654639], [77.646313123015, 12.8522395478513], [77.6454918042187, 12.851899214039], [77.6453346923131, 12.851842013623], [77.645353376935, 12.8521440892016], [77.6433593818148, 12.8513009446902], [77.6430771967496, 12.8512816524473], [77.6430619980402, 12.8523442619174], [77.6431653429082, 12.8557519351083], [77.6431692213983, 12.8577384661925], [77.6431477070093, 12.8594541065976], [77.6431322955153, 12.8595981370489], [77.6424083041877, 12.8615532717593], [77.6420104598435, 12.8635392065263], [77.6416851152512, 12.863585867396], [77.6414907859267, 12.8644178714613], [77.6418489546179, 12.8650090301356], [77.6407865953611, 12.8650336663013], [77.6392715321476, 12.8650850479014], [77.6390217520356, 12.8650791099137], [77.6387796819684, 12.8642038324547], [77.638251358712, 12.8630610843078], [77.6376480329137, 12.8628056922394], [77.637083574284, 12.8630313334515], [77.6365548843854, 12.8630366517523], [77.6360332652364, 12.8629090888902], [77.6353776436893, 12.8629115318193], [77.6349519767464, 12.8628226979618], [77.6345909658685, 12.8623334120315], [77.6346232827369, 12.862167229397], [77.6339948037195, 12.8620232141698], [77.6333176958039, 12.8619931240215], [77.6321720153633, 12.8617390141423], [77.6307036826292, 12.8610559556764], [77.6301615378155, 12.8607631338945], [77.6300823781335, 12.8602743724696], [77.62999164411, 12.8596138319961], [77.6291341373619, 12.8581467835259], [77.6281697755971, 12.8579719953814], [77.6278387825228, 12.8579605570663], [77.6274192529311, 12.8581123237059], [77.6235059547613, 12.8578268634892], [77.619865486066, 12.8577452070902], [77.6193569433925, 12.8580159068184], [77.6191342987289, 12.8578475063267], [77.6189199370317, 12.8577223709986], [77.6191252044697, 12.857393832208], [77.6182661332378, 12.8572197970846], [77.6175893571931, 12.8572210207745], [77.6171259474507, 12.8572070074116], [77.6166033945132, 12.8556869489883], [77.6157305837624, 12.8552750920679], [77.6148778131393, 12.8546195464073], [77.6141522894922, 12.8537247777439], [77.6136566557032, 12.8529493559984], [77.6129824697251, 12.8518604949133], [77.6128673376937, 12.8516347580504], [77.6124902555819, 12.8517104498598], [77.6118791010228, 12.8515117872856], [77.6105689696088, 12.8513477468834], [77.6092591235093, 12.8512113670687], [77.6091591604463, 12.8497237787362], [77.6091229077209, 12.8489438777789], [77.6090938797412, 12.8487840376511], [77.6090872243568, 12.8482193080833], [77.6091176311349, 12.8478869801134], [77.6091813980377, 12.8469622076471], [77.6093085077741, 12.8461640827252], [77.6088264591225, 12.8464510953134], [77.6076162298804, 12.847221250225], [77.6067344229704, 12.8475731058553], [77.6047994542139, 12.848068225274], [77.6040681856395, 12.8482525617434], [77.6027159767003, 12.8483821887759], [77.6014950619417, 12.8481176064239], [77.6007054031168, 12.8481088321345], [77.6006537366073, 12.8480208010012], [77.6005853829845, 12.8479550730515], [77.6005113923006, 12.8478894018429], [77.5994803844782, 12.847993691915], [77.5994072461013, 12.8480110179887], [77.5982879460514, 12.8483043273875], [77.5977079040116, 12.8483875418219], [77.5962975757916, 12.8488995443765], [77.5957298891046, 12.8490877749367], [77.5954135902221, 12.8484932533154], [77.5953609048434, 12.8483056229422], [77.5951586442715, 12.8478317168626], [77.594968459021, 12.8474351602366], [77.5948753337396, 12.8471538560134], [77.594752987488, 12.846773232621], [77.5945705592587, 12.8460335033235], [77.5944517117915, 12.8455659429613], [77.5945136849893, 12.8455597985759], [77.5945695243451, 12.8449560585095], [77.5945403527622, 12.8432131935609], [77.5942125950764, 12.8415009468101], [77.5939759019869, 12.8404186527716], [77.5929892276195, 12.837694685771], [77.5922961543951, 12.8361022518319], [77.591681864895, 12.8344924326173], [77.5906988491611, 12.8348728970191], [77.5907392582715, 12.8355144237363], [77.5902706569144, 12.8354637067436], [77.5899920109185, 12.8354957234618], [77.5870252613097, 12.8333353366618], [77.5856641460502, 12.8342962372276], [77.5850526033213, 12.8348614147124], [77.5849381134713, 12.8349645832047], [77.5838211946535, 12.8359710395644], [77.5835130314368, 12.8362179633703], [77.5833405495666, 12.8363508741961], [77.5831122927337, 12.8365267685212], [77.5829439228896, 12.8366472966937], [77.5826804867753, 12.8368358787432], [77.582248990077, 12.8371754732144]]]]}, "properties": {"id": "bbmp_c2__wards_c2.4", "tessellate": -1, "extrude": 0, "visibility": -1, "OBJECTID": 143, "NewCorp": "South", "name": "Bengaluru South City Corporation"}}