{"type": "Feature", "geometry": {"type": "MultiPolygon", "coordinates": [[[[77.6967254877686, 12.9068598387903], [77.6932704528363, 12.9078091463978], [77.6899030933684, 12.9086777567098], [77.6864423544993, 12.9099560726249], [77.6839031960239, 12.9109663560109], [77.6818612459544, 12.911914345937], [77.6806179085464, 12.9125574216542], [77.6793510687791, 12.9131973378905], [77.6776446731716, 12.9139365138924], [77.6755309681242, 12.9145690899635], [77.6739843026771, 12.9155899468792], [77.6735720742729, 12.9161203899757], [77.6734355174181, 12.9166480103082], [77.6731855777691, 12.91695998074], [77.6720553406229, 12.9175313594931], [77.6704150001039, 12.9183401563237], [77.6687246989558, 12.9188606592657], [77.6674468339083, 12.9195072191135], [77.6666060224171, 12.9199539533454], [77.6651316822619, 12.9205947543358], [77.6638947214564, 12.9208974570675], [77.6641501458014, 12.9214761827391], [77.665268710307, 12.9210871866561], [77.666365004458, 12.9208569471102], [77.6677877479083, 12.9216024133981], [77.6681073906986, 12.9231521909744], [77.6687602318789, 12.9232997208162], [77.6688496052082, 12.9253695328018], [77.6691162721133, 12.9261598490036], [77.6691356735371, 12.9268053787374], [77.6690911667621, 12.9272309223554], [77.668849208948, 12.9282370951088], [77.6687227713229, 12.9288207802803], [77.6683692243537, 12.9288367876124], [77.6685118982554, 12.93099355527], [77.668004729974, 12.9310178482418], [77.6671685379631, 12.9311600500718], [77.6667511717694, 12.9311147521575], [77.6662793311133, 12.9308145796715], [77.666276251248, 12.9308131883146], [77.6661669979785, 12.9307477532396], [77.6660918055822, 12.9306952796154], [77.6657727240482, 12.929819017381], [77.6655873692376, 12.9293158802265], [77.6652987630637, 12.9285468241285], [77.6651551627408, 12.9282647963716], [77.6649698031178, 12.9281280564422], [77.6647669775435, 12.9280619754851], [77.6645709945097, 12.9280453899141], [77.6643246146831, 12.9280417106777], [77.6641288279568, 12.9280437100354], [77.6638837824399, 12.9280364601025], [77.6636902950459, 12.9281708728524], [77.6635561354945, 12.9282137714935], [77.6633171947189, 12.9282901751411], [77.6619929981464, 12.9294456713157], [77.6614971106404, 12.93010618779], [77.6613691131392, 12.9302707946382], [77.6611946108155, 12.9302725749543], [77.6610465164973, 12.9301659676616], [77.6608147926202, 12.9300359761806], [77.6606413186371, 12.9299953123122], [77.6604021715914, 12.929917778483], [77.6601131864697, 12.9298715122883], [77.6597234699489, 12.9297893610444], [77.6595791725288, 12.9297846810373], [77.6591399475634, 12.9297635267105], [77.655221992623, 12.9351152965627], [77.6580934973063, 12.9366861688345], [77.6605046711545, 12.9381116932246], [77.6605439317242, 12.9381431109748], [77.6605402442802, 12.9382342268902], [77.6605406825908, 12.9382755472304], [77.6605413473392, 12.9383446391764], [77.660518126847, 12.9383477272567], [77.6604541669744, 12.9383520829835], [77.6590740440118, 12.9383271648708], [77.6589827298727, 12.9383154035427], [77.6590144926976, 12.9379073507204], [77.658208035353, 12.9379485539738], [77.6582067613809, 12.9385931869126], [77.6582087754493, 12.9387832171132], [77.6581470601235, 12.9388104513703], [77.6579329691097, 12.9387881612913], [77.6578555611469, 12.9387930573362], [77.6576964909307, 12.9388523906419], [77.6575637831282, 12.9390982293283], [77.6574364464341, 12.9391405686633], [77.6572229025966, 12.939142745439], [77.6567755793614, 12.9391878481844], [77.6565899457949, 12.9392235260936], [77.6563701599931, 12.9392865833015], [77.655882718919, 12.9394469674262], [77.6547152507556, 12.9402208781264], [77.6546312039429, 12.9403178943482], [77.6544807292566, 12.9404207869882], [77.6542955956634, 12.9405037575537], [77.6540828367334, 12.9405802545954], [77.653767321584, 12.9407118560672], [77.6530547707233, 12.9410840073736], [77.6510199316356, 12.9421520968825], [77.6505951240272, 12.9423726506598], [77.6503552364275, 12.9424899665162], [77.6499302828559, 12.9426970078431], [77.6488827436691, 12.9433158152617], [77.6474677403916, 12.944270512702], [77.6474689071744, 12.944380997681], [77.6476236651212, 12.9444603032729], [77.6476008952329, 12.9445061455434], [77.6476016980275, 12.9445821586069], [77.6476407695841, 12.9446121692135], [77.6476799195806, 12.9446497802337], [77.6476271572703, 12.9447909542191], [77.6474543118145, 12.9449371488699], [77.6471394576172, 12.9452140213236], [77.6466527733338, 12.9454798205177], [77.6465636178634, 12.9455542376939], [77.6424193684889, 12.9489966093119], [77.6397933720802, 12.9515969032172], [77.6399390560632, 12.9518277952915], [77.6399394495127, 12.9518349769945], [77.6399446428198, 12.9518321093421], [77.6404352681632, 12.9526860036019], [77.6404388253014, 12.9526921956158], [77.6407716853404, 12.9532715071966], [77.6409287571926, 12.9532694681177], [77.6410209244195, 12.9532685334463], [77.6415347527857, 12.9534340863862], [77.6417403740339, 12.953509011357], [77.6417918947989, 12.9535386235861], [77.6418333877444, 12.953588428346], [77.6418714234953, 12.9536343591368], [77.6419176916665, 12.9537053201452], [77.6419867141469, 12.9537760530022], [77.6420740860454, 12.9538599872171], [77.6422067357697, 12.9539211451967], [77.6423618591101, 12.9539552864138], [77.6424164744933, 12.9539547322327], [77.642471091716, 12.9539541780215], [77.6425757247193, 12.9539486525392], [77.6426394432674, 12.9539480059353], [77.6426802635011, 12.9539341969193], [77.6427210385045, 12.9539159264442], [77.642825061968, 12.9538523669609], [77.6430244728919, 12.9537699835702], [77.6436729632907, 12.9535401827154], [77.6439905676414, 12.9534432058514], [77.6440874773445, 12.9534220155141], [77.6441404342365, 12.9534104346314], [77.6442085147389, 12.9533918849079], [77.6442716694913, 12.9533376718551], [77.6442802995923, 12.953292938953], [77.6442842866539, 12.9532393248634], [77.6443305345571, 12.9528772393093], [77.6444586869361, 12.952081275016], [77.6445802829722, 12.9515264531211], [77.64463605772, 12.9512044497257], [77.6447765171959, 12.9507119382595], [77.6449851492417, 12.9502098089533], [77.645163430699, 12.9498508446804], [77.6453513811454, 12.9495453575645], [77.6455575815125, 12.9492441496649], [77.6460556087142, 12.9485605008812], [77.6463245373822, 12.9481649040831], [77.6464636448511, 12.9479759863371], [77.6465625930974, 12.9478633722043], [77.6466890394646, 12.9477683326263], [77.6469966391374, 12.9475866339655], [77.6476669194216, 12.9472673139961], [77.6478206709466, 12.9471719992203], [77.6482532964289, 12.9467613428114], [77.6488975168065, 12.946129778258], [77.6490827940627, 12.9460028929246], [77.6491788475752, 12.9465544629863], [77.649228235594, 12.9467363645311], [77.6492727059289, 12.9468525440134], [77.6492826864421, 12.9468821535503], [77.6494136771182, 12.9472707642231], [77.6494326850652, 12.9473464646547], [77.6494240068602, 12.9473867316181], [77.6493925723807, 12.9474272327045], [77.6493593769558, 12.9474671382874], [77.6492576812569, 12.9475753427635], [77.6491967411407, 12.9476626400647], [77.6491880697796, 12.9476750641681], [77.6491684495846, 12.9477031688017], [77.6491263935174, 12.9478051313916], [77.6491111840376, 12.9478851439085], [77.6491016462307, 12.9479353272027], [77.649097790388, 12.9479556088972], [77.6490995547968, 12.9479955709288], [77.6491119732693, 12.9482769911046], [77.6491638258893, 12.9486141809688], [77.6491652363705, 12.9486233596244], [77.6491746306737, 12.9486586719536], [77.6491843107663, 12.9486950537115], [77.649185634415, 12.9487000261158], [77.6492482650413, 12.9489354683951], [77.6492485861146, 12.948940224241], [77.6492506989113, 12.9489716627553], [77.6492742004921, 12.9490070646849], [77.6493253624503, 12.949103319281], [77.6493677990101, 12.9491743014545], [77.6494021389476, 12.9492317445002], [77.6494488587997, 12.9493098922192], [77.6496390703195, 12.9495538629564], [77.6497553452426, 12.9496891179563], [77.6499829253785, 12.9499485709895], [77.6501044983202, 12.9500960662253], [77.6501268085441, 12.9501231336481], [77.6501943009473, 12.9502050176712], [77.6503891484565, 12.9504283149137], [77.6504354993866, 12.9504936486795], [77.6504875083579, 12.9505417232363], [77.6506028773744, 12.950648369929], [77.6506150412986, 12.9506596127128], [77.6510968130482, 12.9511049563224], [77.6511070016149, 12.9511134439401], [77.6513055820226, 12.9512788594096], [77.651396777377, 12.9513366303043], [77.6516102121825, 12.9514820005219], [77.6517030230684, 12.9515397539314], [77.6518088400843, 12.9516037212502], [77.6518966137181, 12.9516440776296], [77.6521254677644, 12.9517178993001], [77.6522116074194, 12.9517566849244], [77.6522539450737, 12.9517832202161], [77.6522833084152, 12.9518067185034], [77.652294791944, 12.9518265901411], [77.6523083847046, 12.9518501108036], [77.6523242142954, 12.9518775005236], [77.6523261499398, 12.9518808486785], [77.6523779508377, 12.952046240987], [77.6523860606004, 12.9520721301787], [77.6524098580884, 12.9521481120054], [77.6524875599785, 12.9523852665723], [77.6524950652922, 12.9524066087879], [77.6524970075303, 12.9524158858719], [77.6525089315734, 12.9524729223969], [77.6525348414358, 12.952577807667], [77.6527781312925, 12.9525760794693], [77.6529505126567, 12.9525738835948], [77.6529599902808, 12.9525737617548], [77.6529704696892, 12.9525749107272], [77.6531064604539, 12.9525766059846], [77.6531457288261, 12.9525770939869], [77.6534019037879, 12.9525959018577], [77.6535232692342, 12.9526006159934], [77.6536628296652, 12.9526051401602], [77.6540294670595, 12.9526299613781], [77.6544410228952, 12.9526578944654], [77.6547194253092, 12.952682337492], [77.6547324514476, 12.9526834794022], [77.6549959417992, 12.9527057813088], [77.6550699852852, 12.9527097864518], [77.6551780208896, 12.9527158218519], [77.6553502564769, 12.9527255299017], [77.655374671582, 12.9527269070783], [77.6554875697133, 12.9527340834438], [77.6555626685748, 12.9527402440248], [77.6555907787931, 12.9527425501358], [77.6558870086354, 12.9527633274981], [77.6560946360277, 12.9527802472765], [77.6563274095449, 12.9527932155152], [77.6564658504723, 12.9528009295148], [77.6567986826194, 12.9528194705576], [77.6569811329081, 12.9528362932244], [77.6570770952437, 12.9528451431059], [77.6572285593756, 12.9528591090098], [77.6578367762355, 12.9528993062566], [77.6580118158397, 12.9529092196671], [77.6581637609637, 12.9529178220704], [77.6584242945507, 12.9529325747147], [77.6590019595556, 12.9529516633834], [77.6590123942833, 12.9529511196009], [77.6591140240515, 12.9529458269418], [77.6593677954525, 12.9529326018314], [77.6595415144621, 12.9529235473941], [77.6596016708425, 12.9529234931628], [77.659926080002, 12.9529231882576], [77.6600349392188, 12.9529191927543], [77.6600565776565, 12.9529167078349], [77.6609953676986, 12.9528663371749], [77.6610254902164, 12.9528647203743], [77.6610258509851, 12.9528882789574], [77.6610290443414, 12.9530969958188], [77.6610298084111, 12.9531209748747], [77.6610307488104, 12.9531504546891], [77.6610378826037, 12.9533743444016], [77.6610430928325, 12.9540104082547], [77.6610456242611, 12.9541117077247], [77.6610461748348, 12.9541337954505], [77.6610486592336, 12.9542331811124], [77.6610488259047, 12.9542488704228], [77.6610498471238, 12.9543450007573], [77.6614394231853, 12.9543195764744], [77.6614496687384, 12.9543189098499], [77.6621833418107, 12.9542710305014], [77.6622155676669, 12.954268927687], [77.66228930025, 12.9542641149389], [77.6623124182576, 12.9542626066109], [77.6624138140132, 12.9542559887896], [77.6624145333783, 12.9542628345586], [77.6624173921688, 12.954290020886], [77.6624248946215, 12.9543613599448], [77.6624467901861, 12.954569635092], [77.6624588637281, 12.9549751748189], [77.6619182843984, 12.9550144685908], [77.6619288926586, 12.9551846087419], [77.6619237891901, 12.9554572122454], [77.6608726029065, 12.955444527147], [77.6608756536539, 12.9554877133375], [77.6608887329515, 12.955568498298], [77.6609076056053, 12.9556192531216], [77.6609235979685, 12.9556403528234], [77.6609252477629, 12.9556425312056], [77.6609323989831, 12.9556519672265], [77.6609410137128, 12.9556589653937], [77.6609724697946, 12.9556845233906], [77.6609797940822, 12.9556894415851], [77.6609819435717, 12.9556908831127], [77.6609979150723, 12.9557016084692], [77.6610032447711, 12.9557051865391], [77.6610208968805, 12.9557063386396], [77.6610429972379, 12.955707777726], [77.661121763618, 12.9557102014437], [77.6611365980775, 12.9557106578133], [77.6612259377438, 12.9557159474015], [77.6612294437858, 12.9557161545795], [77.6613502465816, 12.9557233033336], [77.6619346880125, 12.9557525305309], [77.6619386943414, 12.9557218971324], [77.6626120101878, 12.9557466358409], [77.6627691328273, 12.9557410767133], [77.6630068916726, 12.9557386451249], [77.6634101688371, 12.9557621893006], [77.6633921331941, 12.9558307297152], [77.6632928570437, 12.9560780455354], [77.6631796569318, 12.9563849929322], [77.6630713599641, 12.9566966519439], [77.6630455071972, 12.9567754453974], [77.6630454999083, 12.9567756261501], [77.6630429840055, 12.9568322411631], [77.6630396327946, 12.9569075784526], [77.6630716537019, 12.957066691196], [77.6631365203838, 12.957292871703], [77.663198903935, 12.9575103905697], [77.6632771737481, 12.9577975346786], [77.6633393176752, 12.9580284333122], [77.6633618005161, 12.9581119773773], [77.66347182862, 12.9584953344974], [77.6634877876643, 12.9585509320599], [77.6635531938053, 12.9587691948937], [77.6635616169957, 12.9589319610101], [77.6633287032029, 12.9589785785897], [77.6633164509571, 12.958981030174], [77.6630981537276, 12.9590255394681], [77.6627577606142, 12.9590949446973], [77.6627450685929, 12.9590975326502], [77.6627268661543, 12.9591005193536], [77.6622867416111, 12.9591727599535], [77.6622352971913, 12.9591804084206], [77.662131505205, 12.95919583652], [77.6621053557762, 12.9591997211196], [77.6615991701365, 12.9592639311186], [77.6612901579047, 12.959296838285], [77.6612754574086, 12.9592972198446], [77.6611385522934, 12.9593007677271], [77.6611365055471, 12.959300763356], [77.6611326295068, 12.9593005879735], [77.6610190886949, 12.9592954231262], [77.6607733099218, 12.9592631160641], [77.6607638645833, 12.9592618737835], [77.6604715618269, 12.959211207145], [77.6599305677048, 12.9591048894474], [77.6598204478746, 12.959084980966], [77.6598048096956, 12.9590821550409], [77.6597810593791, 12.9590778599734], [77.6596669659181, 12.9590636761693], [77.6596879047535, 12.9592545622722], [77.6596927663856, 12.9592928932297], [77.659693036915, 12.9592950351194], [77.6597019669515, 12.9593654383039], [77.6597101412823, 12.9594299066926], [77.6597108541121, 12.9594355329647], [77.659728881726, 12.9595619312146], [77.6597739450577, 12.959877897513], [77.6597803276803, 12.9599226631427], [77.6598131833466, 12.9601602963257], [77.6598171625842, 12.9601923812], [77.6598385106334, 12.9602941217208], [77.659918416679, 12.9602933051701], [77.6602081532713, 12.9608959854662], [77.6597958405795, 12.9610768377195], [77.6598563372287, 12.9612533268381], [77.6599520683989, 12.9615855068982], [77.6599644714818, 12.9616312173539], [77.6599921105285, 12.9617330814294], [77.659992640324, 12.9617330091637], [77.6608441052133, 12.9616185671021], [77.6609141540933, 12.9619378963747], [77.6609303045392, 12.9620042371292], [77.6609314931044, 12.9620091204558], [77.6609754749521, 12.9622027418526], [77.6609776375651, 12.9622122577484], [77.6611661283511, 12.9621687292794], [77.6613111842648, 12.9621458699667], [77.661456470135, 12.9621443842682], [77.6615319329359, 12.9621477012992], [77.6615441709413, 12.9621933627178], [77.6616197667525, 12.9624704745098], [77.6617165498737, 12.9626903646725], [77.6617689135271, 12.9628323318005], [77.6618012311636, 12.9631383853757], [77.661844142022, 12.9637578370067], [77.6618427119257, 12.9643064935292], [77.6616037298972, 12.9642614702843], [77.661112660815, 12.9641637698716], [77.6610634068935, 12.9643336269128], [77.6608995384614, 12.9646332221671], [77.6608625853677, 12.9648091696553], [77.6608625442457, 12.9648108467703], [77.6608601695508, 12.9649115215066], [77.6605277319449, 12.9649897080953], [77.6607119145561, 12.9652300809733], [77.6611250715923, 12.9651403534532], [77.6612083881235, 12.9654601365512], [77.6612877348183, 12.9654414803129], [77.6613672067529, 12.9654367684193], [77.6614471762281, 12.9654788434534], [77.6615383663087, 12.9654545128536], [77.6615862405898, 12.9654696228947], [77.6616264548036, 12.9655121063362], [77.6616624834693, 12.9656774946454], [77.661717194605, 12.9658192415989], [77.6617788634261, 12.9660096887058], [77.6619623528539, 12.9662822154724], [77.6616225492468, 12.9668310617006], [77.6615452736024, 12.966823457038], [77.6599252139001, 12.9670121603626], [77.6596802006833, 12.9670453408424], [77.6594885315546, 12.9670413613189], [77.6587531132549, 12.9671708838654], [77.6587546188657, 12.9673125873045], [77.658668027774, 12.9674283756525], [77.6581055405998, 12.9682204782644], [77.6572871788111, 12.9683005737679], [77.6573328892213, 12.9684722701695], [77.6573811879866, 12.9688878364853], [77.6575131681674, 12.9692833290529], [77.6576348450458, 12.9700506631417], [77.6576793738058, 12.9707929302085], [77.6583325109252, 12.9710815096113], [77.6587848394971, 12.9711327689932], [77.6586870225598, 12.9713257199573], [77.6585704063891, 12.9715435275023], [77.6595607557069, 12.9715377610358], [77.6597454820392, 12.9715491193133], [77.6600571668476, 12.9715523005531], [77.660511745986, 12.9715603850018], [77.6605715539732, 12.9715635312916], [77.6609068255833, 12.9715811674835], [77.6610184635687, 12.971587039205], [77.6610873610403, 12.9715863342675], [77.6613236688722, 12.9715987156481], [77.6614078637264, 12.9716057858608], [77.6614273227732, 12.9716103466998], [77.6614410222593, 12.9716191012951], [77.6614517538992, 12.9716259611349], [77.6614810549378, 12.9716431129888], [77.6614989997032, 12.9716572056349], [77.6615252658106, 12.9716934284011], [77.6615403996529, 12.9717472122701], [77.6615444614172, 12.971824906561], [77.6615465756741, 12.9718828437545], [77.6615578762099, 12.9719216985698], [77.6615506656932, 12.9721063820338], [77.6616543849954, 12.971985197618], [77.6616561696974, 12.9719855840718], [77.6617205980858, 12.9719595412185], [77.6618975771672, 12.9718688859352], [77.6621910716198, 12.9717586566244], [77.6622536541667, 12.9717351503019], [77.6625278163647, 12.9716561942684], [77.6628017529294, 12.9715821962828], [77.6628176692791, 12.9715789735429], [77.6629215178262, 12.9715617350785], [77.6630378412988, 12.9715478523112], [77.663126104101, 12.9715350427756], [77.6635401245484, 12.9715871239301], [77.6638327488437, 12.9716079312246], [77.6641990769718, 12.9716771555388], [77.6645864638081, 12.9717493362439], [77.6650377891833, 12.9718334887065], [77.6653451870941, 12.9718909604092], [77.6654116910683, 12.9717689511161], [77.6654281147501, 12.9717239584888], [77.6660397834231, 12.9714864822945], [77.6661443678988, 12.9714502711311], [77.666507971466, 12.9718944781668], [77.6665165298047, 12.9722763163633], [77.6665251754127, 12.9725150300093], [77.6669386989573, 12.972648501951], [77.6668116832124, 12.9727605696733], [77.666547701102, 12.9729099695241], [77.6666428739101, 12.9732472841023], [77.6667139500838, 12.9732325843653], [77.6667860436095, 12.9732188733235], [77.6668319231029, 12.9732273833971], [77.6668725933918, 12.9733197712587], [77.6669007012805, 12.9733793576811], [77.6668397532207, 12.9733889632984], [77.6670327193226, 12.9743380970717], [77.6670418272619, 12.9744213203089], [77.6670181640235, 12.9744888201665], [77.666603421049, 12.9745529900141], [77.6664842347968, 12.9745604917149], [77.6663856072552, 12.9753308890825], [77.6666050579586, 12.9754090941787], [77.6666265949365, 12.9754180959753], [77.666784736002, 12.9754642632058], [77.6667845835204, 12.9754661176163], [77.6669362979675, 12.9755126578101], [77.6672128626899, 12.9755577672172], [77.6673046732624, 12.9755657219289], [77.6673537170911, 12.9755699715156], [77.667474808078, 12.9755804615094], [77.6675289470629, 12.9755778219603], [77.6678492779148, 12.9755622113146], [77.6679145866384, 12.9755590297742], [77.6679585779575, 12.975552148975], [77.6682619888996, 12.975504697257], [77.668536248375, 12.9754615427836], [77.668798871759, 12.9754202166797], [77.6689335711786, 12.9753765285019], [77.6691430298204, 12.9752871583121], [77.6692112662881, 12.9752580418321], [77.6694418695121, 12.975177434923], [77.6698845793156, 12.9750226790859], [77.6704601845664, 12.9748044907134], [77.6706493358596, 12.9747327913753], [77.6710363569958, 12.9746188208608], [77.6712462716722, 12.9745585886088], [77.6714033411648, 12.9745135185873], [77.6723605412323, 12.9742019031413], [77.6728190682311, 12.974042563739], [77.6732888661694, 12.9738793009065], [77.6734814175589, 12.9738222637587], [77.6738708183084, 12.973706917191], [77.6740666757538, 12.97364130057], [77.674435331692, 12.9735177895167], [77.6745883422896, 12.973472147943], [77.6749539741446, 12.9733753143941], [77.6755478910726, 12.973246520684], [77.6758462839345, 12.9731985289057], [77.6759755868482, 12.9731777305081], [77.6763006686653, 12.9730949481315], [77.6766728579286, 12.9730177855642], [77.6776839168061, 12.9728081671799], [77.6781040669936, 12.9727424425196], [77.6781221473928, 12.9728070656732], [77.6781861988978, 12.9730325950961], [77.6781917812434, 12.9730317534716], [77.6782193475324, 12.9731920226812], [77.6782350722875, 12.9732834516605], [77.6782607712163, 12.9733575016822], [77.6784037496612, 12.973769495832], [77.6787342259659, 12.9747484712003], [77.6793000501877, 12.9762673827412], [77.6793057622677, 12.9762982438129], [77.6793258920754, 12.9764069693605], [77.6793234393096, 12.976502504331], [77.679314209763, 12.9766151631205], [77.6792641626095, 12.9768135187877], [77.6792634395475, 12.9770116741892], [77.6792632983945, 12.9770504242589], [77.679263279539, 12.9770557137345], [77.6792813224149, 12.9773192013869], [77.6792912108638, 12.9774635966705], [77.6793003920194, 12.9775976889816], [77.6793335517837, 12.9780953598768], [77.679379452102, 12.9784837469089], [77.6794274040787, 12.9787390821617], [77.6795772333674, 12.9794129240409], [77.6796427612137, 12.9796851310483], [77.6796844955193, 12.9799100845954], [77.6798035574833, 12.9805518472129], [77.6798088779557, 12.9805805251957], [77.6798189634186, 12.9806253344507], [77.6798563567369, 12.9807915200453], [77.6799394948217, 12.9810840130827], [77.6801051792466, 12.9816144283956], [77.6802575781424, 12.982130901336], [77.6803470113411, 12.9824339971094], [77.6803760770636, 12.9825496720219], [77.6803910854617, 12.9826282275974], [77.6803981887004, 12.9826654204592], [77.6804025811547, 12.9827506494686], [77.6803704169266, 12.9828487113078], [77.6803621639135, 12.9828738633506], [77.6803026906278, 12.9829671443355], [77.6802527024956, 12.9830455455173], [77.6801448576265, 12.9832064915123], [77.6800880768128, 12.9833010609271], [77.6800630820359, 12.9833426916026], [77.6799718112932, 12.9834662239789], [77.679880196916, 12.9835579772465], [77.6798110320103, 12.983634207501], [77.6798083031107, 12.9836392430668], [77.6798071596427, 12.9836641293669], [77.6790752953796, 12.9840327038284], [77.678628475713, 12.9841401256007], [77.6784872262704, 12.9843004814393], [77.6782029219901, 12.9844529645109], [77.6779285475215, 12.9846427331406], [77.6775874618487, 12.9848331890308], [77.6770186509754, 12.9851194609129], [77.676903664745, 12.9851942412388], [77.6768500186226, 12.9852027933638], [77.6768307793471, 12.9851976173712], [77.6768087700902, 12.9851897796496], [77.6768009533163, 12.9852274868498], [77.6767765502318, 12.9852519289615], [77.6766470634981, 12.9853611201696], [77.6765075186792, 12.9854518721703], [77.6757025501696, 12.9859368617446], [77.6748881449295, 12.9864312938208], [77.6744813712635, 12.9866237850942], [77.6737318373536, 12.9866997812791], [77.6735059408709, 12.9866140515936], [77.6731225282781, 12.9864685368487], [77.6730252174678, 12.9864316059601], [77.6727100405033, 12.9863071156898], [77.6726193602104, 12.9862742837179], [77.6721993579614, 12.9861125314997], [77.6721396366303, 12.9860895313194], [77.6720215666886, 12.9860440579196], [77.6717054212831, 12.9859705559152], [77.6714970536926, 12.9860662041212], [77.6712956999832, 12.9861752124796], [77.671171576373, 12.9862223209275], [77.6709991982765, 12.9860464897665], [77.6708433397983, 12.98608106103], [77.670551738168, 12.9861352244023], [77.6702113367925, 12.9861796572952], [77.6701647877016, 12.9861830265376], [77.6699990013299, 12.9861950289371], [77.6699367606407, 12.9861995323447], [77.6698220234953, 12.9862041226123], [77.6697967758157, 12.9862030567967], [77.6694817073824, 12.9861897524108], [77.6694322718494, 12.9861876631201], [77.6693536124148, 12.9861736142466], [77.6692586691251, 12.98615665301], [77.6692336282511, 12.9861521810599], [77.6691664844075, 12.9861288724648], [77.6688399921034, 12.9860155227326], [77.668804197831, 12.9860030939707], [77.66860546681, 12.9859111118658], [77.6685734886236, 12.9858963104269], [77.6684196567548, 12.9858228471043], [77.6684165443608, 12.9858228790702], [77.6682847159275, 12.9857505835876], [77.6682832134397, 12.9857492023843], [77.6682393421875, 12.9857253048928], [77.6680558006039, 12.9856253303283], [77.6679928675916, 12.9855952759234], [77.6679735809648, 12.9855795373465], [77.6679547545157, 12.9856093120289], [77.6679341437797, 12.9856334001526], [77.6678248895117, 12.9858255438126], [77.6677289236994, 12.9859595608733], [77.6674688419771, 12.9860338634308], [77.6674461401005, 12.9860375076956], [77.667445114474, 12.9860920971885], [77.6674509229451, 12.9863103443682], [77.6674100428593, 12.9873681989497], [77.6674231898616, 12.9879479464228], [77.6674156870631, 12.9885483739219], [77.6674515790066, 12.9889778010677], [77.6675502203556, 12.9894202275914], [77.667698958346, 12.9896908738411], [77.6677853217649, 12.9897549149446], [77.6678673485029, 12.9897769859052], [77.6679840709763, 12.9897929332407], [77.6681734409557, 12.9899851986642], [77.6681230387227, 12.9900149743611], [77.6683160171626, 12.9902154098124], [77.6679448208978, 12.9904062372962], [77.6678213075568, 12.99051092376], [77.6672143360511, 12.9908732154329], [77.6670802681434, 12.990965949829], [77.6668734721098, 12.9911140325403], [77.6665650872504, 12.9913507324596], [77.6663651502767, 12.9915214501621], [77.6660670329368, 12.9917904794358], [77.6657008132097, 12.9921867060689], [77.6655603699218, 12.9923535704167], [77.6652046220217, 12.9928015851156], [77.6651226883451, 12.9929312697848], [77.6648663453449, 12.9933369964182], [77.6646906629284, 12.9936112554726], [77.66419027437, 12.994453223176], [77.6641296863412, 12.9945611257331], [77.6641283302955, 12.9945635444646], [77.6641261777847, 12.9945673824597], [77.6640652469774, 12.9946758865708], [77.6638043339548, 12.995105848757], [77.6637994013129, 12.9951141066422], [77.6636069912526, 12.9954361690296], [77.6633631287467, 12.9958517738244], [77.663331738079, 12.9959054589758], [77.6632196625917, 12.9960924220537], [77.6627856394427, 12.9968279310638], [77.6629099323874, 12.9968948204386], [77.6633813621075, 12.9971773755746], [77.6636898585575, 12.9973350170311], [77.6640420997671, 12.9975150124405], [77.664037433849, 12.9975224545503], [77.6639682594641, 12.9976327083], [77.6639612259687, 12.9976441243159], [77.6639612078446, 12.9976441525069], [77.6638568309063, 12.99781356086], [77.6637435344057, 12.9980288191175], [77.6636001213621, 12.9983470040144], [77.6635599231695, 12.9987073216771], [77.6634442468775, 13.0002488942032], [77.6633846769725, 13.0015451596352], [77.6632748944617, 13.0030656083803], [77.6632601694993, 13.0031013096225], [77.6632331666447, 13.0036852475252], [77.6631841798729, 13.0044738422946], [77.6631782749809, 13.0045280862923], [77.6631291053641, 13.0049798656736], [77.6631263972875, 13.0050047655413], [77.6629983839626, 13.005749729338], [77.6628506160558, 13.0066252557134], [77.6627548244662, 13.0072750801163], [77.6626460947556, 13.0078450441608], [77.6625875535962, 13.0083048705588], [77.6625523900426, 13.0086903882304], [77.6625320697446, 13.0090038790979], [77.662510882775, 13.009330767976], [77.6624974726248, 13.0095904480768], [77.6624758298005, 13.0100095965138], [77.6624313567765, 13.0105154145678], [77.6624273336552, 13.0105611654887], [77.6623713534976, 13.0112609470473], [77.6623443496566, 13.0118448851232], [77.6622926562162, 13.0123889834159], [77.6622764444565, 13.0125596037913], [77.6622456945156, 13.0130754368867], [77.6622395628906, 13.0132791126277], [77.6622317547104, 13.0135385428062], [77.6622256208379, 13.013742261931], [77.6621894147218, 13.0145959033771], [77.6621591242273, 13.0148717512966], [77.6620987637065, 13.0154441794423], [77.6620710192767, 13.0156755581619], [77.6620428626564, 13.0158684278855], [77.6620091851828, 13.0159835400808], [77.6619997151838, 13.0160159108505], [77.6619933072931, 13.0160378106283], [77.6619615607432, 13.0160981296854], [77.6619133462105, 13.0161897323175], [77.66187475991, 13.016250237233], [77.6618657990872, 13.0162642911002], [77.6618032072257, 13.0163449269616], [77.661732000819, 13.0164019924326], [77.6617029277629, 13.0164252920928], [77.661698351136, 13.0164289607641], [77.6616548446071, 13.0164512161369], [77.6616115158692, 13.0164733838566], [77.6615210473751, 13.016519664553], [77.6612052410897, 13.0166562295311], [77.6606034638366, 13.0168935003498], [77.6602017621877, 13.0170693949709], [77.6600561001774, 13.0171331747441], [77.6600448272763, 13.0171382184055], [77.6594666856315, 13.0173969809038], [77.6582184653883, 13.0179341908168], [77.6575025690685, 13.0182378062786], [77.656777763718, 13.0185563269996], [77.6560018780362, 13.018902031236], [77.6557683393339, 13.0189937885977], [77.6555187773847, 13.0190918430683], [77.6547777619548, 13.0193193168423], [77.653901213215, 13.0196225293882], [77.6535411453271, 13.0197532710136], [77.6518678157171, 13.020485927037], [77.6497804143338, 13.0214033624672], [77.6473227626061, 13.0224583071895], [77.6454152534566, 13.0233003152063], [77.6435551140022, 13.0241083906129], [77.6418444888945, 13.0248681214799], [77.640364615518, 13.0255218359025], [77.6399248479725, 13.0256938405611], [77.6397940841671, 13.0257449865587], [77.6394131493299, 13.0258391446983], [77.6393283595187, 13.0258543608606], [77.6382082573342, 13.0260553775254], [77.6372656322147, 13.0262421865272], [77.6362719304145, 13.0264362000105], [77.6353570715861, 13.0266695317368], [77.634726523814, 13.0268787381781], [77.6343070261456, 13.0270179189088], [77.6335023370031, 13.0273504323088], [77.6333610993837, 13.0274153820715], [77.6328405746553, 13.0276547437938], [77.6327724856758, 13.0276654654422], [77.6327008447374, 13.0276628491422], [77.6326531031346, 13.0276317891933], [77.6327372500154, 13.0277588690105], [77.6327247624872, 13.0277641787694], [77.6327286137779, 13.027770185224], [77.6327663053908, 13.0278289960525], [77.6329537531541, 13.0280869873138], [77.6330130107389, 13.0281685443708], [77.633085954511, 13.0282535822346], [77.6331961239704, 13.0283820116803], [77.6334584934202, 13.0286878720091], [77.633482064568, 13.0287153479561], [77.6336150128023, 13.0286466202265], [77.6336666550839, 13.0286299549017], [77.6338069983109, 13.0285846693607], [77.6342726794308, 13.0284732732607], [77.6343873934635, 13.028445947602], [77.6345552560099, 13.028405957634], [77.6348603991116, 13.0283295253826], [77.6351381251341, 13.0282155416388], [77.6352101617577, 13.028185975728], [77.6356135016737, 13.0280163557477], [77.6358328921867, 13.0279240964503], [77.6361379860779, 13.0278432195193], [77.6361884804614, 13.0278359201829], [77.6363529572299, 13.0278121435962], [77.6365954980282, 13.0278163403569], [77.6370358879235, 13.0278851868134], [77.6374294476137, 13.0279846188229], [77.637506133607, 13.0282377485752], [77.6375628154776, 13.0287062374082], [77.6376329613617, 13.0292253007064], [77.6377669439373, 13.0296676490552], [77.6378969589211, 13.0299930433403], [77.6379004969112, 13.0300019022122], [77.6379138149009, 13.0300451534017], [77.6379593173508, 13.0301346291396], [77.638056212554, 13.030253729756], [77.638329087033, 13.0305249133738], [77.6385186126467, 13.0307303794438], [77.6388267636505, 13.0310087065984], [77.6393059038325, 13.0314541681583], [77.6394492184948, 13.031661180172], [77.6394588694966, 13.0316751197694], [77.6395592049671, 13.0318531658072], [77.6396149531098, 13.0319520901178], [77.6396164105373, 13.0319546770594], [77.6396186142187, 13.0319614283038], [77.6396944924955, 13.0321938662129], [77.6396962515303, 13.0321984809262], [77.6398126079272, 13.0325037557577], [77.6398603434637, 13.0325995085003], [77.639875989795, 13.0326308894536], [77.6400642319749, 13.0328656154506], [77.6401107175805, 13.0329191667167], [77.6401407105237, 13.0329537177566], [77.6402636434099, 13.033148008252], [77.6404106219335, 13.0333302035428], [77.6405723004516, 13.0334737304884], [77.6406367092998, 13.0335464785967], [77.6406762875864, 13.0335911826841], [77.6408057983586, 13.0338357739111], [77.6408734659202, 13.0339924589003], [77.6409003711027, 13.0340547612517], [77.64100074132, 13.034266351969], [77.6410172542377, 13.0342927146085], [77.6410390720552, 13.0343275385903], [77.6410468485989, 13.0343399505891], [77.6410773149906, 13.0343633423447], [77.6411045089671, 13.0343630649524], [77.6411456163255, 13.0343444908914], [77.6412789373795, 13.0342842544661], [77.6416941758647, 13.0341504191144], [77.6417102434925, 13.0341452385991], [77.6417156051744, 13.034143508991], [77.6420168123582, 13.0340515519412], [77.642055700659, 13.0340379076687], [77.6421733615409, 13.0339966258822], [77.6421853718562, 13.0339970516873], [77.6423033502858, 13.0340012247891], [77.642376177263, 13.0340301094867], [77.6425486551284, 13.0340520517515], [77.6430987203744, 13.0340612502865], [77.6431984628164, 13.0340631970479], [77.6432407622841, 13.0340627652329], [77.6432598292367, 13.0340643746736], [77.6432679344504, 13.0340671222799], [77.6432680185392, 13.0340750406196], [77.6432681086331, 13.0340835244259], [77.6432497885011, 13.0341539760404], [77.6432483137381, 13.0341596526991], [77.6432158108355, 13.0346844267724], [77.6431755504699, 13.0351205924362], [77.6431516103538, 13.0354025357134], [77.643204725006, 13.0357541204039], [77.6432358068156, 13.0359279892738], [77.6443774694911, 13.0358521828351], [77.6449699889635, 13.0358461299844], [77.6449572257489, 13.0359122834218], [77.6448993391516, 13.0359568901813], [77.6446762078183, 13.0360650958383], [77.644491479881, 13.0361716975926], [77.6444463857624, 13.0362130839779], [77.6444090761641, 13.0362729891043], [77.6443795152937, 13.0363476976636], [77.6443654754415, 13.036443822642], [77.6443582914326, 13.0364930056665], [77.6443472894221, 13.0365129078946], [77.6443210617838, 13.0365603530739], [77.6442989315621, 13.0366201058559], [77.6442691306994, 13.0366724938894], [77.6442581037241, 13.0367060900855], [77.6442068454683, 13.0368814700519], [77.6441777578954, 13.0370008179232], [77.6441785484297, 13.0370752164606], [77.6441790622897, 13.0371235764581], [77.6441794575459, 13.0371607743716], [77.6441799714191, 13.0372091352721], [77.6441805643081, 13.0372649321418], [77.6441813153431, 13.0373356117895], [77.6441500783367, 13.0375383129077], [77.6441480967485, 13.0375511803792], [77.6441422661574, 13.0375889947672], [77.6440705889447, 13.0379800809117], [77.6440561899981, 13.0380586357583], [77.6440195153305, 13.0381780611414], [77.6440010575416, 13.0382266122191], [77.64398949729, 13.0382468815106], [77.643899283942, 13.0384050666171], [77.6438650917591, 13.0385181898278], [77.6438576730027, 13.0386527283626], [77.6438635727806, 13.0387914689767], [77.6438823151154, 13.0390295696953], [77.6437966897039, 13.0390004966534], [77.6437524274789, 13.0389854699261], [77.6436240733913, 13.0389793802814], [77.6434097771908, 13.0389692167688], [77.6430911471138, 13.0389724706869], [77.643031076495, 13.0389730840969], [77.6429537368638, 13.0389818643947], [77.6426487699847, 13.039016491536], [77.6423347403798, 13.0390394494914], [77.6421660358882, 13.0390885757875], [77.642117808872, 13.0391160689014], [77.6420178524683, 13.0391730476227], [77.6418899924816, 13.0393402910346], [77.6418747910698, 13.0393601737421], [77.6418634504572, 13.0393682610983], [77.6416972652747, 13.0394867741696], [77.6416668492017, 13.0395084608635], [77.6415263475687, 13.0395572989669], [77.6414745186009, 13.0396091835154], [77.6414693972696, 13.0398857638594], [77.6414766544866, 13.0401898682305], [77.6414718558044, 13.0402526194995], [77.641441274736, 13.0406524232857], [77.641427224345, 13.0407778574467], [77.641403692017, 13.0409879430245], [77.6413934297988, 13.041079552262], [77.6414081151309, 13.0413243267934], [77.6414280636631, 13.0414460469617], [77.6414296174858, 13.0414555339674], [77.6414339683558, 13.0414820784294], [77.641495991907, 13.0416315606208], [77.6415804071083, 13.0417443385369], [77.6417246996198, 13.0420052418229], [77.6417790039387, 13.0421864036145], [77.6417146416255, 13.042231374242], [77.641666304118, 13.0422622291612], [77.6415960334526, 13.0423106595755], [77.6415258069598, 13.0423634258445], [77.6414820778698, 13.0424115862021], [77.6414429581162, 13.0424770483983], [77.6413818553957, 13.0425557466569], [77.6413119529983, 13.0426388710498], [77.6411929300362, 13.0426791245669], [77.641065244617, 13.0427368162512], [77.6408625866983, 13.0428169591708], [77.6407745764144, 13.0428612323339], [77.6406026982016, 13.0429237129585], [77.6403383428451, 13.0430261739732], [77.6399588318689, 13.0431167961656], [77.639786955924, 13.0431792744847], [77.639539969973, 13.0432511933683], [77.6393283262473, 13.0433184161223], [77.6390587622326, 13.0433471898763], [77.6388066144024, 13.0433497614532], [77.6384788991831, 13.0433184036835], [77.6381021556973, 13.0432528447704], [77.637831301627, 13.0431601797046], [77.6376222445719, 13.0430538745029], [77.6374393559658, 13.0429125981632], [77.6374014241828, 13.0428744411094], [77.6371440219491, 13.0436161004231], [77.6371101815374, 13.0441829926992], [77.6371153597393, 13.044671342941], [77.6372462978164, 13.0457444955187], [77.6374955377648, 13.0466992251601], [77.6377993739549, 13.0471649920256], [77.6380316041314, 13.0479941701463], [77.638097326575, 13.0488403442813], [77.6381331082751, 13.0492417663888], [77.6383082417808, 13.0497035804459], [77.6383278430418, 13.0497799013266], [77.6383937378504, 13.0500365016436], [77.6381105752366, 13.0500888405682], [77.6382820933325, 13.0508041253737], [77.6384419224546, 13.0516060704615], [77.6378191146382, 13.0517360501199], [77.6379840604444, 13.0530200880118], [77.6380680453044, 13.0538042610072], [77.6382490117297, 13.0547640059236], [77.638102845833, 13.0549396488324], [77.6381679103389, 13.0550924032634], [77.638258433131, 13.0552531910936], [77.6383032633543, 13.0574835268877], [77.6382150659344, 13.0583385984069], [77.6381754590836, 13.0593880557057], [77.6382933798967, 13.0609334792494], [77.6382763729265, 13.06211953931], [77.6383116575436, 13.0626540710394], [77.6383611726625, 13.0629355241282], [77.6383715242491, 13.0639098356657], [77.6384593667924, 13.0646138351831], [77.6385632453322, 13.0652347440114], [77.6386262884488, 13.0659929015337], [77.6387150953954, 13.0666615867728], [77.6387412253789, 13.0668583352396], [77.6390997408655, 13.0679576286227], [77.6392137562795, 13.0683379379119], [77.6393116454659, 13.0687930462558], [77.6394762840845, 13.069558457797], [77.6394297684917, 13.0703550515706], [77.6394492027923, 13.0709892591218], [77.6394595652349, 13.0719635673896], [77.6394524995505, 13.0744805354075], [77.6394582334658, 13.0750195154274], [77.6382498310946, 13.0752059413849], [77.6385011135177, 13.0755229132226], [77.6407204208789, 13.0776332802751], [77.641303453028, 13.0778568340386], [77.6417796648222, 13.0777234305197], [77.6420145574828, 13.0777944725902], [77.6422037978609, 13.0779761501742], [77.642307729084, 13.0782666017896], [77.6423114215861, 13.0782743693432], [77.6425146919484, 13.0787021772028], [77.642516110729, 13.0787051646662], [77.6426064894015, 13.0788953765083], [77.6426437535136, 13.0789738046315], [77.6427883295336, 13.0792327664471], [77.6437417148765, 13.0809404483759], [77.6441218400859, 13.0815799083033], [77.6446023990475, 13.0823883145938], [77.6452126897722, 13.0830900065328], [77.6456039584711, 13.0835210908093], [77.6462923268672, 13.0846939352708], [77.6464984641964, 13.0852283512092], [77.648866508835, 13.0825017070577], [77.6493150420691, 13.0816288505722], [77.6493395494271, 13.0816285989592], [77.6495614461259, 13.0812400860371], [77.6497722264937, 13.0813207646633], [77.6510300601226, 13.0814649527644], [77.6527126997853, 13.0816909232546], [77.6531218356934, 13.0817576674643], [77.653209497112, 13.0817364931675], [77.6534946800788, 13.0818146499483], [77.653702926858, 13.0818630774833], [77.6546850666568, 13.0820235839553], [77.6552753295056, 13.0796389566459], [77.6555977183122, 13.0774074141257], [77.656215885722, 13.0755355809315], [77.6563354765711, 13.0747364777724], [77.6563768492856, 13.0745966348619], [77.6565400439961, 13.0745619097473], [77.6578817884205, 13.0727692435108], [77.6588419216757, 13.0707738685268], [77.6591379453378, 13.0697741265129], [77.659383925847, 13.0690718475413], [77.6597109927777, 13.0680751645757], [77.6604654252759, 13.0677227748163], [77.6610992755662, 13.0676959752907], [77.662657460279, 13.0670920383115], [77.6635121419077, 13.0670899842262], [77.6652975304208, 13.0664634201535], [77.6668268106791, 13.0662662315728], [77.6671001446908, 13.064509347525], [77.6671222069538, 13.0643938636028], [77.6671680935706, 13.0643236858615], [77.6672054478445, 13.0642728752711], [77.6686048106447, 13.0650477343441], [77.6697970510316, 13.0658310755657], [77.6700001122786, 13.0659658091533], [77.6721374913912, 13.0657055209428], [77.6735303756472, 13.0654377149956], [77.6735238952582, 13.0653161531136], [77.6741800759658, 13.065284021911], [77.6751573642722, 13.0648279313239], [77.6761712894166, 13.0648934495097], [77.6763997573888, 13.0649873717849], [77.6766010177542, 13.0649548800043], [77.6767720817975, 13.0649987181769], [77.6770872716103, 13.0649050741012], [77.6769589204807, 13.0645077319088], [77.6767560442884, 13.0635908625779], [77.6769003367543, 13.0635488241804], [77.6768674514186, 13.0630558929911], [77.6776310587252, 13.0629195941225], [77.6777683830687, 13.0628708712044], [77.6786115331325, 13.0627685279061], [77.678682174038, 13.0627864141352], [77.6787345738071, 13.0628517539901], [77.6790983118721, 13.0620675318253], [77.6790411347482, 13.0610798930054], [77.6788731645258, 13.0608434443259], [77.6788253320421, 13.0607223116566], [77.6788430572391, 13.0604484642344], [77.678907822979, 13.0597433606092], [77.6789461124805, 13.0594591641782], [77.6790544148616, 13.0589563237828], [77.6791600083244, 13.0586815628745], [77.6792100561774, 13.0585290089328], [77.6791490476182, 13.0581444859355], [77.6790558995559, 13.0581353146595], [77.6790290727565, 13.0580443708834], [77.6789951100045, 13.0577710591981], [77.6791700360243, 13.056735402084], [77.6791065370883, 13.056599228802], [77.6788701199374, 13.0562469291729], [77.6788583618898, 13.0561152857178], [77.6789060468286, 13.0541718308136], [77.678691695084, 13.0538947562448], [77.6786644810629, 13.0530751704773], [77.6786185664793, 13.0527850882636], [77.6784758297989, 13.0525509188045], [77.6784172009742, 13.0523674002145], [77.6785340977204, 13.0523747605742], [77.6789856166843, 13.0524031836175], [77.6796525235162, 13.0524312221815], [77.6799176810397, 13.0524423681127], [77.6811441154254, 13.0517620010907], [77.6834863611006, 13.0491439662387], [77.6840517549724, 13.0479175416175], [77.6850328862942, 13.0457893028387], [77.6849087539808, 13.0447511353979], [77.684947683673, 13.0442894358009], [77.6850210304426, 13.0441103058317], [77.6850690217445, 13.0439068356818], [77.6850269364187, 13.0434951825538], [77.6849816001474, 13.0427821786341], [77.6848828299428, 13.0417683499389], [77.6847987621082, 13.0415354983179], [77.684789769473, 13.0412834155054], [77.6847879110004, 13.0411112178782], [77.6847307914854, 13.0410503035141], [77.684679749665, 13.040970876527], [77.6846790859556, 13.0409093764645], [77.6846685798756, 13.0408079998015], [77.6846842448883, 13.0407094258162], [77.6846578280634, 13.0405866886683], [77.6845431745536, 13.040038420328], [77.6845416703508, 13.0398990213041], [77.6845153422401, 13.0397844839942], [77.6844711756058, 13.0395268705086], [77.6843563039864, 13.0389099235017], [77.6843166274665, 13.038721203266], [77.6842827028602, 13.0386292973419], [77.6842632378546, 13.0385695297708], [77.6842637138617, 13.0384442063812], [77.6841661437101, 13.0379285644497], [77.6840886638467, 13.0377243458022], [77.6839852943489, 13.0374465882434], [77.6841037582978, 13.0367974939993], [77.683949592195, 13.03646285914], [77.6839519409134, 13.0359051759124], [77.6839411908277, 13.03568386451], [77.6839067630391, 13.0355940124828], [77.6838383552059, 13.0354553069231], [77.6837361369307, 13.0352841494624], [77.6837335726939, 13.0350463515193], [77.6836401619005, 13.0349161058479], [77.6836569908118, 13.0347802466716], [77.6836969979163, 13.0344572701997], [77.6836413052359, 13.033226571503], [77.6848471480428, 13.0333562192958], [77.6858408841833, 13.0334661935762], [77.6867783936206, 13.0335330079275], [77.6872015430517, 13.0334739438604], [77.6882471360697, 13.033222533023], [77.6889687613739, 13.0329198109419], [77.6902012144701, 13.0327379702863], [77.6905258407431, 13.0326900749658], [77.6923264921032, 13.0300939586306], [77.6941227199775, 13.0271534695242], [77.6943726539573, 13.0266950163257], [77.694393655872, 13.0267099292615], [77.6948835565673, 13.0267655160067], [77.6950670254166, 13.0267778579138], [77.6954530536996, 13.026811107134], [77.6956421691045, 13.0268288705821], [77.6959164711045, 13.0268676657017], [77.6960911243668, 13.0268921540014], [77.6963540730066, 13.0269146273675], [77.6965901451998, 13.0269329953032], [77.6969213580048, 13.0269624297289], [77.6971653473072, 13.0269894845535], [77.6975022688226, 13.0270298183756], [77.697848130897, 13.0270700595286], [77.6980877225909, 13.0271037357267], [77.6986329143243, 13.0271758777627], [77.6987761995575, 13.0271941162642], [77.6991780805514, 13.0272458272969], [77.699400859385, 13.0272752924786], [77.6995315917479, 13.0272920244579], [77.6998454027015, 13.0273335417359], [77.7000405639315, 13.0273623465542], [77.7004241951136, 13.027418964932], [77.7004921240252, 13.0274289896137], [77.7007865208003, 13.0274335546339], [77.7010906143545, 13.0274348745071], [77.7015690661422, 13.0274369529376], [77.7016984050874, 13.0274375136976], [77.7016845299899, 13.0274034734333], [77.7016882223254, 13.0273709988515], [77.7016489873843, 13.0271542618008], [77.701578879631, 13.0267669750894], [77.7015091706218, 13.0263770915053], [77.7014443517053, 13.0259919898419], [77.7012864251359, 13.0250640743825], [77.7012691930668, 13.0249657316739], [77.7016964832636, 13.025140971014], [77.7019947570754, 13.0252594545776], [77.7025087222367, 13.0254566569632], [77.7032431519197, 13.0257390220459], [77.7032751373924, 13.0257512323458], [77.7036365544907, 13.0258414563064], [77.7041549990911, 13.0259632057073], [77.7048655734283, 13.0260951424521], [77.7055736677953, 13.026220958358], [77.7059630866108, 13.0262872590012], [77.7065715396315, 13.0261642765742], [77.7076868291846, 13.0259265822464], [77.7078678112592, 13.0258971264705], [77.7080216135556, 13.0258720947722], [77.7082319553886, 13.0257843580519], [77.7087366785396, 13.0255276393327], [77.7092440484649, 13.0252695732386], [77.7100841173416, 13.0257687120109], [77.7107058626356, 13.0261450010865], [77.7115451483172, 13.0275476887345], [77.71203788572, 13.0285200114833], [77.7130717983588, 13.0302334181327], [77.7136098550504, 13.0319164657414], [77.7135262285738, 13.0320062193082], [77.7159056124843, 13.0318568465294], [77.7159386358268, 13.0315602408224], [77.7172014493472, 13.0315410683791], [77.717172077302, 13.0316184043316], [77.7171864982583, 13.0329395686788], [77.718718097656, 13.0331841992965], [77.7188694836044, 13.0332122368491], [77.7189965714931, 13.0332286766225], [77.7196395367853, 13.0334470827142], [77.7198884435598, 13.0335511192545], [77.7202158405244, 13.0336484085575], [77.7210248708659, 13.0335715621404], [77.7218542529046, 13.0342580649661], [77.7218235191461, 13.0336579713731], [77.7218631090825, 13.0335943525309], [77.7238795000646, 13.0332760870155], [77.7241047756849, 13.0333603740472], [77.7242263677871, 13.0332891026742], [77.7241839109578, 13.0328262777841], [77.7241375463864, 13.0323168316517], [77.724647596799, 13.0323314617612], [77.7246533722996, 13.0322380800327], [77.7247519755135, 13.0322403749368], [77.7247483278776, 13.0319071242047], [77.7246951267017, 13.0313944178226], [77.724689363971, 13.0308678797956], [77.7245159658822, 13.0301914589926], [77.7244784269259, 13.0295223115746], [77.725035777441, 13.0285447225644], [77.7252603385899, 13.027820886407], [77.7253667859465, 13.0267155593345], [77.7252895995082, 13.0257352232101], [77.7252648212471, 13.0256115675284], [77.7260625986064, 13.0258665143041], [77.7259097923656, 13.025646916631], [77.7272873546501, 13.0231997418141], [77.7289930368133, 13.0206055366044], [77.7295072698949, 13.0202465104826], [77.7301059250201, 13.0198493016582], [77.7299198269604, 13.0185388774712], [77.7297759198736, 13.0182882829134], [77.7296811355233, 13.0177196542093], [77.7294720341292, 13.0170187394527], [77.7292308830952, 13.0163339638681], [77.7290564287702, 13.0158538887038], [77.7288407471312, 13.015287343821], [77.7284591886059, 13.0142880351857], [77.7283236368996, 13.0136811474003], [77.7281300507503, 13.0129247658955], [77.7280256334357, 13.0121100050206], [77.7278856301096, 13.0108857196307], [77.7278517287529, 13.0105483430103], [77.7291177382165, 13.0106900320275], [77.7302303990446, 13.0107652215143], [77.7311250336301, 13.0107953029811], [77.7315438517169, 13.0107829923331], [77.7319222177113, 13.0107553049958], [77.7321078489773, 13.0107849510547], [77.7325668588968, 13.0107643156295], [77.7328555717514, 13.0106427713988], [77.7337888375034, 13.0097876168939], [77.7354526697412, 13.010899794783], [77.735987572911, 13.0107369595333], [77.7360709747669, 13.0107115684656], [77.7360926894515, 13.009777325413], [77.7360983421685, 13.0095341593435], [77.7360711410508, 13.0092579398136], [77.7360011476569, 13.0087530696546], [77.7359599116103, 13.0079318892707], [77.7359292470448, 13.0074545010337], [77.7362541900046, 13.0077443641337], [77.7365537466325, 13.0077856447008], [77.7369248788325, 13.0077417338015], [77.7373818610309, 13.0076746970484], [77.7377576221792, 13.0076396250031], [77.7378343605798, 13.0076121512654], [77.737870026231, 13.0075584499225], [77.737937508385, 13.0075132997926], [77.7379965616508, 13.0075260088407], [77.7390816942783, 13.0077926956068], [77.7402230122777, 13.0080334461705], [77.7405289927828, 13.008101890546], [77.740834836167, 13.0071177380685], [77.7425757878703, 13.0070569957728], [77.742863159594, 13.0070116145195], [77.7430358622755, 13.0070097883886], [77.7432448552315, 13.007035807554], [77.7438934196301, 13.0071136311488], [77.744441008334, 13.0071713517498], [77.744685669676, 13.0071687631854], [77.7450594714017, 13.0071295236802], [77.7454621299756, 13.007097033273], [77.7461660869, 13.0069766699692], [77.746503053253, 13.0068601915321], [77.7469689989359, 13.0066929482997], [77.7470278617349, 13.0068967433984], [77.7468178856017, 13.0070597309113], [77.7468969068575, 13.0076490747389], [77.7470398743689, 13.0083779562736], [77.7470288133884, 13.0088438326942], [77.7470328807623, 13.0089662027099], [77.7470458578269, 13.0093566538378], [77.7468374133754, 13.0095441066851], [77.7472568246507, 13.0103003123412], [77.7475132629139, 13.0102674633749], [77.7475816760547, 13.0109704583771], [77.7476534808163, 13.0115923389007], [77.7488512124229, 13.0115673449646], [77.7493691749026, 13.0113281410444], [77.7494430769575, 13.0112043502886], [77.7497818067248, 13.011206909591], [77.7499148682397, 13.0113285067548], [77.7505902275444, 13.0111429839683], [77.751127473988, 13.0109466250841], [77.7518663938774, 13.0108741015993], [77.7519675580905, 13.0108277442977], [77.7520512708397, 13.0107906099476], [77.7522398820844, 13.0106723736237], [77.7522601627429, 13.0106621621745], [77.7522995457192, 13.0106504959859], [77.7523531569857, 13.0106574264428], [77.7523841458826, 13.0106604687757], [77.7525352629402, 13.0106041025199], [77.7526217378639, 13.0105272898659], [77.7526856214381, 13.010451238199], [77.7526859893585, 13.0104414223556], [77.7526946639901, 13.0104188338261], [77.7527170932719, 13.0103723526426], [77.752789812594, 13.0102919859321], [77.7529080796145, 13.0102187282001], [77.7531176708399, 13.0100823701781], [77.7531456267237, 13.0100503458675], [77.753179568969, 13.0100074930617], [77.7532072197897, 13.0099722037498], [77.7532248016389, 13.0099482704535], [77.7532475343441, 13.0099292832926], [77.7532853948484, 13.0098951348923], [77.7533170210043, 13.0098735520033], [77.7533677236689, 13.0098480177862], [77.7534604258901, 13.0098170377613], [77.7535086055418, 13.0097940307149], [77.7535452067777, 13.0097611440535], [77.7536247107726, 13.0096890609274], [77.7536714646707, 13.0096523203674], [77.7537043104047, 13.0096257263894], [77.7538281426596, 13.0095281739149], [77.7538723477332, 13.0094914585856], [77.753907701672, 13.0094610873471], [77.7539556760254, 13.0094193338817], [77.7540185398382, 13.0093411790557], [77.7540547830688, 13.0092758035058], [77.7540774604146, 13.0092518151656], [77.7541084939104, 13.0091764978222], [77.7541207674327, 13.0091338723237], [77.7541243858342, 13.0091150871743], [77.7541868520365, 13.0090006896899], [77.7542219427157, 13.0089465736844], [77.7542507291703, 13.0088987738305], [77.7542646372771, 13.0088886290319], [77.7542824259701, 13.0088834402244], [77.7542977340353, 13.0088845287739], [77.7543130531031, 13.0088868637954], [77.7543372545976, 13.0088853583987], [77.7543575754728, 13.0088788943], [77.7543753365496, 13.0088712053736], [77.7543980966573, 13.0088547164541], [77.7544094136806, 13.0088408485558], [77.7544296388359, 13.0088256349506], [77.7544612086299, 13.0087990544609], [77.7544917557138, 13.0087949812574], [77.7545172991837, 13.0087997098993], [77.754544201194, 13.0088119208121], [77.7545592289198, 13.0088309162421], [77.7545796253208, 13.0088537272126], [77.7547171555664, 13.0090075546011], [77.7547559000966, 13.0090533861497], [77.7547999492108, 13.0091179116796], [77.7548724485398, 13.0092196248336], [77.7549022859236, 13.0092668029652], [77.7549050288412, 13.0092842703439], [77.7549063874271, 13.0092917553223], [77.7549078674933, 13.0093104872205], [77.7549068706022, 13.0093354937313], [77.7549045970595, 13.0093605156091], [77.7549028904324, 13.0094367726086], [77.7549021392695, 13.0094842729293], [77.754914563479, 13.0095703796454], [77.754916044473, 13.009589111533], [77.7549196906505, 13.0096038674692], [77.7549745869901, 13.0097941877466], [77.7550633597835, 13.010172448124], [77.7551216740888, 13.0102547810137], [77.7551884613075, 13.010283696962], [77.7552792205959, 13.010294584385], [77.7553577628931, 13.0102937499445], [77.7554630057218, 13.010248191814], [77.7556842558481, 13.0101653312787], [77.7559443192539, 13.0100594000443], [77.7561875081713, 13.0099205392626], [77.7564937404827, 13.0097454579353], [77.7566191102033, 13.009607849029], [77.756778008447, 13.0094965453274], [77.7568436466626, 13.0094217849913], [77.7569059397575, 13.009317432072], [77.756974341801, 13.0092189436308], [77.7570478656522, 13.0090374457729], [77.7570835595047, 13.0089867051295], [77.7571674551386, 13.0089235995788], [77.7572035119521, 13.008905442482], [77.7574109041523, 13.0088084339129], [77.7576123201254, 13.0087174181623], [77.7578925077368, 13.0086463014296], [77.7581152022013, 13.0085669061821], [77.7583006304547, 13.0083960679968], [77.7583362256652, 13.0083364404955], [77.7583443065986, 13.0082474801971], [77.7583470302085, 13.0082207860339], [77.7583708698496, 13.0081909089341], [77.758451744527, 13.0081278361049], [77.7585327201958, 13.0080736481738], [77.7585804985636, 13.0080227761778], [77.7585862443678, 13.0079960543927], [77.7586161236587, 13.007966110338], [77.7587122700683, 13.0079176859213], [77.7587873978906, 13.0078813375237], [77.7588503751711, 13.0078391925416], [77.7588986449367, 13.0078327542514], [77.7589895005558, 13.0078525245704], [77.7590592102596, 13.0078725215848], [77.7591558125464, 13.0078655691437], [77.7591859557583, 13.007859323613], [77.7593302350888, 13.0077926114113], [77.7593927889618, 13.0077119585676], [77.7594484163689, 13.0075513901881], [77.7594875292446, 13.0072636082362], [77.7594867427175, 13.0071925160858], [77.7594952165418, 13.0071391019095], [77.7594974812358, 13.0070709374887], [77.7594371376559, 13.0068049519966], [77.7594181291595, 13.0067251649782], [77.7593547290693, 13.0064562499465], [77.7593044607662, 13.0062819953015], [77.7592794090178, 13.006202272533], [77.7592696590839, 13.0061401625914], [77.7592602368529, 13.006107677246], [77.7592684467331, 13.0060305626898], [77.7592768204647, 13.0059682608843], [77.7593032878404, 13.0059028055413], [77.7593779908404, 13.005827946648], [77.7596565996409, 13.0056146417554], [77.7598662273262, 13.0054465103238], [77.7599528464007, 13.0053567127819], [77.7600309616953, 13.0053173686163], [77.7601808894304, 13.0052150477238], [77.7602167460562, 13.0051791187092], [77.760264734532, 13.0051438979973], [77.7603396175479, 13.0050889353841], [77.7604357597318, 13.0050405106369], [77.7604929576714, 13.0050221255796], [77.7605774766597, 13.0050153013899], [77.7606801847427, 13.0050142085159], [77.760800985427, 13.0050099610821], [77.7609069432623, 13.0050295719965], [77.7609250902858, 13.0050361619237], [77.7611081320065, 13.0051026315498], [77.7614797817096, 13.0051953015694], [77.7615824897881, 13.0051942083236], [77.7621072437407, 13.0048256379699], [77.7623365819435, 13.0045099382242], [77.7625377672307, 13.0039818079365], [77.7626523731978, 13.0037083648089], [77.7628383119397, 13.0035033709374], [77.7630005770699, 13.0032847884015], [77.7632320317402, 13.0029408921267], [77.7632873110993, 13.002834183202], [77.7632898373116, 13.002834625123], [77.763318298101, 13.0028023869599], [77.7633444333455, 13.0027960609088], [77.7633845619797, 13.0028001682276], [77.7634433693211, 13.0028207067389], [77.7635354588274, 13.002878192473], [77.7638104603566, 13.0034283969306], [77.7641165117746, 13.0039545994815], [77.7646259511303, 13.0036822129781], [77.7647553658814, 13.0036362416839], [77.7656624119738, 13.0034163602428], [77.7658112440916, 13.0033638113147], [77.7662263244763, 13.0033020547091], [77.7667385509863, 13.0032137808552], [77.7670823203589, 13.0031655228146], [77.7673160173082, 13.0031502892531], [77.7674391493402, 13.0031234970561], [77.7678473079962, 13.0030235888666], [77.7685834825598, 13.0026271536266], [77.7687943687455, 13.0031241700663], [77.7689036801318, 13.0033817919868], [77.7690561946011, 13.0042465105342], [77.7692497967742, 13.0047158378678], [77.7693940536078, 13.0054213902336], [77.7692910411983, 13.0055053022303], [77.7694184995934, 13.0064531007044], [77.7693621608837, 13.0066448085384], [77.7694608873749, 13.0070083526491], [77.7694456837771, 13.0085003543251], [77.7695096099441, 13.0087969492994], [77.7696565621151, 13.0087698985128], [77.7697106013027, 13.008956179481], [77.7696690902972, 13.0091180018686], [77.7695051928222, 13.0091792064373], [77.7697982636063, 13.0098300825667], [77.7701663766606, 13.0112902349229], [77.7703516532432, 13.0115940241557], [77.7703871051469, 13.0118611937089], [77.7704155660179, 13.0120838448932], [77.770568292416, 13.0123816131819], [77.7706646131277, 13.0128647172621], [77.7707207564755, 13.0132399585059], [77.7706941517909, 13.0135253071734], [77.7707495159522, 13.0139197575376], [77.7709972773577, 13.0151688503192], [77.7729107810567, 13.0146085170578], [77.7729609708137, 13.0145984945686], [77.7729537440107, 13.0142407569836], [77.772909220113, 13.0140539384633], [77.7729027767273, 13.0138367588051], [77.7729339889819, 13.0137455742994], [77.7730368679703, 13.0135785742821], [77.7732247726681, 13.0134501649191], [77.7733811987, 13.0133892408069], [77.7735783446098, 13.0133673810892], [77.7736427468257, 13.0133627428913], [77.7737315361691, 13.013377593819], [77.7738652026617, 13.0134433143097], [77.7739138020876, 13.0134664927799], [77.7740428234949, 13.01347696389], [77.7741110770463, 13.0134564845342], [77.7741711883784, 13.0134281892013], [77.774218863966, 13.0133684308635], [77.7742463122374, 13.0133009849635], [77.7742615875524, 13.013225772554], [77.7743012948801, 13.0131739989312], [77.7742730115441, 13.0131664020864], [77.7742604448417, 13.0131230854272], [77.7741902136925, 13.0129658367231], [77.7739041782394, 13.012601547748], [77.7738269002454, 13.0125352248958], [77.7737779055297, 13.0124764980302], [77.7737644171648, 13.0123502427107], [77.773775225196, 13.012235578049], [77.7738216712877, 13.0120652295798], [77.7737790210207, 13.0118523875381], [77.7737518650857, 13.0115840789511], [77.7736657863577, 13.0114506978586], [77.7736366263623, 13.011364108368], [77.7736271653674, 13.0112378117395], [77.7736974693627, 13.0110395604411], [77.7737569184662, 13.010952024118], [77.7738524906333, 13.0108522517624], [77.7739121172213, 13.0107805124573], [77.773934700821, 13.0106380714577], [77.7739136820569, 13.0105592979941], [77.7738688494642, 13.0105123762033], [77.7738198140752, 13.0104497004177], [77.7737345696698, 13.0103913638784], [77.7734356761644, 13.0103195087172], [77.7733588822828, 13.0102966297271], [77.773298028429, 13.0102577804118], [77.7732128280907, 13.0102033915736], [77.7731678639483, 13.01014462408], [77.7731429519986, 13.010077740883], [77.7731662387994, 13.0099984899361], [77.7732139150834, 13.0099387300367], [77.7732855809108, 13.0098629146672], [77.7733285684585, 13.0097439566026], [77.7733482225042, 13.0097002943782], [77.7733553140096, 13.0096133180431], [77.7733549186968, 13.0095777723926], [77.7732774680867, 13.0094956520605], [77.77315159557, 13.0094061472584], [77.7730984429213, 13.0093356139993], [77.7730571547332, 13.0092452074469], [77.7730615646515, 13.0089173100366], [77.7731218814554, 13.0085453637317], [77.7731291020945, 13.0084702374751], [77.7731401329633, 13.0083753195414], [77.7732108761995, 13.0082165628951], [77.773266211992, 13.0081211712715], [77.7732978630213, 13.0080694840385], [77.7733525811313, 13.0079187981934], [77.7733717968458, 13.0078356415123], [77.7733749922282, 13.0077605583015], [77.7733739382077, 13.0076657695869], [77.7733640825978, 13.0075039244966], [77.7733163797368, 13.0073750168605], [77.7733066922068, 13.0073188349993], [77.773281206997, 13.007200606347], [77.7732706302162, 13.007064444714], [77.7732863192811, 13.0068450519384], [77.7732766861481, 13.006522243988], [77.7732724793283, 13.0064156374952], [77.773289485805, 13.0063147308593], [77.773375440645, 13.0061656857755], [77.7734081760042, 13.0061208991336], [77.7734502383688, 13.0060997111919], [77.7735406305056, 13.0060780092539], [77.773631222959, 13.0060740760194], [77.7737189918808, 13.0060879510418], [77.7738283326771, 13.0061401054069], [77.7738830378811, 13.0061691455138], [77.7739166616284, 13.0062043385646], [77.7739412876676, 13.0062455490354], [77.7739811185051, 13.0062954873189], [77.7740148410728, 13.0063395633733], [77.7740512911133, 13.0063569471783], [77.7740875379888, 13.0063565595725], [77.774208502518, 13.0063671174612], [77.7742507936057, 13.0063666651951], [77.7743321258019, 13.006345057154], [77.7743831848357, 13.0063178480281], [77.7744881876684, 13.0062515501528], [77.7745541512247, 13.0062064080243], [77.7746182153208, 13.0061437989787], [77.7747236142495, 13.0060852968966], [77.7748184417752, 13.0060627675354], [77.7748986432604, 13.0060403945899], [77.77504478098, 13.0060280729484], [77.7751398876661, 13.0060306426249], [77.7752459246427, 13.0060295082853], [77.7754285053483, 13.006006039935], [77.7755197177154, 13.0059871333512], [77.7755814387057, 13.0059470290017], [77.7756475607583, 13.0059062253624], [77.7757262709734, 13.0058371904247], [77.7757746391549, 13.0057197699579], [77.7757733384519, 13.0056028791201], [77.7757223689744, 13.0054865215096], [77.775661250681, 13.0053507880314], [77.7755993719761, 13.0051468698652], [77.7755273426929, 13.0049235731126], [77.7755257170991, 13.0047774626868], [77.7755240915252, 13.0046313522591], [77.7755320774902, 13.0044559096508], [77.7755472835685, 13.004036843438], [77.7755052732669, 13.003832712615], [77.7754836716793, 13.0036770709314], [77.7753418912954, 13.0034350401876], [77.775240715272, 13.0032705091625], [77.77508025944, 13.0031358378268], [77.7749002656635, 13.0030306001575], [77.774790236798, 13.0029635839545], [77.7746302146623, 13.0028678747029], [77.7744711702434, 13.0028598330906], [77.774372267732, 13.0028998585732], [77.7741341856249, 13.0029316289187], [77.7740051593252, 13.0029427532616], [77.7737073665156, 13.0029654193406], [77.7734008325988, 13.0030953412672], [77.7732019432264, 13.0030779816334], [77.7729826466771, 13.0030121323637], [77.7727438081359, 13.002975717517], [77.7725442693468, 13.0028999117586], [77.7724136174418, 13.0027649217956], [77.7723422413828, 13.0026000717209], [77.7723592950956, 13.0023465957772], [77.7724573329718, 13.002228645974], [77.7725946712945, 13.0020713054822], [77.7727314682775, 13.0018652631551], [77.7729200963, 13.0018535071848], [77.7731188764153, 13.0018611234489], [77.7732976806219, 13.0018592126154], [77.7734662261876, 13.0018281864088], [77.7735547616267, 13.0017493041018], [77.7735734391896, 13.0016419417289], [77.7735719234152, 13.001505570292], [77.7736194252127, 13.0013102242791], [77.7736978082683, 13.0012119669124], [77.7738066450403, 13.0011718356086], [77.7740047748081, 13.0011210075762], [77.7741935102931, 13.0011189900677], [77.7743621652851, 13.0010977044491], [77.7745507942307, 13.0010859455975], [77.7746498024879, 13.0010556594724], [77.7747380150998, 13.0009475563703], [77.7747871414847, 13.0008983208949], [77.7747860583691, 13.0008009120467], [77.7746953547994, 13.0006849796599], [77.7746343452035, 13.0005589866321], [77.7746024871376, 13.0003742294713], [77.7745701968807, 13.0001505089171], [77.7745772048081, 12.9998874011329], [77.7746243817557, 12.999662831019], [77.7746526677212, 12.9995261410851], [77.774739577589, 12.9993011462094], [77.7748068365474, 12.9990958467678], [77.7748657298579, 12.9984910610412], [77.774887085484, 12.9982717415409], [77.7749417158857, 12.9977107280558], [77.7746980906703, 12.9976114097933], [77.7747510433326, 12.9971805047645], [77.7742878380952, 12.9961982899717], [77.7741845700887, 12.9960880565916], [77.7742752441419, 12.9950565330852], [77.7742316157211, 12.9910975845071], [77.7748924336173, 12.9913283441784], [77.775526237044, 12.9910431557839], [77.7756356559892, 12.9909716083933], [77.775600931689, 12.990523792984], [77.7754478748106, 12.9903075587779], [77.7754169594807, 12.9901916798122], [77.775434133859, 12.9898895026644], [77.7755985555446, 12.9893710012155], [77.7755527597436, 12.9891531952209], [77.7756026640912, 12.9887119258759], [77.7757060275931, 12.988477913071], [77.7757219002495, 12.9877481353449], [77.7753731839535, 12.9877899088967], [77.7755649699245, 12.9875909800525], [77.7756911901633, 12.9861923750212], [77.7758411306503, 12.985875450093], [77.7759593060638, 12.9856591936472], [77.7762754988444, 12.9854622333539], [77.7763899220158, 12.9854562835675], [77.7765170641894, 12.9852557183522], [77.7766388517123, 12.9850358415233], [77.7765362035799, 12.98495509574], [77.7763007457906, 12.9848602935544], [77.7763643174838, 12.9846625377367], [77.7762625219264, 12.984050894367], [77.7761953482793, 12.9837141039279], [77.7761573905361, 12.9835945983854], [77.7760362398038, 12.9830496750953], [77.775978493655, 12.9828467197028], [77.7759101110698, 12.9826116305468], [77.7758777429986, 12.9824441878143], [77.7758577288115, 12.9823599933719], [77.7752660597268, 12.9821306990963], [77.7751122310409, 12.9814395874303], [77.7748219678146, 12.9811846942189], [77.774500781293, 12.9807772466758], [77.774429510455, 12.9805009043181], [77.7744711759293, 12.9803045759681], [77.7747823464533, 12.9802487010278], [77.7748264519771, 12.9802721182639], [77.7749765570186, 12.9801892942128], [77.7756563447971, 12.9799861536564], [77.7762151907461, 12.9794212033872], [77.776326376896, 12.9793435720488], [77.7763832936419, 12.9792044140315], [77.7770266313591, 12.9783519004142], [77.7772791858728, 12.9782823164072], [77.7776280595419, 12.9785509127132], [77.7778238601898, 12.9786348164735], [77.7779797365598, 12.9786331506118], [77.7780815511142, 12.9785890639439], [77.7781965852526, 12.9785362779804], [77.7783279205021, 12.9780639113063], [77.7783438307517, 12.9779356246411], [77.7783627731277, 12.9777676267264], [77.7783900088506, 12.9776176813693], [77.7785050939672, 12.9773624908256], [77.7785388357032, 12.9772581681157], [77.7784630310539, 12.9769441482425], [77.7784299613229, 12.9768827477286], [77.778301011136, 12.9766405200226], [77.7782918089638, 12.9766232350462], [77.7782159426697, 12.9765234485631], [77.7779027972606, 12.9761652372077], [77.7773550341367, 12.9762537281631], [77.7770992663992, 12.9765907057651], [77.776839711767, 12.9765073989754], [77.7765752825027, 12.9761325050286], [77.7764349906547, 12.9759336061427], [77.7765068439159, 12.9757835519474], [77.776536302472, 12.9757220306972], [77.7761907550033, 12.9750728126615], [77.7759540082652, 12.9745844260426], [77.775972637516, 12.9745679431255], [77.7767040975351, 12.9739206994622], [77.7768920144078, 12.9738411252307], [77.7776542213878, 12.973518357006], [77.7780640612766, 12.9731629888679], [77.7785405383866, 12.972820840955], [77.7787664599744, 12.9726586112653], [77.7790030089247, 12.9724149220042], [77.7785021595821, 12.9713778463082], [77.778293936303, 12.9705646894991], [77.7785118784276, 12.9704567244181], [77.7788921739612, 12.9702683317177], [77.7802898374554, 12.9701441654935], [77.780787294869, 12.9704870822772], [77.7811380171206, 12.9708740360971], [77.7818410401346, 12.9710109058371], [77.7826639738672, 12.9710275826302], [77.7831570889594, 12.970979837908], [77.783335915251, 12.9707061323168], [77.7835110001505, 12.9701744422291], [77.7835745013071, 12.9699816055473], [77.7837919316567, 12.9693213262494], [77.7838333908509, 12.9692274217883], [77.7838509105842, 12.9691940061041], [77.783881664985, 12.9691353431399], [77.7844466325337, 12.9683728598842], [77.7842688184895, 12.9669860733288], [77.7840947152063, 12.9665165473246], [77.7818529672342, 12.9658525514263], [77.7816734699497, 12.9660291408702], [77.7815060197166, 12.966193879189], [77.7813394280644, 12.9663995047015], [77.7811718460004, 12.9665159605881], [77.7808282039583, 12.9665705942571], [77.7802563337933, 12.9665448565848], [77.7796984876618, 12.9663956803199], [77.7788361500777, 12.9661650797277], [77.7788326253872, 12.9664326637497], [77.7790197113283, 12.9672777445433], [77.7790759302704, 12.9674991227453], [77.777258490577, 12.9683426746857], [77.7770274265535, 12.9682627269666], [77.7769886655288, 12.9680624798213], [77.7763068288272, 12.9678583464658], [77.7758136446367, 12.9675339535039], [77.7744720481211, 12.9668101204713], [77.7738407129005, 12.9661760936398], [77.7736591955445, 12.9661576835326], [77.7735221763874, 12.9661018126829], [77.773448002216, 12.966002271302], [77.7731687181487, 12.9658571435222], [77.7719603691538, 12.9658365771125], [77.771878514734, 12.9659234458148], [77.7712014167859, 12.96504679236], [77.7710129904606, 12.964747807698], [77.7707124595772, 12.9642230780351], [77.7702614577614, 12.9633806433009], [77.7703650870587, 12.963354058365], [77.7702506621553, 12.9629921763483], [77.7698883818627, 12.9631234367343], [77.7698248537613, 12.9627621336359], [77.7703353849525, 12.9613075367196], [77.7702749539408, 12.9610538680859], [77.7690535049457, 12.9603231031476], [77.7673089537021, 12.960292073458], [77.7664834813, 12.960516482161], [77.7660710067946, 12.9577792529792], [77.7659617997096, 12.9577571799359], [77.7660321871573, 12.9576960297066], [77.7656997290228, 12.9576205737972], [77.764698353034, 12.9582784223627], [77.7643967803118, 12.9584661186281], [77.7643977238967, 12.9581222745338], [77.7642224042752, 12.9581194904797], [77.764221962594, 12.9576502085982], [77.7642275889072, 12.9573016689363], [77.764255037806, 12.9572130949246], [77.7642820097129, 12.9562231245086], [77.7643742353252, 12.9559944720348], [77.7644290359343, 12.9559122560726], [77.7644008095972, 12.9558269190517], [77.7643857775561, 12.9557527361668], [77.7644467760212, 12.9556399275454], [77.7644013427694, 12.9554459075678], [77.7644138593652, 12.955292444813], [77.7644597934744, 12.9551618570811], [77.764504339082, 12.955092139079], [77.7643824136992, 12.9550186403427], [77.764524952851, 12.954943647156], [77.7654106040438, 12.9485633448776], [77.7655692659834, 12.9465847991237], [77.7654768607629, 12.9452560281593], [77.7654284448938, 12.9447274547298], [77.7653092438879, 12.9421027376673], [77.7654939123496, 12.9370258482817], [77.7654997203779, 12.9366575293346], [77.76571843814, 12.9364681023506], [77.7658159850513, 12.9362257857483], [77.7660830388297, 12.9357676549973], [77.7663433923676, 12.9349514589104], [77.7659410004389, 12.9339230391483], [77.7656023437569, 12.9332185004504], [77.7656792452286, 12.932007962974], [77.7646813473714, 12.9288024493632], [77.763626710263, 12.9286365928138], [77.7628037710739, 12.9285416351543], [77.7624997557076, 12.9284643170047], [77.76211897176, 12.9282984950471], [77.7601869179586, 12.9276698230856], [77.7570760413542, 12.926522490131], [77.7546925338789, 12.9258690376699], [77.7525512628142, 12.9253605306625], [77.752065610278, 12.9252771665448], [77.7517554239465, 12.9238679144252], [77.7512979463176, 12.9213732544634], [77.746710595317, 12.9205609374411], [77.7459908248993, 12.9202331387373], [77.7456970035709, 12.9200600066258], [77.7454257529695, 12.9198976520074], [77.7452888653204, 12.919700841744], [77.7451954417808, 12.9193714079523], [77.7448544634594, 12.9179652164282], [77.7443367294933, 12.9162996651327], [77.7440711005606, 12.9145941363416], [77.7430551383564, 12.9146729582209], [77.7426392989833, 12.9147640610361], [77.742356613814, 12.9149033266154], [77.7420532913297, 12.9148879256944], [77.7410910909356, 12.9152635516367], [77.7402688623404, 12.9151544708389], [77.7387965279452, 12.9150831822442], [77.7380346990936, 12.9151853918803], [77.7379163954927, 12.9151959268188], [77.7378317997874, 12.9152572175874], [77.737729983689, 12.9154766717155], [77.7377115447115, 12.9155233311637], [77.7375268309379, 12.9155252677403], [77.7373777396188, 12.9149992786764], [77.7357036010903, 12.915148990425], [77.7342357377243, 12.9149082897287], [77.7341060482426, 12.9153722342706], [77.7340905588038, 12.9154963037468], [77.7331137453208, 12.9154982695986], [77.7324678405163, 12.9154617772192], [77.7320704767332, 12.9150584166435], [77.7315418634701, 12.9149758361422], [77.7297141868701, 12.9152042149687], [77.7286583972439, 12.9151711924695], [77.7281395098199, 12.9152815516267], [77.7277765660507, 12.9154223705103], [77.727543178594, 12.9154495900395], [77.7275498497548, 12.9130821055076], [77.7274360134094, 12.91088547835], [77.7272869515904, 12.9102359156389], [77.7270200213836, 12.9094346776055], [77.7265016190197, 12.9077439896609], [77.7255192689185, 12.9080151460894], [77.7242929285691, 12.9083005347462], [77.7239060615349, 12.9083458716432], [77.7230172263162, 12.9086938214158], [77.7216740700085, 12.9090795405562], [77.7212036295774, 12.9091835681103], [77.7208419328008, 12.9092203801621], [77.7202127647826, 12.9094417066254], [77.7203775695027, 12.9098860605928], [77.7197729414193, 12.9100410467952], [77.7196308952783, 12.9093651594211], [77.7181343845081, 12.909587249096], [77.7181301624791, 12.9099755400697], [77.7179706303634, 12.9100185032454], [77.7176899979303, 12.9099459719681], [77.7165197357698, 12.9092991823103], [77.7156569245133, 12.9098867128567], [77.7152836838391, 12.9099555793674], [77.7150391458691, 12.9099250789409], [77.7148114499814, 12.9098944023391], [77.7141763976714, 12.9098213793196], [77.7092301919273, 12.9087337666245], [77.7079679479144, 12.9087387456663], [77.7078004666713, 12.9077794948461], [77.7072336053547, 12.9051860183317], [77.7071969705965, 12.9050513341597], [77.7071130696411, 12.9038645293677], [77.7067114520882, 12.9019849140383], [77.7040844847766, 12.9032643105257], [77.7030549709605, 12.9038449493285], [77.7028785021062, 12.9040508648627], [77.7004508007308, 12.905394460254], [77.698617345865, 12.9063228129345], [77.6967254877686, 12.9068598387903]]]]}, "properties": {"id": "bbmp_c2__wards_c2.5", "tessellate": -1, "extrude": 0, "visibility": -1, "OBJECTID": 4, "NewCorp": "East", "name": "Bengaluru East City Corporation"}}