{"type": "Feature", "geometry": {"type": "MultiPolygon", "coordinates": [[[[77.59612389614459, 12.89250242504376], [77.59521321910519, 12.893735984613256], [77.59494598712196, 12.89411490369557], [77.59403464671095, 12.895348387707301], [77.59309964702659, 12.8965540203288], [77.59277570484439, 12.896951087961924], [77.59211666927669, 12.897801606082941], [77.59113284206887, 12.899004629637286], [77.58968029686446, 12.900682614535826], [77.58803951063334, 12.902464206101], [77.58698590673015, 12.903395419630034], [77.58676082199754, 12.903609527835146], [77.58622446975039, 12.904083001371667], [77.58531961535502, 12.90501488560701], [77.58517025835413, 12.905182082999524], [77.58418843034691, 12.906191825066115], [77.58318257564922, 12.907135089169214], [77.58283422333683, 12.907430251512775], [77.58219104716191, 12.908035193876707], [77.5818964475741, 12.908283113284288], [77.58087371075477, 12.909247942297224], [77.58059442704511, 12.90954686924048], [77.58055274974961, 12.909597753418913], [77.5802908816295, 12.90987804210075], [77.58009575161316, 12.91663896789777], [77.58055182528777, 12.917557291091105], [77.579435440581, 12.918307620287992], [77.581327866447, 12.91827792304922], [77.58156277826295, 12.918388141691462], [77.58226733104873, 12.919158657500066], [77.58247767351398, 12.919297614677488], [77.58330622091596, 12.920168239076345], [77.58350501841305, 12.920318407307159], [77.58434433471486, 12.92118489507084], [77.58452476023047, 12.921330630091504], [77.58537467594448, 12.922199984921555], [77.58555197581644, 12.92234912760373], [77.58629004479218, 12.923099639243793], [77.58638799461318, 12.923217216727434], [77.58712313867304, 12.923966589102292], [77.58736496544329, 12.924251800329566], [77.58832283630335, 12.925233153163115], [77.58862222586437, 12.925504237536227], [77.5893358712698, 12.9262323703339], [77.59052938393296, 12.927323561853637], [77.59054444558761, 12.92733873174876], [77.59093742866861, 12.927698015437452], [77.5916374357198, 12.928400576619158], [77.59169389632777, 12.928462428316838], [77.59265946955526, 12.929432058681883], [77.5926861648174, 12.9294611051183], [77.59356027678406, 12.930339125315502], [77.59368135968693, 12.930452003533976], [77.59463603761272, 12.93141040011009], [77.5947369274904, 12.931504927981642], [77.59565939927326, 12.932430626717895], [77.59580989206975, 12.932572225161042], [77.59658464612535, 12.933349268662086], [77.5966908210585, 12.933449480390012], [77.59751649841064, 12.93427733353996], [77.59763183993446, 12.934386518711339], [77.59852944415657, 12.935286208483898], [77.5988627693069, 12.93560264600407], [77.59957950742613, 12.93632040784076], [77.59986627004837, 12.936593199117945], [77.60061376824079, 12.937341255560844], [77.60089014782423, 12.93760467510594], [77.60163708742549, 12.938351732801133], [77.60189820076987, 12.9386010351439], [77.60268786005787, 12.93939042424877], [77.60275632088992, 12.93945589768767], [77.60373855090232, 12.940437708933107], [77.60377273547753, 12.940470463928625], [77.60447975431589, 12.941177172760469], [77.60497223818888, 12.941649662053313], [77.60558478711224, 12.942261478002855], [77.60632853173861, 12.942975751441523], [77.60680269386549, 12.943448842689964], [77.60732844724026, 12.943954130864734], [77.60765669834927, 12.944281417676633], [77.60804439017471, 12.944654197846068], [77.60867955648361, 12.945287207631587], [77.60876571588017, 12.945370122574364], [77.609034749467, 12.9453371913516], [77.6091166122895, 12.945325720360733], [77.61003371950308, 12.945213512628028], [77.61028524994742, 12.945178265188211], [77.61101354124189, 12.945089207588358], [77.61102261381177, 12.94508825980598], [77.61162427565941, 12.945014716294162], [77.61327569392034, 12.944842349301217], [77.61332667808601, 12.944836116351789], [77.61437560900578, 12.944726715802746], [77.61620237717968, 12.944568958855461], [77.62007351674241, 12.94478226460699], [77.62282873851812, 12.944884519891836], [77.62955395181666, 12.945013428690443], [77.63085725639479, 12.945015961575884], [77.63586206388115, 12.945109152076935], [77.64008484887567, 12.945120194662431], [77.64056318153852, 12.944996158387177], [77.65805943287054, 12.94017800114385], [77.66516595366951, 12.938310698457713], [77.66617697611625, 12.938056469634882], [77.6671274281266, 12.937848849542329], [77.6691324857155, 12.937390097772266], [77.6700819534119, 12.937182810559804], [77.67180142849682, 12.936842718297113], [77.67326848637644, 12.936567156297695], [77.6747534862901, 12.936302650634392], [77.67493404549607, 12.936272201947173], [77.67554798545808, 12.935572633559453], [77.67633074233322, 12.934697006843432], [77.67701918267242, 12.9339408827023], [77.67708811588055, 12.933866541199144], [77.67833190265125, 12.932549381214406], [77.6790536435704, 12.931798756962003], [77.67974552470595, 12.931092019492304], [77.68003434843517, 12.930802232825563], [77.68120034304053, 12.92965308965977], [77.68199651082502, 12.928882248737404], [77.68295686976793, 12.927968747559538], [77.68413924040179, 12.926863692007284], [77.68454803951555, 12.926488248028887], [77.68456184931335, 12.926476000738743], [77.68650645131264, 12.924781394702077], [77.68757601594805, 12.923865367815013], [77.6887047826349, 12.92291519350687], [77.68971056347054, 12.922082973201944], [77.69024102373749, 12.921651499770185], [77.69043920573706, 12.921493034255455], [77.69063416809448, 12.921339793803927], [77.69234951619114, 12.92001451641083], [77.69322229954477, 12.919351609545105], [77.69399225645402, 12.918776675526534], [77.69408702737515, 12.918704724316717], [77.69495277369988, 12.918058466251068], [77.69582653961739, 12.91741714645006], [77.69676985159563, 12.916736361475738], [77.69768049726005, 12.916090123714733], [77.69857888921867, 12.91546321101082], [77.69907504222242, 12.915122753430449], [77.70036279270484, 12.914379687974618], [77.70343430972788, 12.912638978165017], [77.70354013664604, 12.912577937895348], [77.70385311647564, 12.912403703530936], [77.7043606656991, 12.912116099510905], [77.70466595221684, 12.911946146457435], [77.70517792171496, 12.911656062151762], [77.70626465645834, 12.911018582808722], [77.70637250301645, 12.910956398491313], [77.7066612357022, 12.910792776234405], [77.70731047200199, 12.910418459097672], [77.70825314309079, 12.909884247354826], [77.7092025950996, 12.909355411271095], [77.71015882803029, 12.908831950845443], [77.7105186233555, 12.908638387194273], [77.71086314304938, 12.908459452054739], [77.71277269704241, 12.90745006505831], [77.71313430026203, 12.90726222592607], [77.71349801544378, 12.90706329603163], [77.71355338657673, 12.907032497520877], [77.71396843776986, 12.906793848491265], [77.71437731171544, 12.906562606951335], [77.71649313432398, 12.90538573249588], [77.71665960792492, 12.905294656995482], [77.71860702438829, 12.90421152547595], [77.71934902898238, 12.903805521096052], [77.7207159904113, 12.903045325065392], [77.72072336072878, 12.903041291835043], [77.72112306236305, 12.902839918460668], [77.72536349237048, 12.900739563773353], [77.72636955525438, 12.900249519416876], [77.72651975430573, 12.90017757833891], [77.72928898857717, 12.898829006583632], [77.73062000537664, 12.89821243195069], [77.73205693881816, 12.897557935735682], [77.73382404534827, 12.896766548730357], [77.73596178270641, 12.895918779676165], [77.74101711720492, 12.893950062698254], [77.74281074753426, 12.893263907829414], [77.7441238216667, 12.89277048032511], [77.74526358837959, 12.892349794298067], [77.74639731557667, 12.891938823408054], [77.75006065254072, 12.890634786946768], [77.76854291451602, 12.884172834394597], [77.77172079835809, 12.882575147659658], [77.77700442096985, 12.879950729145193], [77.80398195549961, 12.869661222391095], [77.82698905184118, 12.860782257149852], [77.8268488, 12.8607732], [77.8267587, 12.8604986], [77.8261706, 12.860292], [77.8256917, 12.8604032], [77.8251105, 12.8598903], [77.823928, 12.8580313], [77.8236876, 12.8575644], [77.822999, 12.8562118], [77.8229176, 12.8559935], [77.8221443, 12.8561086], [77.8212918, 12.8560928], [77.8212064, 12.856026], [77.8205339, 12.8560445], [77.8178588, 12.8560923], [77.8168803, 12.8561075], [77.8160438, 12.856187], [77.8158645, 12.8558049], [77.8153691, 12.85587], [77.8152377, 12.8559264], [77.8152357, 12.8559243], [77.814597, 12.8552749], [77.8142556, 12.8550322], [77.8136287, 12.8544749], [77.8130988, 12.8540951], [77.8130815, 12.8540823], [77.8129569, 12.8539895], [77.8127993, 12.8538914], [77.8124929, 12.8536195], [77.8119894, 12.8532708], [77.8111427, 12.85253], [77.8107332, 12.8520012], [77.8103301, 12.851326], [77.8099348, 12.8496751], [77.8095915, 12.8486884], [77.8093022, 12.8484703], [77.8089775, 12.8482298], [77.8085855, 12.8480367], [77.8078988, 12.84768], [77.8070114, 12.8482568], [77.8067078, 12.8484861], [77.8062621, 12.8487364], [77.8050502, 12.8494492], [77.8032449, 12.8504537], [77.8028915, 12.8506464], [77.8020683, 12.8509015], [77.8013508, 12.8512435], [77.8006671, 12.8514164], [77.7999429, 12.8517294], [77.7997723, 12.8516607], [77.7992434, 12.8518638], [77.7990037, 12.8519456], [77.7987005, 12.8511416], [77.7986952, 12.8511281], [77.7985389, 12.8507168], [77.7980893, 12.8494984], [77.7979165, 12.8489661], [77.7976176, 12.8479711], [77.7976831, 12.8477296], [77.7972768, 12.8466212], [77.7969934, 12.8457735], [77.7967972, 12.8449627], [77.7961684, 12.8450232], [77.7954519, 12.8452935], [77.7948313, 12.8454995], [77.7947533, 12.8454491], [77.7943057, 12.8450863], [77.7935741, 12.8443479], [77.7933735, 12.8440764], [77.7930795, 12.8436981], [77.7928881, 12.8435217], [77.7928036, 12.8435405], [77.7927508, 12.8434176], [77.7925886, 12.843407], [77.7925388, 12.8430021], [77.7925283, 12.8427913], [77.7927265, 12.8419599], [77.7930864, 12.8406137], [77.7933089, 12.8398295], [77.7940009, 12.8385194], [77.7940828, 12.8383241], [77.7946261, 12.8370516], [77.7947995, 12.8368617], [77.7948889, 12.8365934], [77.7950143, 12.8363178], [77.7956134, 12.834978], [77.7955892, 12.8348008], [77.7959951, 12.834596], [77.7965961, 12.8344115], [77.7974443, 12.8340807], [77.7976783, 12.8340556], [77.798224, 12.8338942], [77.7990414, 12.8337207], [77.8003182, 12.8335931], [77.8008351, 12.8334741], [77.8016977, 12.8333181], [77.8021591, 12.8332233], [77.8034262, 12.8331238], [77.8043277, 12.8330471], [77.8051085, 12.8328049], [77.8059543, 12.8325274], [77.8066342, 12.8322112], [77.8072149, 12.8320297], [77.8078118, 12.8317843], [77.8078672, 12.8317628], [77.809153, 12.8313665], [77.8100554, 12.8310227], [77.8100915, 12.8306924], [77.8099205, 12.8299802], [77.8100495, 12.8299218], [77.8098657, 12.8293718], [77.80957, 12.8279802], [77.8093818, 12.8275157], [77.8089329, 12.8265], [77.8083084, 12.8253104], [77.8081266, 12.8246193], [77.8079502, 12.8232562], [77.8080236, 12.8224861], [77.8082433, 12.8214322], [77.8083561, 12.8201875], [77.8087253, 12.8186778], [77.809283, 12.8167439], [77.8097787, 12.8158227], [77.806978, 12.8164458], [77.8059415, 12.8166698], [77.8050682, 12.8167104], [77.8047192, 12.81677], [77.8036052, 12.8168968], [77.8022409, 12.8171441], [77.8023711, 12.8167044], [77.802144, 12.8159321], [77.8021131, 12.8158433], [77.8020828, 12.8157487], [77.8018974, 12.8150984], [77.8018714, 12.8150241], [77.8018404, 12.8149416], [77.8014546, 12.8132809], [77.8013585, 12.8129244], [77.8014959, 12.8125945], [77.8014503, 12.8124235], [77.8010728, 12.8112824], [77.8009718, 12.8109839], [77.8009487, 12.8108819], [77.8005255, 12.8091825], [77.8003437, 12.8082167], [77.8002242, 12.8076368], [77.8002017, 12.807422], [77.8000151, 12.8063128], [77.7999782, 12.8054326], [77.8004319, 12.8053247], [77.8016171, 12.8051227], [77.8030023, 12.8049223], [77.8036704, 12.8048111], [77.8039643, 12.8047924], [77.8040555, 12.8045444], [77.8040771, 12.8038697], [77.8039857, 12.8030079], [77.8044844, 12.8030188], [77.8045452, 12.8026877], [77.8046563, 12.8024529], [77.8047769, 12.8021978], [77.8048425, 12.8018794], [77.8048591, 12.801598], [77.8049423, 12.8013128], [77.805337, 12.8003122], [77.8059276, 12.8000122], [77.80623, 12.7999275], [77.8064362, 12.8000089], [77.8067682, 12.7999362], [77.8072805, 12.7998754], [77.807492, 12.7996848], [77.8074644, 12.7996097], [77.8074578, 12.7995918], [77.8074337, 12.7994711], [77.8075574, 12.7994511], [77.8075475, 12.7993014], [77.8075974, 12.7990516], [77.8077808, 12.798465], [77.8078338, 12.7983944], [77.808031, 12.7981603], [77.808277, 12.7978696], [77.8084894, 12.7976077], [77.8085363, 12.7976428], [77.808831, 12.7972263], [77.8090532, 12.7970845], [77.8090366, 12.7968741], [77.8090335, 12.7968339], [77.8088623, 12.7965249], [77.8086508, 12.7961398], [77.8085462, 12.7957862], [77.8082797, 12.7952679], [77.8081668, 12.7950621], [77.8079359, 12.7949705], [77.8075815, 12.7947381], [77.807389, 12.7945447], [77.8070628, 12.794528], [77.806797, 12.7942816], [77.8066051, 12.7941297], [77.8063754, 12.7944454], [77.8061768, 12.7945121], [77.8059587, 12.79455], [77.8056104, 12.7944396], [77.8052223, 12.7943715], [77.8051017, 12.7942497], [77.804874, 12.7941348], [77.8046883, 12.7941179], [77.8045084, 12.7941369], [77.8042972, 12.7941919], [77.8041494, 12.7942434], [77.804032, 12.794337], [77.8038627, 12.7945314], [77.8036416, 12.7948435], [77.8033685, 12.79522], [77.8031171, 12.79561], [77.8029211, 12.7959648], [77.8028507, 12.7960353], [77.8027357, 12.796123], [77.8024919, 12.7962418], [77.8023207, 12.7962978], [77.8019717, 12.796365], [77.8018018, 12.796371], [77.8014976, 12.7963319], [77.8013574, 12.7962853], [77.801267, 12.7961264], [77.8011819, 12.795966], [77.8010335, 12.7955587], [77.8009129, 12.7952334], [77.8008321, 12.7949602], [77.8007027, 12.7947448], [77.8004664, 12.7944574], [77.8004174, 12.7944659], [77.8000364, 12.7946458], [77.7999816, 12.7947537], [77.7999246, 12.7949815], [77.7999537, 12.7952649], [77.7999462, 12.7953645], [77.7999098, 12.7955763], [77.799815, 12.7958604], [77.799769, 12.7958609], [77.7996691, 12.795838], [77.7994225, 12.7957674], [77.7991664, 12.7953249], [77.7990561, 12.7951385], [77.7987174, 12.7947354], [77.7984049, 12.7943656], [77.7982036, 12.7939083], [77.7978925, 12.7935241], [77.79782, 12.7935074], [77.7976401, 12.7934925], [77.7974585, 12.7935211], [77.7971484, 12.7936081], [77.7969488, 12.7936769], [77.7967981, 12.7936442], [77.7967098, 12.7936091], [77.7966402, 12.7935082], [77.7964287, 12.7930275], [77.7960496, 12.7921685], [77.7954954, 12.792031], [77.7949298, 12.7918533], [77.7949766, 12.7917697], [77.7947119, 12.7917035], [77.7946567, 12.7914404], [77.7946899, 12.7912544], [77.7945839, 12.7908885], [77.7945072, 12.790532], [77.7943269, 12.7903391], [77.7941153, 12.789817], [77.7937676, 12.7891402], [77.7934514, 12.7886247], [77.793124, 12.7880695], [77.79266, 12.7872293], [77.7925105, 12.7869947], [77.7923137, 12.7868193], [77.7921998, 12.7866587], [77.7921793, 12.786356], [77.7918127, 12.7857741], [77.7911554, 12.7840353], [77.7908193, 12.7834325], [77.7905504, 12.783311], [77.7901819, 12.7828476], [77.7891575, 12.7816654], [77.7893399, 12.7813952], [77.7891368, 12.7811522], [77.7890591, 12.7808923], [77.788756, 12.780469], [77.7882895, 12.7797076], [77.7881374, 12.7798229], [77.7880364, 12.7796199], [77.7880867, 12.7795413], [77.7880467, 12.7793917], [77.7874941, 12.7790043], [77.787281, 12.7788198], [77.787147, 12.7788342], [77.7869497, 12.7788435], [77.7866898, 12.7784754], [77.7864848, 12.778315], [77.7862834, 12.7780325], [77.7862421, 12.777912], [77.7860592, 12.7776629], [77.7859289, 12.7775568], [77.7854302, 12.7773782], [77.7851865, 12.7773947], [77.7851798, 12.7773841], [77.7851881, 12.777375], [77.7852901, 12.7772631], [77.7850346, 12.7771663], [77.784925, 12.7770663], [77.784663, 12.7765704], [77.7846102, 12.7763513], [77.7846049, 12.7761641], [77.7846133, 12.7759224], [77.7845008, 12.7756297], [77.7844101, 12.7754391], [77.7843676, 12.7753271], [77.7842475, 12.7750975], [77.7839645, 12.7744497], [77.7838584, 12.7743744], [77.7833286, 12.7738567], [77.7831999, 12.7737947], [77.7828327, 12.7736072], [77.7827129, 12.7735456], [77.7825276, 12.77345], [77.7823095, 12.7733376], [77.7821188, 12.7730382], [77.7819646, 12.7728259], [77.7789033, 12.7679585], [77.778891, 12.767907], [77.7788937, 12.7679071], [77.7792895, 12.7679245], [77.7795382, 12.7679354], [77.7798306, 12.7678069], [77.7800409, 12.7677025], [77.7806016, 12.7669096], [77.7810447, 12.7657679], [77.781538, 12.7655365], [77.7822531, 12.7652191], [77.7827066, 12.7649863], [77.7827656, 12.7645405], [77.7828079, 12.7643336], [77.7828519, 12.7640852], [77.7831262, 12.7639533], [77.7835689, 12.7636542], [77.7844337, 12.7628454], [77.7850668, 12.7623323], [77.7853205, 12.7621097], [77.7873957, 12.7612651], [77.7873976, 12.7612767], [77.7878646, 12.7610728], [77.78834, 12.7608701], [77.7892635, 12.7604445], [77.7893686, 12.7604631], [77.7899768, 12.7602153], [77.7910921, 12.7597958], [77.7924223, 12.7591519], [77.7927948, 12.7589653], [77.7931331, 12.7588105], [77.7940282, 12.758412], [77.7944134, 12.7583237], [77.7950083, 12.7582308], [77.7947763, 12.7578837], [77.7944757, 12.757142], [77.7943705, 12.7565189], [77.7942423, 12.7560521], [77.7939917, 12.7551385], [77.793899, 12.7544561], [77.7940647, 12.7544276], [77.7939922, 12.7540746], [77.7937862, 12.7530158], [77.7937763, 12.7529649], [77.793771, 12.7529001], [77.7937512, 12.7526585], [77.7937184, 12.7525453], [77.7935218, 12.7518676], [77.7934256, 12.7514167], [77.7932968, 12.7506606], [77.7931368, 12.7501574], [77.7929462, 12.7494478], [77.7926465, 12.7485194], [77.7924786, 12.7481275], [77.7922764, 12.747822], [77.7922464, 12.7477158], [77.7920638, 12.747062], [77.7920018, 12.7467495], [77.7914947, 12.7467638], [77.7912902, 12.7467373], [77.7901398, 12.7462432], [77.789208, 12.7455901], [77.787971, 12.7447985], [77.785143, 12.7421842], [77.7840125, 12.7411344], [77.7837796, 12.7411521], [77.7834007, 12.7411348], [77.7808861, 12.7414098], [77.7803744, 12.7414762], [77.7798057, 12.7414969], [77.7792598, 12.7413503], [77.7791055, 12.741303], [77.7788682, 12.7412303], [77.7785266, 12.7410762], [77.7784421, 12.741038], [77.7780273, 12.7408507], [77.7779922, 12.7408373], [77.7776482, 12.7406838], [77.7773424, 12.7405473], [77.7771816, 12.7404756], [77.7768363, 12.740288], [77.7751116, 12.7403551], [77.7743398, 12.7404789], [77.773335, 12.7405921], [77.7724583, 12.7405443], [77.7708255, 12.7403877], [77.7699583, 12.7402952], [77.7698593, 12.7402847], [77.7695915, 12.740256], [77.7694019, 12.7401222], [77.7679805, 12.7394405], [77.7673548, 12.7391326], [77.7667875, 12.7388496], [77.7661428, 12.7385281], [77.7648362, 12.7378441], [77.7639665, 12.73721], [77.7629969, 12.7364006], [77.7630568, 12.7363568], [77.7630213, 12.7362494], [77.7627099, 12.735144], [77.7626489, 12.7348546], [77.7625793, 12.7347772], [77.7625166, 12.7346498], [77.7624442, 12.7344653], [77.7623509, 12.7340801], [77.7622832, 12.7338229], [77.7622755, 12.7337919], [77.7622571, 12.7337174], [77.7620331, 12.7328132], [77.7618582, 12.7323902], [77.7614889, 12.7313906], [77.7612205, 12.7304174], [77.7610553, 12.7298528], [77.7609695, 12.7296432], [77.7609693, 12.7285665], [77.7610595, 12.7272585], [77.7621485, 12.7266935], [77.7621895, 12.7266206], [77.7633902, 12.7264091], [77.7644778, 12.7261263], [77.7651799, 12.7258742], [77.7662438, 12.7257074], [77.7666551, 12.7258066], [77.7667292, 12.7258063], [77.7672036, 12.7257487], [77.7672882, 12.7257414], [77.7674311, 12.7257054], [77.7677492, 12.7256254], [77.7683697, 12.7254692], [77.7689598, 12.7253198], [77.7696465, 12.7251271], [77.7699576, 12.7250398], [77.7700212, 12.725022], [77.7720924, 12.7245805], [77.7722151, 12.7245578], [77.7732415, 12.7243742], [77.7733758, 12.7243636], [77.7735522, 12.7244009], [77.7735956, 12.7248093], [77.7742487, 12.7245712], [77.774408, 12.7245132], [77.7743417, 12.7241323], [77.7740936, 12.7238936], [77.7739559, 12.7236899], [77.7735063, 12.7230602], [77.7733983, 12.722915], [77.7732036, 12.7225638], [77.7729909, 12.722079], [77.77296, 12.7220085], [77.7728118, 12.7216998], [77.7724442, 12.721105], [77.7723776, 12.7209955], [77.7718951, 12.7202904], [77.7718313, 12.7201907], [77.7714841, 12.7195773], [77.771407, 12.7194555], [77.77135, 12.7193802], [77.7711949, 12.7192312], [77.7711186, 12.7191679], [77.7706956, 12.7182585], [77.770657, 12.7181639], [77.770543, 12.7176248], [77.7705166, 12.7175173], [77.7703846, 12.7169895], [77.7702375, 12.7164129], [77.7702219, 12.7163162], [77.7700864, 12.7154866], [77.7699622, 12.714714], [77.7699457, 12.714613], [77.7698737, 12.7141721], [77.7697859, 12.7136457], [77.7697045, 12.7132055], [77.7688387, 12.7132487], [77.7688554, 12.7135487], [77.7685283, 12.7134805], [77.7683941, 12.7134499], [77.7673255, 12.7132176], [77.7672295, 12.7131967], [77.7662228, 12.7129683], [77.7661273, 12.7129722], [77.7660592, 12.7125998], [77.765958, 12.7119128], [77.7658771, 12.7108627], [77.7660223, 12.7100083], [77.766028, 12.7098892], [77.7660451, 12.7096867], [77.7661014, 12.7090079], [77.7658198, 12.7079398], [77.765716, 12.7073991], [77.7655906, 12.7069191], [77.7652697, 12.7058963], [77.7650231, 12.7044384], [77.7648697, 12.703707], [77.764756, 12.703047], [77.7647018, 12.7028665], [77.764545, 12.7024345], [77.7650689, 12.7026427], [77.7649425, 12.7022619], [77.7647471, 12.7021393], [77.7642537, 12.700678], [77.7630738, 12.6978537], [77.7626716, 12.6972048], [77.7625707, 12.6969587], [77.7621445, 12.6969367], [77.7609064, 12.6970922], [77.7609254, 12.6968531], [77.7606943, 12.6968521], [77.760677, 12.6970482], [77.760128, 12.69725], [77.7576065, 12.6976047], [77.7566845, 12.697554], [77.7556636, 12.6973638], [77.7541616, 12.6972945], [77.7514768, 12.6979519], [77.7489878, 12.6990078], [77.7489277, 12.6990273], [77.7487753, 12.699011], [77.7475431, 12.6994172], [77.7472678, 12.6995659], [77.7449618, 12.7001496], [77.7441081, 12.7001341], [77.7411032, 12.7007902], [77.7410414, 12.7008037], [77.7408018, 12.7006713], [77.7375615, 12.6983929], [77.7369273, 12.6970987], [77.73677, 12.6964563], [77.7363038, 12.6958555], [77.7358239, 12.6942569], [77.7357333, 12.6942375], [77.7356972, 12.6937659], [77.7356782, 12.693206], [77.7359598, 12.6917702], [77.7369783, 12.690173], [77.7373573, 12.6894202], [77.7374696, 12.6891508], [77.738253, 12.6885272], [77.7385165, 12.6883187], [77.7395473, 12.687317], [77.7397399, 12.6870836], [77.7400878, 12.6867779], [77.7406472, 12.6858862], [77.7406658, 12.6858601], [77.7409913, 12.6854351], [77.7410962, 12.6847118], [77.7411134, 12.6845927], [77.7412964, 12.6835901], [77.7415143, 12.6827389], [77.7416837, 12.6821132], [77.7415007, 12.6810237], [77.7412448, 12.6798841], [77.7410919, 12.6790717], [77.7409391, 12.6785043], [77.7408064, 12.6775545], [77.7408911, 12.6765722], [77.7409259, 12.675713], [77.7409539, 12.6745614], [77.7410016, 12.6737335], [77.7403011, 12.6732291], [77.7402879, 12.6732191], [77.7387223, 12.6720546], [77.7380214, 12.6720458], [77.7371534, 12.6722103], [77.737018, 12.6722351], [77.7364545, 12.6723556], [77.7364393, 12.6723553], [77.7361463, 12.6723523], [77.7353747, 12.6722218], [77.7351546, 12.6722937], [77.7347523, 12.6724356], [77.7337865, 12.6724243], [77.7330912, 12.6724854], [77.7330591, 12.6724871], [77.732329, 12.6725254], [77.7322734, 12.6723903], [77.7317864, 12.6724709], [77.7315758, 12.6724975], [77.731241, 12.6726499], [77.7310712, 12.672698], [77.7308697, 12.6726808], [77.7307752, 12.6727681], [77.7303836, 12.6728262], [77.7300733, 12.6728876], [77.7298564, 12.6728139], [77.7293581, 12.6726375], [77.7260896, 12.6709798], [77.7256885, 12.6708015], [77.7256913, 12.6708245], [77.7255844, 12.6708553], [77.725385, 12.6709129], [77.7252122, 12.6709504], [77.7247812, 12.6708043], [77.7248, 12.6711508], [77.7247686, 12.6714063], [77.724369, 12.6715654], [77.7242637, 12.6722431], [77.7240646, 12.6730581], [77.7235872, 12.6737576], [77.7234278, 12.6739808], [77.723426, 12.6743834], [77.7233907, 12.6744875], [77.7233695, 12.6748979], [77.7233485, 12.6753985], [77.7233314, 12.6757989], [77.7233089, 12.676639], [77.7232995, 12.6768521], [77.7231892, 12.6779179], [77.7231904, 12.6789332], [77.7231836, 12.6789395], [77.7231393, 12.6789806], [77.7228069, 12.6790572], [77.7228227, 12.6791968], [77.7228518, 12.6794537], [77.7231795, 12.6793688], [77.7232058, 12.6793621], [77.7232111, 12.6793849], [77.7219503, 12.679817], [77.7216818, 12.6798624], [77.7208869, 12.6800037], [77.7202908, 12.6802248], [77.7198992, 12.6803809], [77.7194664, 12.6806956], [77.7184912, 12.6812477], [77.7178097, 12.6816037], [77.7154401, 12.6822468], [77.7145717, 12.6825481], [77.7138199, 12.6826802], [77.7131483, 12.6829508], [77.7124252, 12.6832339], [77.7119605, 12.6833941], [77.7118016, 12.6828074], [77.7117052, 12.6819453], [77.7116678, 12.6813484], [77.7118302, 12.6805729], [77.7119068, 12.6799276], [77.7118647, 12.6794663], [77.711873, 12.6793274], [77.7118878, 12.6784753], [77.7119077, 12.6773067], [77.7118965, 12.6767661], [77.7120305, 12.6756041], [77.7120569, 12.6752519], [77.7122365, 12.6750987], [77.7122852, 12.6747058], [77.7122242, 12.6740548], [77.7122145, 12.67345], [77.7120522, 12.6725816], [77.7119018, 12.6718118], [77.7118001, 12.6712832], [77.7117785, 12.6710605], [77.711719, 12.6707121], [77.7116347, 12.6704562], [77.7115267, 12.670166], [77.7114035, 12.6698268], [77.7113417, 12.6695894], [77.7112852, 12.6693513], [77.7111498, 12.6680677], [77.7110648, 12.6671379], [77.7109707, 12.6667596], [77.710863, 12.6663936], [77.7105813, 12.6663477], [77.7101998, 12.6662152], [77.7096295, 12.6660437], [77.7093363, 12.6659488], [77.7089997, 12.6659098], [77.7087219, 12.6657953], [77.7084094, 12.6656961], [77.7082252, 12.6657084], [77.7081804, 12.6654895], [77.7077052, 12.6652419], [77.7075698, 12.6650669], [77.7071188, 12.6643985], [77.7069463, 12.6641386], [77.7068732, 12.6640395], [77.7066184, 12.6634377], [77.7063888, 12.6633936], [77.7060734, 12.6629614], [77.7059303, 12.6627818], [77.7058788, 12.6627105], [77.7056427, 12.6624254], [77.7055352, 12.6623016], [77.7049976, 12.6617146], [77.704861, 12.6616769], [77.7047038, 12.6616894], [77.704574, 12.66164], [77.7044446, 12.6616474], [77.7042904, 12.661527], [77.7041748, 12.661471], [77.7038111, 12.6612783], [77.7036998, 12.6612455], [77.7032181, 12.6611411], [77.7030655, 12.6609766], [77.7029061, 12.6608813], [77.7027009, 12.6608015], [77.7024057, 12.6607279], [77.7018801, 12.6606592], [77.7010785, 12.6605787], [77.7009911, 12.66058], [77.7006687, 12.6605825], [77.7004069, 12.6605872], [77.6995368, 12.660691], [77.6990161, 12.6607195], [77.6987401, 12.6607317], [77.6981074, 12.6606982], [77.6979951, 12.6606883], [77.697443, 12.660637], [77.6971129, 12.6606519], [77.6967179, 12.6606601], [77.6966095, 12.6607428], [77.6962939, 12.6606566], [77.695978, 12.6606872], [77.6956426, 12.660633], [77.6953866, 12.6606026], [77.695108, 12.6605969], [77.694982, 12.6605335], [77.6943851, 12.6605568], [77.693939, 12.6605472], [77.6928382, 12.6604881], [77.691956, 12.6604667], [77.6918922, 12.660536], [77.6904969, 12.659243], [77.6896487, 12.6584938], [77.6873838, 12.6591304], [77.686061, 12.6596252], [77.6846297, 12.6600235], [77.6836313, 12.6600302], [77.6835141, 12.6600388], [77.6831447, 12.6600659], [77.6822192, 12.6599847], [77.6809252, 12.6601249], [77.6797058, 12.6600618], [77.6786997, 12.6602404], [77.6782672, 12.6606151], [77.6788697, 12.6619278], [77.6787346, 12.6620772], [77.6780656, 12.6623338], [77.6771566, 12.6629132], [77.6761467, 12.663449], [77.6766182, 12.6653343], [77.6768539, 12.6658938], [77.6769221, 12.6664753], [77.6771336, 12.6675805], [77.6771417, 12.668246], [77.676997, 12.6690206], [77.6769776, 12.6691243], [77.6769961, 12.6693289], [77.6770284, 12.669686], [77.677283, 12.6716055], [77.6773084, 12.6717975], [77.6773309, 12.6719734], [77.6773442, 12.6721565], [77.6773112, 12.6721595], [77.6767869, 12.6725299], [77.6766187, 12.6727541], [77.6761332, 12.6731087], [77.6754971, 12.6735714], [77.6756686, 12.674039], [77.675881, 12.6745634], [77.6762606, 12.6756204], [77.676375, 12.6760315], [77.6763997, 12.6765836], [77.6766297, 12.6773119], [77.6770165, 12.6790837], [77.6770658, 12.6793271], [77.6770464, 12.6793316], [77.6760353, 12.679383], [77.6749751, 12.6797376], [77.6741145, 12.680023], [77.672237, 12.6807988], [77.6714406, 12.6809576], [77.6700764, 12.6813059], [77.6698681, 12.6814013], [77.6681471, 12.6820407], [77.6678028, 12.6820335], [77.6669018, 12.6823795], [77.6654136, 12.6827641], [77.6652371, 12.6828097], [77.6650586, 12.6828558], [77.6643408, 12.6830017], [77.6638376, 12.6831084], [77.6635058, 12.6831968], [77.6632533, 12.6832724], [77.6577166, 12.6822845], [77.6572993, 12.6822093], [77.6556176, 12.6819057], [77.6527067, 12.6806624], [77.6473196, 12.6789819], [77.6462893, 12.6786605], [77.6459977, 12.6785485], [77.6363577, 12.6766982], [77.6187144, 12.6735653], [77.6036254, 12.6696151], [77.5979317, 12.6680917], [77.5976169, 12.6674096], [77.5967224, 12.6655262], [77.5964455, 12.6649433], [77.5963674, 12.6644093], [77.5963313, 12.6641628], [77.5946501, 12.666779], [77.5946385, 12.666797], [77.5948187, 12.6671451], [77.5952581, 12.6679989], [77.5966402, 12.670684], [77.5967726, 12.6709413], [77.5980405, 12.6734044], [77.5981832, 12.6736803], [77.5995934, 12.6766705], [77.5999005, 12.677336], [77.5999852, 12.6775194], [77.600472, 12.6793625], [77.6005785, 12.6797658], [77.6006423, 12.6800074], [77.6005618, 12.6800276], [77.6006215, 12.6802565], [77.6006925, 12.6805284], [77.6016684, 12.6842756], [77.6024611, 12.6873358], [77.6025296, 12.6876014], [77.6026989, 12.6883029], [77.6027908, 12.6886836], [77.6035068, 12.691649], [77.6035788, 12.6919474], [77.6036262, 12.6921449], [77.6037013, 12.6924574], [77.6037984, 12.6925728], [77.6051339, 12.6941596], [77.6088696, 12.6985981], [77.6097906, 12.6996923], [77.6118031, 12.7020832], [77.6119802, 12.7022936], [77.6120918, 12.7024262], [77.6128479, 12.7033245], [77.6132883, 12.7060018], [77.613326, 12.7062309], [77.6135847, 12.7078039], [77.6136454, 12.7081721], [77.6137078, 12.7085505], [77.6139024, 12.7097313], [77.613943, 12.7099775], [77.6139525, 12.710035], [77.6140336, 12.7105271], [77.6141569, 12.7112755], [77.6141595, 12.7112916], [77.6141782, 12.7114071], [77.6142441, 12.7119539], [77.6108401, 12.7132985], [77.6084957, 12.7142246], [77.6036948, 12.7161208], [77.6035565, 12.7161754], [77.6030957, 12.7163575], [77.5975562, 12.7193685], [77.597489, 12.7194002], [77.5970736, 12.7195929], [77.5967622, 12.7197305], [77.5966738, 12.7197684], [77.5964727, 12.7198525], [77.5959262, 12.7201594], [77.5959129, 12.7201669], [77.5958212, 12.7202184], [77.5956723, 12.720302], [77.5948506, 12.7207635], [77.5948181, 12.7207985], [77.5946923, 12.7209209], [77.594648, 12.7208833], [77.5941974, 12.7205008], [77.5939482, 12.7202996], [77.5932275, 12.7197179], [77.5930948, 12.7196107], [77.5928962, 12.7194504], [77.592186, 12.7188771], [77.5908992, 12.7178383], [77.5898434, 12.716986], [77.5897773, 12.7169344], [77.589743, 12.7169076], [77.5896451, 12.7168312], [77.5895197, 12.7167333], [77.5894324, 12.7166652], [77.5892917, 12.7165553], [77.589338, 12.716512], [77.5881958, 12.7156608], [77.5875993, 12.7152039], [77.5871582, 12.714866], [77.5861448, 12.7140897], [77.5852642, 12.7133749], [77.5848813, 12.7130867], [77.5840949, 12.7124929], [77.5837505, 12.7122321], [77.5835642, 12.7120808], [77.583504, 12.7120318], [77.5825457, 12.7112954], [77.5823832, 12.7111702], [77.5823831, 12.7111702], [77.582036, 12.7109026], [77.5820359, 12.7109025], [77.5814126, 12.7104504], [77.5814125, 12.7104504], [77.5806824, 12.7098535], [77.5805475, 12.7097432], [77.579914, 12.7092215], [77.5797852, 12.7091154], [77.5796616, 12.709007], [77.5791064, 12.7085967], [77.5786811, 12.7082348], [77.5784834, 12.7079035], [77.5784833, 12.7079035], [77.5783902, 12.7077515], [77.5782628, 12.7075635], [77.5781177, 12.7073494], [77.5780572, 12.7072663], [77.5779259, 12.7070836], [77.5769016, 12.7056258], [77.5769016, 12.7056257], [77.5765581, 12.7051138], [77.5760256, 12.7043202], [77.5757441, 12.7039008], [77.5757138, 12.7038556], [77.5756398, 12.70383], [77.5755667412666, 12.703804780634039], [77.57960329168272, 12.720497585973357], [77.58035380189156, 12.723648322084193], [77.58069964646364, 12.725195404496501], [77.58108159432909, 12.726932611553766], [77.58458538370769, 12.743142780548503], [77.58636005655427, 12.751511572170196], [77.5872446, 12.751333], [77.5880402, 12.7510259], [77.5882208, 12.7509562], [77.5888453, 12.7507151], [77.5907212, 12.7501574], [77.5922041, 12.7503059], [77.5928157, 12.7503611], [77.593647, 12.7504458], [77.5941263, 12.7504947], [77.5944905, 12.7508091], [77.5951765, 12.7514014], [77.5953259, 12.7515304], [77.5955126, 12.7522929], [77.5956363, 12.7528268], [77.595848, 12.7537402], [77.5959913, 12.75435], [77.5960742, 12.7547027], [77.5963423, 12.7551704], [77.5965498, 12.7555322], [77.5966727, 12.7557467], [77.5972329, 12.7567238], [77.5972746, 12.7567607], [77.5977022, 12.7573066], [77.5978702, 12.757521], [77.5980328, 12.7577287], [77.5981522, 12.7578811], [77.5984309, 12.7582369], [77.5984309, 12.7582391], [77.5981874, 12.7581087], [77.5980066, 12.7580119], [77.5979498, 12.7579815], [77.5979257, 12.7580801], [77.5973822, 12.7602969], [77.5971906, 12.7611249], [77.59696, 12.7621211], [77.5965485, 12.7636213], [77.5964604, 12.7639425], [77.5964431, 12.7640057], [77.5963893, 12.7640747], [77.5955323, 12.7651746], [77.5951714, 12.7656374], [77.5954813, 12.7656584], [77.5956694, 12.7656712], [77.5955918, 12.7662306], [77.5955779, 12.7663307], [77.5954944, 12.7670071], [77.5951881, 12.7694649], [77.5949029, 12.7699981], [77.5948062, 12.7701788], [77.5945815, 12.7705988], [77.593747, 12.7721004], [77.5933291, 12.772852], [77.5927444, 12.7739052], [77.5925837, 12.7744035], [77.5920379, 12.7760498], [77.5920132, 12.7769717], [77.5919929, 12.7776805], [77.5921687, 12.7778242], [77.5921602, 12.778266], [77.5921531, 12.7786346], [77.59214809951791, 12.778893304595204], [77.59218229703954, 12.779058470406902], [77.59334025749209, 12.784793215589671], [77.59440830965737, 12.790225384733034], [77.59477336437938, 12.794498377568198], [77.59487892143636, 12.79581845369616], [77.5949168236553, 12.796625197007273], [77.59493818058684, 12.798160455316465], [77.59498814642856, 12.804154573242917], [77.59499892152728, 12.808436426298798], [77.59504870520962, 12.809437557607055], [77.59516640850634, 12.811547903777255], [77.5951840370742, 12.812482877406394], [77.59518504041353, 12.81256211300357], [77.59518581304853, 12.815349924695873], [77.59529300978376, 12.816489124567049], [77.59541372187925, 12.817866346502221], [77.59547600919073, 12.81863411212296], [77.59562310430081, 12.81931386293596], [77.5959451156031, 12.820850667312063], [77.59625439654906, 12.822377379539619], [77.59655094713888, 12.82389399961943], [77.59708618911291, 12.826735083124486], [77.5973278785995, 12.828126236976123], [77.59746872256763, 12.828973061076397], [77.59754968674271, 12.829565865593361], [77.59774681956226, 12.831092505654606], [77.59804516173932, 12.833546695207728], [77.59869742212106, 12.838590630671739], [77.59897971236565, 12.84064274283108], [77.5996305081857, 12.84568336679292], [77.59981159598345, 12.84699487056736], [77.5999726733562, 12.84808911429003], [77.6004010811853, 12.850827082444614], [77.60042846012148, 12.851026457622412], [77.60048995862888, 12.851445110309585], [77.60056205401969, 12.851905651319049], [77.60069892675052, 12.852837827518227], [77.6008111601246, 12.853554300690536], [77.6009429991353, 12.854452796556501], [77.60104187005098, 12.855175877417002], [77.60111039674683, 12.855642638124047], [77.60128617110489, 12.856928812530414], [77.60144474833164, 12.858183620232865], [77.601455801332, 12.858278948161558], [77.60159654765545, 12.859392662403314], [77.60173446367902, 12.86058383364028], [77.60174449696021, 12.860663129010163], [77.60189149746014, 12.861933011367407], [77.6020236638464, 12.863193759247135], [77.60206875103657, 12.863674715852495], [77.60214844184941, 12.864434477116026], [77.60217674844041, 12.864736846602455], [77.60232013904438, 12.866478722033474], [77.60234060482021, 12.866696731114473], [77.60237536724382, 12.86711925645976], [77.60251334369782, 12.868588153995924], [77.60251734662688, 12.868625968047644], [77.60266329363398, 12.870180047649981], [77.6027481913024, 12.871218841739886], [77.60281034130851, 12.872114552745245], [77.60286380622463, 12.873054041431107], [77.6028732955955, 12.873353696131067], [77.6029334309292, 12.87471059904469], [77.6029790893815, 12.876164901853015], [77.60303717710046, 12.877467770594187], [77.60307423249859, 12.878658186032755], [77.60308766267524, 12.879427880082522], [77.60309119208243, 12.880402163836845], [77.60308024676729, 12.881454615621733], [77.60306891459155, 12.88147472917333], [77.60208476575183, 12.883164745222563], [77.60134244789394, 12.88439672837921], [77.60087894515979, 12.885193560758204], [77.59988392252708, 12.88684319915409], [77.598909455973, 12.888399126513969], [77.59790616604816, 12.889939822199452], [77.59721900274256, 12.89095314048117], [77.59612389614459, 12.89250242504376]]], [[[77.58087044355287, 12.921146553325597], [77.5794455974773, 12.92043471061279], [77.58102614646694, 12.920144548535985], [77.57924020677024, 12.919392692222972], [77.58170110702336, 12.919151516211024], [77.57897300207134, 12.918484276744081], [77.5788193515975, 12.918569012635231], [77.57835182842909, 12.919110934973915], [77.57825170110127, 12.919324628138199], [77.57738892597096, 12.92036137145655], [77.5769540125186, 12.920723694471933], [77.57586856283798, 12.921969776807169], [77.57573348807794, 12.922166828596866], [77.57652740462369, 12.922101493943183], [77.58087044355287, 12.921146553325597]]]]}, "properties": {"line_id": "line_2", "name": "Yellow Line (Silk Board Line)"}}