{"type": "Feature", "geometry": {"type": "MultiPolygon", "coordinates": [[[[77.49941243939759, 12.878920362071128], [77.50011795024852, 12.879575067016287], [77.5081683427558, 12.88726481197001], [77.50895964635166, 12.888043425450299], [77.50948244357673, 12.888678121642055], [77.51040207318678, 12.889829426241823], [77.5107490669917, 12.89027749431272], [77.51124180129415, 12.89079499291114], [77.51177626703004, 12.891373533620397], [77.51196507033299, 12.891571826282044], [77.5123023933062, 12.891936994121327], [77.51277432527489, 12.892432707003584], [77.51348838079568, 12.89320586581098], [77.51513278668595, 12.895041520639333], [77.51606768266083, 12.896117610059331], [77.51753643513615, 12.897375681223611], [77.51993793099545, 12.900304529475138], [77.52089308055348, 12.901433247140536], [77.52162408252886, 12.902171672335918], [77.52561501587556, 12.905734836370165], [77.52944785056846, 12.907748257761082], [77.53099939875203, 12.908531101767052], [77.53141957391904, 12.908751752404704], [77.54055966291077, 12.913361414560214], [77.54172029859703, 12.91397058171234], [77.54178489309189, 12.914103805618158], [77.54338908949481, 12.917045404648027], [77.54392571753021, 12.918069843560085], [77.54508236027071, 12.920189873972468], [77.54585390205662, 12.921871678860692], [77.54604534079004, 12.922270314271485], [77.54942224234968, 12.92638565198903], [77.55282813810936, 12.930378370519234], [77.55342285704064, 12.931047998390577], [77.55502613893646, 12.932925318275075], [77.5551248770942, 12.936969258531814], [77.55527279376672, 12.940145588653685], [77.5554949572556, 12.94981790426867], [77.55549032453946, 12.950821699103255], [77.55547156968022, 12.951403836012478], [77.55546878202178, 12.951933518271225], [77.55543186013222, 12.953057573112613], [77.55538430003767, 12.953844603466838], [77.5552960623213, 12.954846868542306], [77.55524779877345, 12.955264144367227], [77.55514954913318, 12.955949295539419], [77.55716683824414, 12.958677573255061], [77.55734743715162, 12.958937801125558], [77.55804931346589, 12.959887589390688], [77.55822981507069, 12.960055899024795], [77.55922091021826, 12.960922503451846], [77.55950456082296, 12.961138619765277], [77.56057069218767, 12.961894721269017], [77.5615080611494, 12.96250971776371], [77.56152431134608, 12.962519516897133], [77.56197159181737, 12.962813078333058], [77.56413754977801, 12.965295669344473], [77.56455386191227, 12.965728822302054], [77.56529399915722, 12.966580573305075], [77.56580655364856, 12.967109473834798], [77.56613486401088, 12.967489675055345], [77.56663426455492, 12.968002790821837], [77.56687758495019, 12.968424922978148], [77.56710937487007, 12.968771646350541], [77.5673318159865, 12.969160483370088], [77.56810608507452, 12.970309505274747], [77.56829000076367, 12.97064258432351], [77.5691025304526, 12.971835220659148], [77.56993659232707, 12.972788590964965], [77.5700218187726, 12.972924326639705], [77.5711247413643, 12.974163775189046], [77.57173809509953, 12.974538087764042], [77.57224335029272, 12.97528086822713], [77.5732586737682, 12.975398989988065], [77.57381715539462, 12.974505004598178], [77.57406782935139, 12.974356010510844], [77.57440437671167, 12.9738969064928], [77.57489917808081, 12.973545622485014], [77.5750378375836, 12.973375922654853], [77.57549592641284, 12.973041440210238], [77.57584544200897, 12.972636243084677], [77.57618857020512, 12.972375448993636], [77.57662427014905, 12.971883833674367], [77.576929606537, 12.97164363678813], [77.57753295107567, 12.970975038071062], [77.57764153409912, 12.970886320785139], [77.57837706077598, 12.970074798109911], [77.57924917912352, 12.968811590987928], [77.57930287665252, 12.968712707666127], [77.58013258019297, 12.967510055069061], [77.58081514547702, 12.966689317608198], [77.58137199706397, 12.966118877227027], [77.5826912105798, 12.965112391963258], [77.58571045344495, 12.963094620587421], [77.58655742591291, 12.962470800528411], [77.5906374068574, 12.959727383870602], [77.59066075229754, 12.959710602674502], [77.59080265859953, 12.959615181904766], [77.59188597755389, 12.959481249554115], [77.5930616371207, 12.95930027592324], [77.59317666223212, 12.959275803927186], [77.59392842164253, 12.95909343685945], [77.59557250594817, 12.958646143832842], [77.59795435880815, 12.956791738899717], [77.59906411004194, 12.95588283876893], [77.59988691817333, 12.955175324211591], [77.60063256074844, 12.954503169689911], [77.60135460454583, 12.95382168616767], [77.60198546001536, 12.953198976937028], [77.60393987566194, 12.951092723554392], [77.60425420238774, 12.950739675756363], [77.60479718804895, 12.950153977406812], [77.6055455429149, 12.949313665706901], [77.60595679951034, 12.948833343348765], [77.60738407733099, 12.947100035300592], [77.60792799550408, 12.946414329728135], [77.60818319707319, 12.946104204583483], [77.60876571588017, 12.945370122574364], [77.60867955648361, 12.945287207631587], [77.60804439017471, 12.944654197846068], [77.60765669834927, 12.944281417676633], [77.60732844724026, 12.943954130864734], [77.60680269386549, 12.943448842689964], [77.60632853173861, 12.942975751441523], [77.60558478711224, 12.942261478002855], [77.60497223818888, 12.941649662053313], [77.60447975431589, 12.941177172760469], [77.60377273547753, 12.940470463928625], [77.60373855090232, 12.940437708933107], [77.60275632088992, 12.93945589768767], [77.60268786005787, 12.93939042424877], [77.60189820076987, 12.9386010351439], [77.60163708742549, 12.938351732801133], [77.60089014782423, 12.93760467510594], [77.60061376824079, 12.937341255560844], [77.59986627004837, 12.936593199117945], [77.59957950742613, 12.93632040784076], [77.5988627693069, 12.93560264600407], [77.59852944415657, 12.935286208483898], [77.59763183993446, 12.934386518711339], [77.59751649841064, 12.93427733353996], [77.5966908210585, 12.933449480390012], [77.59658464612535, 12.933349268662086], [77.59580989206975, 12.932572225161042], [77.59565939927326, 12.932430626717895], [77.5947369274904, 12.931504927981642], [77.59463603761272, 12.93141040011009], [77.59368135968693, 12.930452003533976], [77.59356027678406, 12.930339125315502], [77.5926861648174, 12.9294611051183], [77.59265946955526, 12.929432058681883], [77.59169389632777, 12.928462428316838], [77.5916374357198, 12.928400576619158], [77.59093742866861, 12.927698015437452], [77.59054444558761, 12.92733873174876], [77.59052938393296, 12.927323561853637], [77.5893358712698, 12.9262323703339], [77.58862222586437, 12.925504237536227], [77.58832283630335, 12.925233153163115], [77.58736496544329, 12.924251800329566], [77.58712313867304, 12.923966589102292], [77.58638799461318, 12.923217216727434], [77.58629004479218, 12.923099639243793], [77.58555197581644, 12.92234912760373], [77.58537467594448, 12.922199984921555], [77.58452476023047, 12.921330630091504], [77.58434433471486, 12.92118489507084], [77.58350501841305, 12.920318407307159], [77.58330622091596, 12.920168239076345], [77.58247767351398, 12.919297614677488], [77.58226733104873, 12.919158657500066], [77.58156277826295, 12.918388141691462], [77.581327866447, 12.91827792304922], [77.579435440581, 12.918307620287992], [77.58055182528777, 12.917557291091105], [77.58009575161316, 12.91663896789777], [77.5802908816295, 12.90987804210075], [77.58055274974961, 12.909597753418913], [77.58059442704511, 12.90954686924048], [77.58087371075477, 12.909247942297224], [77.5818964475741, 12.908283113284288], [77.58219104716191, 12.908035193876707], [77.58283422333683, 12.907430251512775], [77.58318257564922, 12.907135089169214], [77.58418843034691, 12.906191825066115], [77.58517025835413, 12.905182082999524], [77.58531961535502, 12.90501488560701], [77.58622446975039, 12.904083001371667], [77.58676082199754, 12.903609527835146], [77.58698590673015, 12.903395419630034], [77.58803951063334, 12.902464206101], [77.58968029686446, 12.900682614535826], [77.59113284206887, 12.899004629637286], [77.59211666927669, 12.897801606082941], [77.59277570484439, 12.896951087961924], [77.59309964702659, 12.8965540203288], [77.59403464671095, 12.895348387707301], [77.59494598712196, 12.89411490369557], [77.59521321910519, 12.893735984613256], [77.59612389614459, 12.89250242504376], [77.59721900274256, 12.89095314048117], [77.59790616604816, 12.889939822199452], [77.598909455973, 12.888399126513969], [77.59988392252708, 12.88684319915409], [77.60087894515979, 12.885193560758204], [77.60134244789394, 12.88439672837921], [77.60208476575183, 12.883164745222563], [77.60306891459155, 12.88147472917333], [77.60308024676729, 12.881454615621733], [77.60309119208243, 12.880402163836845], [77.60308766267524, 12.879427880082522], [77.60307423249859, 12.878658186032755], [77.60303717710046, 12.877467770594187], [77.6029790893815, 12.876164901853015], [77.6029334309292, 12.87471059904469], [77.6028732955955, 12.873353696131067], [77.60286380622463, 12.873054041431107], [77.60281034130851, 12.872114552745245], [77.6027481913024, 12.871218841739886], [77.60266329363398, 12.870180047649981], [77.60251734662688, 12.868625968047644], [77.60251334369782, 12.868588153995924], [77.60237536724382, 12.86711925645976], [77.60234060482021, 12.866696731114473], [77.60232013904438, 12.866478722033474], [77.60217674844041, 12.864736846602455], [77.60214844184941, 12.864434477116026], [77.60206875103657, 12.863674715852495], [77.6020236638464, 12.863193759247135], [77.60189149746014, 12.861933011367407], [77.60174449696021, 12.860663129010163], [77.60173446367902, 12.86058383364028], [77.60159654765545, 12.859392662403314], [77.601455801332, 12.858278948161558], [77.60144474833164, 12.858183620232865], [77.60128617110489, 12.856928812530414], [77.60111039674683, 12.855642638124047], [77.60104187005098, 12.855175877417002], [77.6009429991353, 12.854452796556501], [77.6008111601246, 12.853554300690536], [77.60069892675052, 12.852837827518227], [77.60056205401969, 12.851905651319049], [77.60048995862888, 12.851445110309585], [77.60042846012148, 12.851026457622412], [77.6004010811853, 12.850827082444614], [77.5999726733562, 12.84808911429003], [77.59981159598345, 12.84699487056736], [77.5996305081857, 12.84568336679292], [77.59897971236565, 12.84064274283108], [77.59869742212106, 12.838590630671739], [77.59804516173932, 12.833546695207728], [77.59774681956226, 12.831092505654606], [77.59754968674271, 12.829565865593361], [77.59746872256763, 12.828973061076397], [77.5973278785995, 12.828126236976123], [77.59708618911291, 12.826735083124486], [77.59655094713888, 12.82389399961943], [77.59625439654906, 12.822377379539619], [77.5959451156031, 12.820850667312063], [77.59562310430081, 12.81931386293596], [77.59547600919073, 12.81863411212296], [77.59541372187925, 12.817866346502221], [77.59529300978376, 12.816489124567049], [77.59518581304853, 12.815349924695873], [77.59518504041353, 12.81256211300357], [77.5951840370742, 12.812482877406394], [77.59516640850634, 12.811547903777255], [77.59504870520962, 12.809437557607055], [77.59499892152728, 12.808436426298798], [77.59498814642856, 12.804154573242917], [77.59493818058684, 12.798160455316465], [77.5949168236553, 12.796625197007273], [77.59487892143636, 12.79581845369616], [77.59477336437938, 12.794498377568198], [77.59440830965737, 12.790225384733034], [77.59334025749209, 12.784793215589671], [77.59218229703954, 12.779058470406902], [77.59214809951791, 12.778893304595204], [77.59213, 12.7798297], [77.5910838, 12.7809206], [77.5882195, 12.7834041], [77.587062, 12.7839684], [77.5868458, 12.7840739], [77.5844944, 12.7852203], [77.5822678, 12.7861447], [77.5819661, 12.7862702], [77.5813114, 12.7865426], [77.5813813, 12.7869131], [77.5810414, 12.7870913], [77.5802434, 12.7875101], [77.5797185, 12.7877855], [77.5796642, 12.7877439], [77.5793263, 12.7874852], [77.5772472, 12.7858941], [77.5761156, 12.7844048], [77.5747021, 12.7828572], [77.5738802, 12.7819882], [77.5735379, 12.7816262], [77.572354, 12.7803926], [77.5714132, 12.7788786], [77.57095, 12.7770884], [77.570907, 12.7739287], [77.5708541, 12.7716476], [77.571443, 12.7697462], [77.571842, 12.7671299], [77.5716915, 12.766127], [77.5707436, 12.7622575], [77.5705193, 12.7620341], [77.5695204, 12.7610394], [77.5677477, 12.7602477], [77.5666593, 12.7594772], [77.5664128, 12.7592331], [77.5662968, 12.7592847], [77.5647992, 12.7599503], [77.5631442, 12.7607879], [77.5625602, 12.7613746], [77.5623, 12.7616359], [77.5614993, 12.7624402], [77.5596414, 12.7643754], [77.5585768, 12.7653492], [77.5586087, 12.7665105], [77.5586809, 12.7690545], [77.5577424, 12.772358], [77.5576868, 12.7725488], [77.5572477, 12.7740593], [77.5568956, 12.7756628], [77.5561787, 12.7773085], [77.556223, 12.7793703], [77.5563529, 12.7810594], [77.5575014, 12.7821193], [77.557889, 12.782477], [77.5580424, 12.7825131], [77.5612239, 12.7832618], [77.5620883, 12.7843302], [77.5622689, 12.7867394], [77.5624489, 12.7869463], [77.5635624, 12.7881495], [77.5633345, 12.78853], [77.5621859, 12.7887974], [77.5621437, 12.7887549], [77.5613254, 12.7879319], [77.5596197, 12.7878302], [77.5595632, 12.7878462], [77.558202, 12.788231], [77.5568256, 12.7885563], [77.5563979, 12.7886577], [77.5562629, 12.7886897], [77.5530582, 12.7896412], [77.5529055, 12.7896863], [77.5530199, 12.7903008], [77.5530542, 12.7904839], [77.5532222, 12.7913755], [77.5537825, 12.7931532], [77.5542509, 12.7947086], [77.5550377, 12.7973439], [77.5556781, 12.798611], [77.5559966, 12.7996051], [77.55583, 12.7996253], [77.554835, 12.799746], [77.5543436, 12.7997206], [77.5543317, 12.7997517], [77.5542226, 12.8000374], [77.5534853, 12.8002326], [77.5534657, 12.8002199], [77.5532294, 12.8000674], [77.5532079, 12.8000536], [77.5531655, 12.8001143], [77.553031, 12.800307], [77.5518785, 12.8005785], [77.550699, 12.8008564], [77.5496463, 12.8010581], [77.5493935, 12.801115], [77.5475549, 12.8013964], [77.5474988, 12.801405], [77.5458022, 12.8007452], [77.5441947, 12.7998424], [77.5427167, 12.7988686], [77.5421345, 12.7985464], [77.5421479, 12.7984084], [77.5421601, 12.7982823], [77.5421707, 12.7981722], [77.5421835, 12.798039], [77.5424167, 12.7955355], [77.5423911, 12.7948109], [77.5423349, 12.7947284], [77.5434935, 12.7933995], [77.543485, 12.7933855], [77.5434091, 12.7932602], [77.5435833, 12.7931591], [77.543737, 12.7930899], [77.5452545, 12.7924052], [77.5462546, 12.7909285], [77.5465888, 12.7906747], [77.5468237, 12.7904963], [77.5476257, 12.7898872], [77.5483056, 12.7886398], [77.5483154, 12.7886217], [77.5483169, 12.7886179], [77.5489994, 12.7868538], [77.548862, 12.7864917], [77.5489554, 12.7862967], [77.5494345, 12.7852973], [77.549435, 12.7852961], [77.5493545, 12.7852061], [77.5481603, 12.7838711], [77.5470837, 12.7823646], [77.546205, 12.7807141], [77.545915, 12.7802006], [77.5453252, 12.7793204], [77.5447089, 12.7775324], [77.5443827, 12.7768885], [77.5441582, 12.7764454], [77.5438707, 12.7758783], [77.5438491, 12.7758357], [77.5455336, 12.7752066], [77.5464542, 12.7746325], [77.5471173, 12.7742016], [77.5474114, 12.774197], [77.5484777, 12.7742044], [77.5494943, 12.7741926], [77.5499875, 12.7739961], [77.5512037, 12.7735094], [77.551678, 12.7733], [77.5517053, 12.7732879], [77.5516956, 12.7729161], [77.5516828, 12.7724252], [77.5513082, 12.7718381], [77.550831, 12.7710672], [77.5505512, 12.7708791], [77.5498814, 12.770859], [77.5491614, 12.7708171], [77.548419, 12.770656], [77.5473896, 12.7704218], [77.5463458, 12.7697343], [77.5462772, 12.769689], [77.5460999, 12.7695514], [77.5458227, 12.76796], [77.5458153, 12.7679175], [77.5457582, 12.7676611], [77.545635, 12.7671067], [77.5459288, 12.7668724], [77.5458264, 12.7666346], [77.546025, 12.7667367], [77.5460084, 12.7663821], [77.5459969, 12.7661339], [77.5459953, 12.7661009], [77.5456619, 12.7659906], [77.5455138, 12.7659416], [77.5455456, 12.7655894], [77.5454466, 12.7652239], [77.545411, 12.7650927], [77.5450374, 12.7637041], [77.5441353, 12.7620796], [77.5439536, 12.7615242], [77.5439211, 12.7614244], [77.5432136, 12.75922], [77.5431302, 12.7589561], [77.5421995, 12.7549855], [77.5421406, 12.7547343], [77.5420622, 12.7543997], [77.5413999, 12.7520966], [77.5412682, 12.7516392], [77.540939, 12.750026], [77.5409041, 12.7498554], [77.5408129, 12.7494091], [77.5408955, 12.7488756], [77.5409004, 12.7488437], [77.5408343, 12.7488832], [77.5408726, 12.7486296], [77.5409369, 12.7482031], [77.5409501, 12.7481156], [77.5394367, 12.7499942], [77.5366409, 12.7534634], [77.5359142, 12.7543668], [77.5355853, 12.754783], [77.5346978, 12.7559154], [77.5347045, 12.7557687], [77.5344978, 12.7555506], [77.5344287, 12.7554777], [77.5342757, 12.7552639], [77.5342649, 12.7552486], [77.5341687, 12.755114], [77.5341166, 12.7550965], [77.5340931, 12.7550887], [77.5335472, 12.7549072], [77.5334209, 12.7545538], [77.5333606, 12.7544657], [77.5331856, 12.7543429], [77.5332151, 12.754302], [77.5334152, 12.7539023], [77.5333868, 12.7533838], [77.5333343, 12.7532749], [77.5326996, 12.7527306], [77.5325807, 12.7524233], [77.5325601, 12.752257], [77.5325418, 12.7521911], [77.5323579, 12.751529], [77.5319599, 12.751269], [77.5318567, 12.7512015], [77.5317872, 12.7512488], [77.5316086, 12.7513701], [77.5315903, 12.7513318], [77.5313768, 12.7508853], [77.5313644, 12.7508593], [77.5313615, 12.7508533], [77.5313094, 12.7507448], [77.531248, 12.7506168], [77.5311858, 12.7504932], [77.5299821, 12.7480998], [77.5297337, 12.7476221], [77.5286304, 12.7454996], [77.5285751, 12.7453932], [77.528407, 12.7450683], [77.5241793, 12.7368986], [77.5240831, 12.7367127], [77.5229496, 12.7345223], [77.5227605, 12.734168], [77.5227535, 12.7341494], [77.521941, 12.7320274], [77.5218077, 12.7316837], [77.5217834, 12.7317468], [77.5171946, 12.7356717], [77.5171091, 12.7357448], [77.5174951, 12.7368167], [77.5175164, 12.7368758], [77.5182431, 12.7389064], [77.5183096, 12.7390959], [77.5183518, 12.7392161], [77.5184393, 12.7394654], [77.5190564, 12.7408391], [77.5195509, 12.7419393], [77.5193839, 12.7419947], [77.5193629, 12.7420103], [77.5193555, 12.7420127], [77.5182391, 12.7428213], [77.5172697, 12.7435224], [77.5163023, 12.744219], [77.5153652, 12.7449053], [77.5144383, 12.7455718], [77.5132094, 12.7464802], [77.5131353, 12.7465285], [77.513045, 12.7465916], [77.5128892, 12.7467073], [77.5127686, 12.7467969], [77.5126073, 12.746394], [77.5125025, 12.7464324], [77.5123212, 12.7464987], [77.5122791, 12.7464224], [77.5122436, 12.7463582], [77.5116284, 12.7450899], [77.5111659, 12.7441537], [77.5105486, 12.7428882], [77.5100726, 12.741914], [77.5095669, 12.7408551], [77.5090135, 12.7396779], [77.5084596, 12.738607], [77.5079393, 12.7375987], [77.5077774, 12.7374406], [77.5075837, 12.7372436], [77.5074078, 12.737065], [77.5066189, 12.7362903], [77.5063877, 12.7362477], [77.5047909, 12.735971], [77.5044394, 12.7359174], [77.5039287, 12.7358395], [77.5037126, 12.7358066], [77.5031311, 12.7356993], [77.5028465, 12.7356469], [77.5028379, 12.7357291], [77.5027101, 12.7369466], [77.5026908, 12.7371295], [77.5026847, 12.7371879], [77.5007296, 12.7379961], [77.4967753, 12.7396308], [77.496442, 12.7397655], [77.4964346, 12.7397685], [77.4942538, 12.7398882], [77.4941043, 12.7398964], [77.4939955, 12.7399129], [77.4939273, 12.7399231], [77.4931783, 12.7400359], [77.4930962, 12.7400482], [77.4930866, 12.7400841], [77.4930061, 12.7403839], [77.4927046, 12.7415673], [77.4922528, 12.7415949], [77.4922113, 12.7415976], [77.4921867, 12.7416951], [77.4921752, 12.7417406], [77.4904377, 12.7420261], [77.4903617, 12.7420386], [77.4890525, 12.7422537], [77.4890515, 12.7422526], [77.4888607, 12.7422618], [77.4887867, 12.7422703], [77.4884845, 12.742305], [77.4884009, 12.7423064], [77.4883561, 12.7426185], [77.4883026, 12.7425812], [77.4882435, 12.7425399], [77.4881659, 12.7424859], [77.4881105, 12.7424473], [77.4881043, 12.742443], [77.4880965, 12.742309], [77.488097, 12.7421908], [77.4874853, 12.7423613], [77.4873304, 12.7424097], [77.4871511, 12.7426338], [77.4871459, 12.7426404], [77.4871252, 12.7426436], [77.4867471, 12.7427034], [77.4865866, 12.7427589], [77.4864559, 12.7428041], [77.4864318, 12.7428125], [77.4863793, 12.7428986], [77.4863303, 12.7429787], [77.4863051, 12.7430201], [77.4862049, 12.7430834], [77.4857776, 12.7433534], [77.4854982, 12.7437333], [77.4854259, 12.7438317], [77.4854251, 12.7438327], [77.4853144, 12.7443208], [77.4852813, 12.744738], [77.485255, 12.7450591], [77.4852466, 12.7451599], [77.4851416, 12.7451873], [77.4848422, 12.7453903], [77.4849024, 12.7459455], [77.4850317, 12.7467123], [77.4846973, 12.7473818], [77.4844637, 12.7477814], [77.4843325, 12.7478539], [77.484295, 12.7478747], [77.4837764, 12.7481614], [77.4833799, 12.7484012], [77.4828781, 12.7487645], [77.4825905, 12.7494599], [77.4822941, 12.7496329], [77.4819629, 12.749833], [77.4812239, 12.7497721], [77.4800653, 12.7502192], [77.4791934, 12.7507175], [77.47844, 12.7515015], [77.4772278, 12.7520686], [77.476541, 12.7521886], [77.4760027, 12.7525642], [77.4756228, 12.7541874], [77.4748329, 12.7549776], [77.4750376, 12.7552012], [77.4750254, 12.7552153], [77.4749083, 12.7553596], [77.4748514, 12.7555365], [77.474676, 12.7559535], [77.4744591, 12.7562025], [77.4743982, 12.7562764], [77.4743373, 12.7563503], [77.4742381, 12.7564595], [77.4741125, 12.75653], [77.4740136, 12.7565853], [77.4739709, 12.7566092], [77.4739725, 12.756611], [77.4739731, 12.7566116], [77.4739823, 12.7566214], [77.4741095, 12.7567568], [77.4740532, 12.7569317], [77.4740333, 12.7569523], [77.4739987, 12.7569879], [77.4739694, 12.7570181], [77.4739096, 12.7570797], [77.4739952, 12.7571062], [77.4739836, 12.7571434], [77.4739294, 12.757199], [77.4739003, 12.7572289], [77.4738409, 12.7572899], [77.4743564, 12.757552], [77.474536, 12.7576136], [77.4745711, 12.7576256], [77.4747154, 12.7576752], [77.4748225, 12.7577483], [77.4748263, 12.7577509], [77.474908, 12.7578068], [77.4749197, 12.7578148], [77.4748986, 12.7578656], [77.474827, 12.7580383], [77.474793, 12.7581204], [77.4747424, 12.7582424], [77.4746858, 12.7584448], [77.4746279, 12.7586515], [77.4746235, 12.7586672], [77.4745878, 12.7587949], [77.4748422, 12.7589409], [77.47504, 12.7593729], [77.4751371, 12.7595908], [77.4753455, 12.7596103], [77.4753823, 12.7592621], [77.4754335, 12.7588887], [77.4756082, 12.7588261], [77.4756987, 12.7588815], [77.4757463, 12.7589843], [77.4759614, 12.7594487], [77.4760552, 12.7596512], [77.4761039, 12.7598389], [77.4761186, 12.7598953], [77.4761677, 12.7600849], [77.4761874, 12.7601612], [77.4762451, 12.7603859], [77.4763158, 12.7606584], [77.4763528, 12.761259], [77.4762664, 12.7619327], [77.4759702, 12.7623193], [77.4757888, 12.7625554], [77.4756401, 12.7627491], [77.4756262, 12.7627672], [77.4755755, 12.7628433], [77.4754245, 12.7630702], [77.4751884, 12.7634238], [77.4747568, 12.7637654], [77.4740791, 12.7645765], [77.4741192, 12.7647429], [77.4741241, 12.7647631], [77.4742276, 12.7649092], [77.4742783, 12.7649801], [77.4743069, 12.7650223], [77.4746868, 12.7655818], [77.4747024, 12.7656047], [77.4748857, 12.7658747], [77.4750821, 12.7661638], [77.4754199, 12.7666666], [77.4756308, 12.7669329], [77.4756464, 12.7669698], [77.4756629, 12.767009], [77.4760128, 12.7680582], [77.4763121, 12.76899], [77.4763624, 12.7692138], [77.4763832, 12.7693059], [77.4767578, 12.7709676], [77.4767703, 12.7710244], [77.4767843, 12.7710922], [77.476796, 12.7711487], [77.4768245, 12.7712973], [77.4770501, 12.7724711], [77.4770802, 12.772638], [77.4772542, 12.7736025], [77.4772713, 12.7736984], [77.4772714, 12.7736984], [77.4772888, 12.773799], [77.4773423, 12.7741067], [77.4773612, 12.7742157], [77.4774154, 12.7745272], [77.4774536, 12.7747484], [77.4774672, 12.7748273], [77.4775056, 12.7750515], [77.4775415, 12.7752609], [77.4775634, 12.7753817], [77.4775946, 12.7755539], [77.4777229, 12.7763044], [77.4777801, 12.7766382], [77.4778305, 12.7769319], [77.4779774, 12.7775933], [77.4779911, 12.7776744], [77.4780462, 12.7779897], [77.4782726, 12.7792865], [77.4782877, 12.7793719], [77.4783596, 12.7797255], [77.4785241, 12.780534], [77.4784381, 12.7807584], [77.478349, 12.7809912], [77.4779, 12.7822119], [77.4766317, 12.7849004], [77.476495, 12.7850223], [77.4757227, 12.7857921], [77.4755716, 12.7859456], [77.4755339, 12.785985], [77.4746145, 12.7867861], [77.4743355, 12.7870292], [77.4742697, 12.7870866], [77.474266, 12.7870893], [77.4742286, 12.7871115], [77.4740909, 12.787193], [77.4730427, 12.7879693], [77.4723541, 12.7883651], [77.472354, 12.7883651], [77.4722219, 12.7884265], [77.4722049, 12.7884343], [77.4718825, 12.7885807], [77.4718687, 12.7886057], [77.471865, 12.7886145], [77.4718538, 12.7886409], [77.4718093, 12.7887461], [77.4718055, 12.7887553], [77.4717981, 12.7887728], [77.4717802, 12.7888151], [77.4717556, 12.7888731], [77.4716364, 12.7891543], [77.4716364, 12.7891544], [77.4716118, 12.7892124], [77.4716116, 12.7892913], [77.4716103, 12.7898935], [77.4716102, 12.7899881], [77.471318, 12.7902785], [77.471318, 12.7902786], [77.47125, 12.7903471], [77.4711745, 12.7905504], [77.47087, 12.7913845], [77.4708699, 12.7913846], [77.4706484, 12.792007], [77.4703426, 12.7929266], [77.4703011, 12.7930514], [77.470005, 12.7939418], [77.4700202, 12.7939921], [77.470396, 12.7952199], [77.4705376, 12.7957148], [77.4707736, 12.7965232], [77.4709158, 12.7969032], [77.4711421, 12.7976325], [77.4712139, 12.7978591], [77.4712969, 12.7979016], [77.4713385, 12.7980446], [77.4732799, 12.7991764], [77.4734128, 12.7991182], [77.4735433, 12.7990487], [77.4742923, 12.7988484], [77.4750681, 12.7986982], [77.475211, 12.7986783], [77.4756376, 12.7986187], [77.4758435, 12.79859], [77.4765777, 12.7984875], [77.4777178, 12.7983801], [77.4789918, 12.7988156], [77.4795694, 12.7990137], [77.4796099, 12.7990276], [77.4795169, 12.7992103], [77.4795429, 12.7992189], [77.4796154, 12.7992428], [77.479705, 12.7992724], [77.4801132, 12.7994071], [77.4801532, 12.7994203], [77.4802115, 12.7994661], [77.4809455, 12.8000423], [77.4813673, 12.8003735], [77.4816968, 12.8006321], [77.4818453, 12.8007487], [77.4819972, 12.8008679], [77.4827594, 12.8018383], [77.4829845, 12.8021249], [77.4831225, 12.8023005], [77.4826264, 12.8024907], [77.4814224, 12.8029525], [77.4800998, 12.8042014], [77.479192, 12.8050588], [77.47905, 12.8051959], [77.4785734, 12.8056559], [77.4777575, 12.8064435], [77.4785968, 12.8105453], [77.4787826, 12.8114521], [77.4782799, 12.8111181], [77.4777685, 12.8107783], [77.4769875, 12.8102592], [77.4763464, 12.8098331], [77.476345, 12.8098974], [77.4763285, 12.8107117], [77.4763265, 12.8108057], [77.4763215, 12.8110524], [77.4763064, 12.8114882], [77.4762911, 12.8119379], [77.4746073, 12.8118053], [77.4710846, 12.8115278], [77.4694711, 12.8109872], [77.469487, 12.8107247], [77.4693833, 12.8106905], [77.4692628, 12.8106508], [77.4692855, 12.8102346], [77.4692988, 12.80999], [77.4666953, 12.8089681], [77.4649821, 12.8091948], [77.464603, 12.8092677], [77.4638198, 12.8088452], [77.4637215, 12.8087914], [77.4636447, 12.8087495], [77.4619491, 12.8078227], [77.4618439, 12.807765], [77.4617906, 12.8077335], [77.4611102, 12.8073309], [77.4606586, 12.8082539], [77.4606051, 12.8083473], [77.4603973, 12.8087098], [77.4603408, 12.8088199], [77.4603054, 12.808889], [77.4602453, 12.8090062], [77.460052, 12.8093831], [77.4599914, 12.8094988], [77.4597359, 12.8099863], [77.4596848, 12.810085], [77.459267, 12.8108908], [77.4576092, 12.812805], [77.4575444, 12.8128887], [77.4571337489306, 12.813419136581148], [77.48625373365005, 12.863746301083747], [77.48658085203994, 12.8642539795526], [77.48723131969645, 12.865237249730832], [77.48728316358554, 12.865309715551382], [77.488891195633, 12.86750036142902], [77.49419738407128, 12.874542394923973], [77.49839690522424, 12.878017054478324], [77.49888296930044, 12.878442946239108], [77.49941243939759, 12.878920362071128]], [[77.57738892597096, 12.92036137145655], [77.57825170110127, 12.919324628138199], [77.57835182842909, 12.919110934973915], [77.5788193515975, 12.918569012635231], [77.57897300207134, 12.918484276744081], [77.58170110702336, 12.919151516211024], [77.57924020677024, 12.919392692222972], [77.58102614646694, 12.920144548535985], [77.5794455974773, 12.92043471061279], [77.58087044355287, 12.921146553325597], [77.57652740462369, 12.922101493943183], [77.57573348807794, 12.922166828596866], [77.57586856283798, 12.921969776807169], [77.5769540125186, 12.920723694471933], [77.57738892597096, 12.92036137145655]]], [[[77.58458538370769, 12.743142780548503], [77.58108159432909, 12.726932611553766], [77.58069964646364, 12.725195404496501], [77.58035380189156, 12.723648322084193], [77.57960329168272, 12.720497585973357], [77.5755667412666, 12.703804780634039], [77.5751114, 12.7036476], [77.5736427, 12.7031408], [77.5690698, 12.7015624], [77.5686216, 12.7014014], [77.568213, 12.7012545], [77.5680703, 12.7012031], [77.5679913, 12.7013018], [77.5679365, 12.7013587], [77.5670109, 12.7023209], [77.5669161, 12.7024236], [77.5665935, 12.7027731], [77.5661283, 12.703277], [77.5661233, 12.7032824], [77.565274, 12.7042024], [77.5651283, 12.7043596], [77.5633447, 12.7063243], [77.5632052, 12.7064825], [77.5621269, 12.7077059], [77.5619933, 12.7078556], [77.5613238, 12.7086059], [77.5612835, 12.7086508], [77.5612611, 12.7086757], [77.5609192, 12.709738], [77.5609191, 12.7097381], [77.5604352, 12.7109334], [77.560129, 12.711473], [77.560005, 12.7116915], [77.5590976, 12.7132608], [77.5590976, 12.7154489], [77.5590976, 12.7157955], [77.5590976, 12.7160828], [77.5591208, 12.7179433], [77.5591236, 12.7181012], [77.5591564, 12.719229], [77.55918, 12.7197566], [77.5591819, 12.7198008], [77.5592547, 12.7214726], [77.5588214, 12.7227128], [77.5575721, 12.7262805], [77.5574487, 12.7266339], [77.5571435, 12.7275076], [77.5572311, 12.7281892], [77.5575845, 12.7309386], [77.5575853, 12.7309451], [77.5575853, 12.7309452], [77.5575904, 12.7309464], [77.5575955, 12.7309477], [77.5576113, 12.7309516], [77.5580803, 12.7310686], [77.5594392, 12.7314078], [77.5597339, 12.7314814], [77.5624509, 12.7321597], [77.5629639, 12.7320371], [77.5667432, 12.7311397], [77.5667433, 12.7311397], [77.5667435, 12.7311396], [77.5684261, 12.7307394], [77.5693053, 12.7305252], [77.570634, 12.730212], [77.5707627, 12.7301817], [77.5708881, 12.7301713], [77.5709812, 12.7301965], [77.5718527, 12.7310174], [77.5727947, 12.732488], [77.5727505, 12.7325349], [77.5722041, 12.7331146], [77.5716985, 12.7336492], [77.570066, 12.734025], [77.5686628, 12.7344151], [77.5684088, 12.7344858], [77.5679936, 12.7354433], [77.5689638, 12.7373809], [77.5690609, 12.7375996], [77.5691539, 12.7378092], [77.5693507, 12.7382525], [77.5696729, 12.7391396], [77.5695637, 12.7394143], [77.569903, 12.7404536], [77.5706394, 12.7428203], [77.5716275, 12.744454], [77.5724423, 12.7454657], [77.5726927, 12.7457766], [77.5735202, 12.7468041], [77.5750149, 12.7482211], [77.5752923, 12.7484844], [77.5754683, 12.749742], [77.5754771, 12.7498056], [77.5760334, 12.7508112], [77.5765168, 12.7511713], [77.5765478, 12.7511943], [77.5779835, 12.7509303], [77.5803018, 12.7512122], [77.5806023, 12.7512487], [77.5816346, 12.7516937], [77.5817935, 12.7517622], [77.5826443, 12.7517136], [77.5830544, 12.7517003], [77.58357, 12.7516719], [77.5853763, 12.7517033], [77.5858408, 12.7516164], [77.58636005655427, 12.751511572170196], [77.58458538370769, 12.743142780548503]]], [[[77.55936443725935, 12.986367283842826], [77.55760694014582, 12.986603253797197], [77.5566355002891, 12.986779460672226], [77.55661947602994, 12.98678311865578], [77.55594647719938, 12.98690516670823], [77.55563661551359, 12.986975685420976], [77.55536450235029, 12.987025099448163], [77.55492391756091, 12.986950046826914], [77.5539414754141, 12.986826937348056], [77.55338313136347, 12.986782041888212], [77.55068566342189, 12.98644394910795], [77.54848111529219, 12.98626539963403], [77.54569954476679, 12.986566362347434], [77.54501902090874, 12.986724563171734], [77.54462700625301, 12.98683233016307], [77.54271951135784, 12.987278287668548], [77.54041980438006, 12.987908610303421], [77.53911288325823, 12.98831692912463], [77.53790838798382, 12.988738380584092], [77.53679544286733, 12.989168670079867], [77.53329479258758, 12.990648544277969], [77.52963223245985, 12.992314454785928], [77.52328207200023, 12.99502695091331], [77.52068363354519, 12.996080019718265], [77.51824438879216, 12.99702025931091], [77.5172090464991, 12.9974005535735], [77.51588291196681, 12.99786457210172], [77.51380810259187, 12.99855611491149], [77.5125663837431, 12.998950674655536], [77.51146705808925, 12.999283578212424], [77.50951332591984, 12.999903269487705], [77.50486479877803, 12.999040456480097], [77.50316740382998, 12.998704675490037], [77.5030080697668, 12.998671251740745], [77.50179458526891, 12.998402156399383], [77.50053446187577, 12.998107820365966], [77.49981148260879, 12.997930518995934], [77.49773243673052, 12.997372323965658], [77.49187289643041, 12.995732505265485], [77.48782253044863, 12.994213131804088], [77.48626523757461, 12.993512471623617], [77.48495149755774, 12.9929354570828], [77.48368013642451, 12.992363629729795], [77.4824030483821, 12.991775860770783], [77.48062070510483, 12.990937065225333], [77.48016546893929, 12.990749918659853], [77.47917944294399, 12.990334987017347], [77.47915999692445, 12.990326615949265], [77.47789590876923, 12.989794647612085], [77.47733487063546, 12.989563838798432], [77.47662568168417, 12.989265422148524], [77.47599653778516, 12.989006535191562], [77.47535474810635, 12.988736512346003], [77.4753023014611, 12.988714926566317], [77.47452827189625, 12.988389257360394], [77.47418623406688, 12.988347609048544], [77.47315320524321, 12.988213713137055], [77.46950558785494, 12.987626720260872], [77.46788509863603, 12.987353501995132], [77.46629864141025, 12.987073955720604], [77.46475865671472, 12.986790993995259], [77.46453677621209, 12.98674856792372], [77.46425621304685, 12.98669282329054], [77.46346051939778, 12.986564131145085], [77.46339968718863, 12.986554735204475], [77.46226732491851, 12.986371541326355], [77.46109333631402, 12.9861730632348], [77.45957951884259, 12.985906172136108], [77.45930413978465, 12.985855644419901], [77.45882041291595, 12.985780088959858], [77.45772998264883, 12.985602032010853], [77.4556894455431, 12.98525442594369], [77.4548574728448, 12.985106894220063], [77.45430036777034, 12.984972937404356], [77.45417784207268, 12.984942604758366], [77.45405106541922, 12.984914789532144], [77.45242114673741, 12.984646647609667], [77.44981417558621, 12.98419996493213], [77.43437223052659, 12.981449931909035], [77.43391636172049, 12.981436425094069], [77.41950201479351, 12.981093783049463], [77.41798978244279, 12.981066073900658], [77.40490684219861, 12.980896950081952], [77.40382921317413, 12.980946130844542], [77.38877259359984, 12.981707668860023], [77.35464558770063, 12.983587624855705], [77.3546491, 12.9836653], [77.3546799, 12.9843474], [77.3552425, 12.9855686], [77.3562306, 12.9859571], [77.3566927, 12.9862274], [77.3566967, 12.9862297], [77.3568373, 12.986312], [77.357097, 12.9864639], [77.3572963, 12.9865805], [77.3576768, 12.9868032], [77.358377, 12.9872835], [77.3587918, 12.9877113], [77.3589296, 12.9878535], [77.359609, 12.9885541], [77.359622, 12.9885675], [77.3599126, 12.9885927], [77.3602681, 12.9886268], [77.3607823, 12.9886761], [77.36087, 12.9886846], [77.3616598, 12.9886125], [77.3629917, 12.9879134], [77.3643622, 12.98763], [77.3644024, 12.9876217], [77.3653329, 12.9878772], [77.3659022, 12.9894037], [77.3664555, 12.9901863], [77.3670794, 12.990627], [77.3670851, 12.9906311], [77.3674491, 12.9908883], [77.3685433, 12.9910349], [77.3702192, 12.9913302], [77.3720145, 12.9921528], [77.3720175, 12.9921717], [77.3720116, 12.9943732], [77.3719384, 12.9951506], [77.3713042, 12.9960355], [77.3707309, 12.9978533], [77.3702918, 12.999707], [77.3702003, 13.0003229], [77.3705811, 13.0012362], [77.3714123, 13.0026716], [77.3713721, 13.0033823], [77.3703654, 13.0043693], [77.3694795, 13.0054749], [77.3690768, 13.0064619], [77.3692378, 13.0081992], [77.3696404, 13.0097786], [77.3696769, 13.0113125], [77.3696202, 13.0118639], [77.3696906, 13.0125844], [77.369912, 13.0132557], [77.3703046, 13.013848], [77.3705664, 13.0142502], [77.370969, 13.0144674], [77.3735618, 13.0145289], [77.3755349, 13.0145092], [77.3756959, 13.0148646], [77.3759576, 13.016365], [77.3765818, 13.0189314], [77.3767831, 13.0208662], [77.3769039, 13.0217151], [77.3768636, 13.0222678], [77.3763804, 13.0229391], [77.3759374, 13.0239459], [77.3758367, 13.025999], [77.3757561, 13.027835], [77.3755749, 13.0287629], [77.3758769, 13.0289011], [77.3765011, 13.0280917], [77.3772864, 13.02746], [77.3785549, 13.0267098], [77.3792797, 13.0265321], [77.3801052, 13.0266506], [77.3808301, 13.0267098], [77.3824811, 13.0264729], [77.3838503, 13.0263741], [77.3846959, 13.0262754], [77.385602, 13.0261569], [77.3864678, 13.025999], [77.3875752, 13.0260779], [77.3889443, 13.0262161], [77.3891457, 13.0265319], [77.3890652, 13.027519], [77.3889955, 13.0283632], [77.3889049, 13.0292318], [77.3891063, 13.0305249], [77.3895997, 13.0307322], [77.3901433, 13.0316403], [77.3902441, 13.0337033], [77.3902844, 13.0341969], [77.3903147, 13.0355492], [77.3903348, 13.0360723], [77.3903651, 13.0368719], [77.3904557, 13.0381156], [77.3905061, 13.0389152], [77.3906068, 13.0396654], [77.3906718, 13.0405848], [77.3907221, 13.0411968], [77.3909739, 13.0428551], [77.3910646, 13.0436152], [77.3911653, 13.0441186], [77.3912559, 13.0449083], [77.3914171, 13.0461224], [77.391548, 13.0471786], [77.3916689, 13.0480176], [77.3916588, 13.0490245], [77.3916589, 13.0495081], [77.3917092, 13.0501497], [77.3916992, 13.051127], [77.3917999, 13.0517093], [77.3923738, 13.0518278], [77.3929679, 13.0519264], [77.3932095, 13.0520153], [77.3934914, 13.0522719], [77.393713, 13.052568], [77.3940172, 13.0529481], [77.3933849, 13.0529358], [77.3931468, 13.0530137], [77.3927697, 13.0536168], [77.3921943, 13.0543562], [77.3916386, 13.0549593], [77.3910234, 13.0552707], [77.3900907, 13.0557571], [77.3892572, 13.0556988], [77.3876497, 13.0554848], [77.3867567, 13.0553876], [77.3860621, 13.0553487], [77.384792, 13.0558935], [77.3830258, 13.0572165], [77.3829067, 13.0582088], [77.3828806, 13.0592013], [77.3829004, 13.0600184], [77.3831275, 13.062357], [77.3828275, 13.0637991], [77.3827308, 13.0644158], [77.3827792, 13.0650325], [77.3829219, 13.0657298], [77.3830719, 13.0662896], [77.3833235, 13.0669157], [77.3836526, 13.0674091], [77.3841239, 13.0678696], [77.3845207, 13.0681447], [77.3851498, 13.0682206], [77.3857304, 13.0683534], [77.3871821, 13.0686854], [77.3881499, 13.0692357], [77.3893693, 13.0699187], [77.3912566, 13.0704974], [77.3924566, 13.0703929], [77.3932179, 13.0704511], [77.3943522, 13.0706502], [77.3953466, 13.0709621], [77.3962217, 13.0715664], [77.3977134, 13.073204], [77.3983895, 13.0729895], [77.3992049, 13.072697], [77.4002788, 13.0724824], [77.401313, 13.0725213], [77.4021483, 13.0726577], [77.4038189, 13.073106], [77.4048133, 13.0732229], [77.4061856, 13.0733982], [77.4069215, 13.0734956], [77.4074574, 13.0735555], [77.4094748, 13.0735638], [77.4114437, 13.073583], [77.4130745, 13.0733489], [77.4141483, 13.0723349], [77.4150232, 13.071633], [77.415667, 13.0709286], [77.4158982, 13.070775], [77.4160051, 13.0707336], [77.4176613, 13.0703148], [77.418934, 13.0700806], [77.420883, 13.0697294], [77.422474, 13.0698461], [77.4237021, 13.0702699], [77.4244632, 13.0722243], [77.4260152, 13.0766692], [77.4266918, 13.0787357], [77.4280849, 13.0833755], [77.4287758, 13.0860285], [77.4288355, 13.0864574], [77.4280002, 13.0866525], [77.4258722, 13.0871598], [77.423943, 13.0874526], [77.4234855, 13.0872577], [77.4227892, 13.0859905], [77.4214368, 13.0862637], [77.4204822, 13.0865368], [77.4200646, 13.0871218], [77.4209999, 13.09028], [77.4213581, 13.0912353], [77.4178627, 13.0925616], [77.4168783, 13.0929029], [77.4159543, 13.0932009], [77.417324, 13.0953795], [77.4185177, 13.0974069], [77.4187564, 13.0978748], [77.4188162, 13.0984206], [77.4187566, 13.0988496], [77.417086, 13.0998441], [77.4157733, 13.1002147], [77.4154966, 13.1018135], [77.4159145, 13.1030709], [77.4166407, 13.1045038], [77.4179038, 13.1049228], [77.4158154, 13.1055177], [77.4146519, 13.1057713], [77.4135082, 13.1058105], [77.4128319, 13.1059275], [77.4116485, 13.1062591], [77.4106987, 13.1064444], [77.4089285, 13.1071075], [77.4078346, 13.10779], [77.4064026, 13.1084725], [77.4042346, 13.109584], [77.4016328, 13.111108], [77.4008742, 13.11171], [77.400556, 13.1121195], [77.4003073, 13.112428], [77.4003994, 13.11268], [77.4005586, 13.1136743], [77.4007079, 13.1148636], [77.4008869, 13.1156434], [77.4011257, 13.1165792], [77.4012153, 13.1173103], [77.4013086, 13.1181364], [77.4010077, 13.118078], [77.3927219, 13.1150274], [77.3927219, 13.1158852], [77.3929209, 13.1176399], [77.3933785, 13.1184782], [77.3940548, 13.1194335], [77.3945573, 13.1193005], [77.3959124, 13.118845], [77.397074, 13.1186931], [77.3975535, 13.1235127], [77.3999118, 13.1238683], [77.4002506, 13.1238968], [77.4010492, 13.1238991], [77.4013323, 13.1239156], [77.4021357, 13.1239701], [77.4028761, 13.124017], [77.404109, 13.1240452], [77.404651, 13.1236088], [77.4047865, 13.1234175], [77.4058706, 13.1233145], [77.4061804, 13.1231722], [77.4074872, 13.1230677], [77.4081745, 13.1233997], [77.408594, 13.1237032], [77.4085942, 13.12565], [77.4090373, 13.1260052], [77.4111721, 13.1280576], [77.4129636, 13.1320219], [77.4130375, 13.1322513], [77.4317958, 13.1650843], [77.4397131, 13.1667727], [77.4468569, 13.1656064], [77.4609896, 13.1603897], [77.4610495, 13.1605031], [77.4614603, 13.1612752], [77.4616165, 13.1615763], [77.4616753, 13.1616898], [77.4616856, 13.1616922], [77.4617519, 13.1617078], [77.4638229, 13.1621941], [77.4639075, 13.1622143], [77.464157, 13.1622742], [77.4641666, 13.1622742], [77.4642105, 13.1622743], [77.4645167, 13.162275], [77.4647381, 13.1622755], [77.4674369, 13.1622854], [77.4675753, 13.1622859], [77.4689921, 13.1622982], [77.4689851, 13.1623117], [77.4688644, 13.1634168], [77.468863, 13.1634297], [77.4688487, 13.1634982], [77.4687655, 13.1638972], [77.4686522, 13.1646489], [77.4685815, 13.1650735], [77.4684677, 13.165903], [77.4683959, 13.1664276], [77.4683656, 13.167508], [77.4683427, 13.1680125], [77.468315, 13.1687997], [77.4682831, 13.1695357], [77.4682627, 13.1701082], [77.4683127, 13.17041], [77.4684578, 13.171731], [77.4685306, 13.1725211], [77.4686634, 13.173724], [77.4699909, 13.1767688], [77.4702169, 13.1773284], [77.4708358, 13.178324], [77.4713388, 13.1791493], [77.4719787, 13.1800413], [77.4723639, 13.1805836], [77.4729692, 13.18143], [77.4736105, 13.1822744], [77.4736172, 13.1822832], [77.4736586, 13.1822364], [77.473793, 13.1823324], [77.4738561, 13.1823775], [77.4744924, 13.182832], [77.4748798, 13.1831088], [77.4749102, 13.1831519], [77.4750152, 13.1832987], [77.4754732, 13.1843712], [77.4755312, 13.1845069], [77.4757496, 13.1850184], [77.4760052, 13.1856171], [77.4759468, 13.1856867], [77.4759469, 13.1856872], [77.4760737, 13.1861889], [77.4761036, 13.1863073], [77.4762352, 13.1868277], [77.4764678, 13.1876916], [77.4764522, 13.1877008], [77.4763142, 13.1877827], [77.4763986, 13.1879839], [77.476477, 13.1881706], [77.4764791, 13.1882118], [77.4764942, 13.1885137], [77.4767041, 13.1891957], [77.4767136, 13.1892264], [77.4768561, 13.1896905], [77.4769972, 13.190553], [77.4770027, 13.1905827], [77.4770913, 13.1910584], [77.4771539, 13.1920976], [77.4771549, 13.192102], [77.47717, 13.1921697], [77.4771818, 13.1922229], [77.4772291, 13.1924358], [77.4773044, 13.1927747], [77.47736, 13.1929906], [77.4774106, 13.1931871], [77.4774231, 13.1932358], [77.4774332, 13.1932751], [77.4774758, 13.1934402], [77.4781117, 13.1948855], [77.4782434, 13.1954443], [77.4783574, 13.1962885], [77.4783663, 13.1963628], [77.47841, 13.1967283], [77.4784189, 13.196803], [77.4785157, 13.1976084], [77.478518, 13.1976277], [77.4785353, 13.1985233], [77.4785742, 13.1992828], [77.4785784, 13.1993621], [77.4786204, 13.2001516], [77.4786352, 13.2004246], [77.4786309, 13.2004675], [77.4786286, 13.2004905], [77.4784568, 13.2020478], [77.4784493, 13.2021005], [77.4782151, 13.2040979], [77.4782114, 13.2041302], [77.4782151, 13.2041447], [77.4785837, 13.2055827], [77.4785926, 13.2056174], [77.4786172, 13.2057133], [77.4788988, 13.2068116], [77.4789128, 13.2068951], [77.4788707, 13.2069418], [77.4787854, 13.2070364], [77.4787145, 13.2070376], [77.476247, 13.2070827], [77.4736838, 13.2070709], [77.4735931, 13.2070705], [77.4734798, 13.20707], [77.4734851, 13.2071871], [77.4734871, 13.2072318], [77.4735819, 13.2093862], [77.4736127, 13.2101182], [77.4736129, 13.2101216], [77.4736634, 13.2113272], [77.473667, 13.2114986], [77.4736722, 13.211742], [77.4737175, 13.2117459], [77.4737883, 13.211752], [77.4738005, 13.2117513], [77.4738286, 13.2119112], [77.473849, 13.2120268], [77.4740487, 13.2131588], [77.4740867, 13.2133738], [77.4741289, 13.2136113], [77.4741674, 13.2138286], [77.4742028, 13.2140274], [77.4742405, 13.2142394], [77.4742608, 13.2143687], [77.4743768, 13.2151034], [77.4744898, 13.2153328], [77.4747767, 13.215916], [77.4750334, 13.2164389], [77.475194, 13.2167666], [77.4752742, 13.2169301], [77.4754734, 13.2173366], [77.476147, 13.2187257], [77.4768632, 13.2202089], [77.4769855, 13.2204636], [77.477212, 13.2209355], [77.4772349, 13.2209771], [77.4774022, 13.2212818], [77.4778816, 13.2221609], [77.4779275, 13.2222312], [77.4780758, 13.2224596], [77.4781952, 13.2226445], [77.4789911, 13.2238782], [77.4791142, 13.2240659], [77.4792108, 13.2242132], [77.4792573, 13.2241959], [77.4794192, 13.2241359], [77.4799835, 13.2239267], [77.4825207, 13.2229862], [77.4830487, 13.2228278], [77.4832132, 13.2227784], [77.4868289, 13.2232975], [77.4871299, 13.2233402], [77.4874968, 13.2234118], [77.4876196, 13.2234357], [77.4892444, 13.22375], [77.4898399, 13.2238651], [77.4899157, 13.2238798], [77.4899808, 13.2238924], [77.4901516, 13.2239254], [77.4904555, 13.2239946], [77.4912577, 13.2242429], [77.4913399, 13.2242682], [77.4917331, 13.2243886], [77.4919802, 13.2244642], [77.4920782, 13.2244942], [77.4924273, 13.2246011], [77.4924406, 13.2246051], [77.4925552, 13.22464], [77.49265, 13.2246652], [77.4931336, 13.2247939], [77.4932416, 13.2248225], [77.4933993, 13.2248664], [77.4939462, 13.2250187], [77.494525, 13.2252095], [77.49485, 13.2253165], [77.4949115, 13.2253374], [77.4949712, 13.2253577], [77.4953456, 13.2254848], [77.4958488, 13.2256555], [77.497357, 13.2263159], [77.4985794, 13.2268436], [77.4986873, 13.2268902], [77.4989356, 13.2269968], [77.4989996, 13.2270242], [77.4993072, 13.2270598], [77.4995471, 13.2270876], [77.4997117, 13.2271066], [77.4999083, 13.2270441], [77.4999103, 13.2270433], [77.5003245, 13.2268772], [77.5006579, 13.2267435], [77.5009646, 13.226645], [77.5011825, 13.226575], [77.5013008, 13.2265371], [77.5011886, 13.2259999], [77.501468, 13.2258441], [77.5016337, 13.2257518], [77.5017747, 13.2256733], [77.50211, 13.2255627], [77.5021265, 13.2255572], [77.502175, 13.2256937], [77.5024838, 13.2256998], [77.5026081, 13.2256564], [77.50269, 13.2256279], [77.5030269, 13.2256948], [77.5032699, 13.225544], [77.5034775, 13.225459], [77.5038133, 13.2252922], [77.5041311, 13.2251519], [77.5041705, 13.2251345], [77.5045361, 13.224852], [77.5045522, 13.2248395], [77.5045655, 13.2248368], [77.5046963, 13.2248102], [77.5049808, 13.2247532], [77.5050497, 13.2247394], [77.5051835, 13.2247126], [77.5053466, 13.2246732], [77.5068687, 13.2240564], [77.5068687, 13.224063], [77.507225, 13.2253315], [77.507239, 13.2253815], [77.5073957, 13.2258388], [77.5076658, 13.2265192], [77.5077639, 13.226751], [77.5078144, 13.2268706], [77.5078167, 13.226876], [77.5078842, 13.2268613], [77.5079284, 13.2271113], [77.507931, 13.2271163], [77.508613, 13.2269524], [77.5087427, 13.2269218], [77.5088702, 13.2268918], [77.5091339, 13.22683], [77.5099675, 13.2266361], [77.5106396, 13.2264457], [77.5119126, 13.2260867], [77.5120016, 13.2260617], [77.5120403, 13.2260508], [77.5120377, 13.2253641], [77.5120222, 13.225299], [77.5119385, 13.2249478], [77.5119256, 13.2249113], [77.5116815, 13.2242215], [77.5116732, 13.2241982], [77.5115555, 13.2232253], [77.5115394, 13.2230957], [77.5115144, 13.222896], [77.5115109, 13.222868], [77.5115539, 13.2228592], [77.5119075, 13.2227867], [77.5120956, 13.2227482], [77.5121062, 13.222746], [77.5130784, 13.2225468], [77.5131175, 13.2225388], [77.5137798, 13.2223816], [77.514117, 13.2223015], [77.5141445, 13.2222949], [77.5153092, 13.2219726], [77.5155685, 13.2219008], [77.5165561, 13.2216125], [77.5169064, 13.2215381], [77.5169368, 13.2215316], [77.5172727, 13.2213412], [77.5174174, 13.2212592], [77.5174178, 13.2212511], [77.5174333, 13.2209362], [77.5184247, 13.2206126], [77.5184667, 13.2205989], [77.5184337, 13.2201969], [77.5183192, 13.21953], [77.5182805, 13.2193038], [77.5182787, 13.2192917], [77.5182014, 13.2187929], [77.5181895, 13.2187162], [77.5181862, 13.2186952], [77.5181853, 13.2186744], [77.5181837, 13.2186621], [77.5181825, 13.2186107], [77.5181769, 13.2184848], [77.5181752, 13.2184459], [77.5181723, 13.2183829], [77.518177, 13.2183779], [77.5181762, 13.2183422], [77.5184698, 13.2180271], [77.5188289, 13.217617], [77.5188391, 13.2176054], [77.5188399, 13.2175989], [77.5188502, 13.217514], [77.5188475, 13.2173577], [77.5188474, 13.2173085], [77.5188473, 13.2172645], [77.5188473, 13.2172221], [77.5188473, 13.2171985], [77.5192168, 13.2167783], [77.5192478, 13.2167431], [77.5193083, 13.2166747], [77.5193121, 13.2166704], [77.5193125, 13.2166681], [77.5194193, 13.2164048], [77.5193348, 13.2155989], [77.5192318, 13.2154441], [77.5191013, 13.2152732], [77.5190093, 13.2152007], [77.5189615, 13.2151631], [77.5188452, 13.2150714], [77.518727, 13.21497], [77.5186605, 13.2149047], [77.51861, 13.2148447], [77.5184905, 13.2146852], [77.5184125, 13.2144544], [77.5183777, 13.2142612], [77.5184183, 13.2142664], [77.5184531, 13.2142708], [77.5186121, 13.2142911], [77.5194027, 13.2144105], [77.5194529, 13.2144181], [77.5196255, 13.2143455], [77.5198628, 13.2144953], [77.5199792, 13.2145686], [77.5199911, 13.2145048], [77.5200219, 13.2143401], [77.5199156, 13.2141495], [77.520029, 13.2141444], [77.5200886, 13.2141417], [77.5200849, 13.2141359], [77.5199484, 13.2139252], [77.5199368, 13.2139073], [77.5198954, 13.2138434], [77.5199916, 13.2133804], [77.5199093, 13.2128496], [77.5198185, 13.2127835], [77.5197684, 13.2127471], [77.5195869, 13.2126152], [77.519513, 13.2125615], [77.5194467, 13.2125133], [77.5194452, 13.2125071], [77.5194237, 13.2124214], [77.5192715, 13.2118137], [77.5192504, 13.2117293], [77.519191, 13.2117359], [77.5187895, 13.2117808], [77.5186966, 13.2117912], [77.5186923, 13.2117974], [77.5186308, 13.2114866], [77.5185774, 13.2112158], [77.5185843, 13.2111461], [77.5185892, 13.2110959], [77.5185911, 13.2110771], [77.5186024, 13.2109624], [77.5185986, 13.2109495], [77.5185833, 13.2108969], [77.5184584, 13.2104695], [77.5182389, 13.209717], [77.5182285, 13.2096814], [77.5182148, 13.2096343], [77.5181605, 13.2094477], [77.5182215, 13.2094355], [77.5183529, 13.209409], [77.5185747, 13.2093643], [77.5188555, 13.2093075], [77.5188908, 13.2093004], [77.519033, 13.2092716], [77.5190977, 13.2092585], [77.5191209, 13.2092538], [77.5192131, 13.2092351], [77.5194498, 13.2103124], [77.5194617, 13.2103665], [77.519522, 13.2106412], [77.5195239, 13.2106497], [77.519535, 13.2107003], [77.5195425, 13.2107483], [77.5195497, 13.2107945], [77.5195951, 13.2111223], [77.5196008, 13.2111216], [77.5198038, 13.2110981], [77.5204082, 13.2110281], [77.5204462, 13.2110237], [77.5204965, 13.2110192], [77.5209825, 13.2109856], [77.5210353, 13.2109673], [77.521381, 13.2108474], [77.5214799, 13.2106153], [77.5216166, 13.210338], [77.5214616, 13.2101844], [77.5212567, 13.2101142], [77.5209854, 13.2100213], [77.5209538, 13.2100105], [77.5209467, 13.2099705], [77.5208424, 13.2094543], [77.5209793, 13.2093685], [77.5210548, 13.2093212], [77.5212919, 13.2091726], [77.5213942, 13.2090721], [77.5214259, 13.2090409], [77.5215149, 13.2089535], [77.5217194, 13.208871], [77.5217313, 13.2088662], [77.5215325, 13.2087685], [77.5213635, 13.2086726], [77.5212277, 13.2085954], [77.52056, 13.2071546], [77.5206893, 13.206996], [77.5206956, 13.2069882], [77.5211094, 13.2069069], [77.5211299, 13.2069029], [77.5213334, 13.2068629], [77.521582, 13.207463], [77.5215857, 13.2074718], [77.5215978, 13.2075058], [77.5217808, 13.2080183], [77.5217994, 13.2080759], [77.5218047, 13.2080922], [77.5218317, 13.2081761], [77.521862, 13.2081738], [77.5219329, 13.2081686], [77.5220174, 13.2081623], [77.5220189, 13.2081793], [77.5220583, 13.2086401], [77.5220613, 13.2086767], [77.5220329, 13.2089068], [77.5219975, 13.2091876], [77.5221356, 13.2093733], [77.5221457, 13.2094466], [77.5221598, 13.2095492], [77.5220337, 13.209653], [77.5220736, 13.2102468], [77.522064, 13.2105441], [77.5221017, 13.2107396], [77.5223234, 13.211315], [77.5223244, 13.2113175], [77.5223724, 13.2115773], [77.5223809, 13.2116229], [77.5224711, 13.2115673], [77.5224794, 13.2116131], [77.5222168, 13.211759], [77.5221797, 13.2117798], [77.5222994, 13.2119869], [77.522371, 13.2121119], [77.5222016, 13.2126505], [77.5222221, 13.2129623], [77.5222348, 13.2131581], [77.5222305, 13.2133155], [77.5222483, 13.2133724], [77.5222509, 13.2133804], [77.5222712, 13.2134455], [77.5223003, 13.213539], [77.5222902, 13.2136663], [77.5223605, 13.213834], [77.5223664, 13.2138482], [77.5226367, 13.2138109], [77.5226887, 13.2137856], [77.5227686, 13.2137467], [77.5227946, 13.2137341], [77.5228163, 13.2137235], [77.522851, 13.2137066], [77.5228671, 13.2137433], [77.5229653, 13.2139684], [77.5230019, 13.2140526], [77.523193, 13.2142633], [77.5232256, 13.2142993], [77.5232545, 13.2143312], [77.5233516, 13.2146791], [77.523477, 13.2148699], [77.5236101, 13.2149517], [77.5238008, 13.215472], [77.523865, 13.2159879], [77.5238669, 13.2160037], [77.5238676, 13.2160077], [77.5241743, 13.2159706], [77.5242412, 13.2159627], [77.5243997, 13.2160944], [77.5246963, 13.2163408], [77.5247429, 13.2163968], [77.5248437, 13.2165179], [77.5248865, 13.2165729], [77.5250195, 13.2167364], [77.525086, 13.2168322], [77.5252642, 13.2170893], [77.525332, 13.2172057], [77.5254561, 13.2174892], [77.5254083, 13.2175138], [77.5249567, 13.2177469], [77.5249395, 13.2177559], [77.5249438, 13.2177674], [77.5252983, 13.2187266], [77.5252638, 13.2187798], [77.5252312, 13.2188301], [77.525207, 13.2188675], [77.5252805, 13.2189647], [77.5253805, 13.2190968], [77.5253967, 13.2191181], [77.5254122, 13.2191827], [77.5255102, 13.2195907], [77.525533, 13.2196852], [77.5256146, 13.2198221], [77.5257828, 13.2200012], [77.5258318, 13.2200534], [77.5262427, 13.2202218], [77.5263368, 13.2203085], [77.5264761, 13.2208151], [77.526538, 13.2210386], [77.5265294, 13.2211145], [77.5265217, 13.2211827], [77.5265177, 13.2212182], [77.5264703, 13.2216394], [77.5264701, 13.2216416], [77.5264685, 13.2216561], [77.5265631, 13.221701], [77.5267314, 13.2217808], [77.5272157, 13.2215851], [77.5272711, 13.2215628], [77.527267, 13.2215212], [77.5271281, 13.221532], [77.5272497, 13.2214922], [77.5271752, 13.2213632], [77.5271072, 13.2212457], [77.5270841, 13.2212058], [77.5270613, 13.2211664], [77.5270974, 13.2211492], [77.5272938, 13.221055], [77.5274684, 13.2210708], [77.5275138, 13.2210557], [77.5275594, 13.2210404], [77.5277382, 13.2209801], [77.5277422, 13.2209794], [77.5277762, 13.2209732], [77.527942, 13.2209427], [77.5280235, 13.2209278], [77.5282046, 13.2208937], [77.5286832, 13.2207993], [77.5293766, 13.2206692], [77.5300845, 13.2206445], [77.5300887, 13.2206432], [77.5302502, 13.220592], [77.5302844, 13.2205811], [77.5304088, 13.2205414], [77.5304374, 13.2205322], [77.5310547, 13.2203441], [77.5310838, 13.2203353], [77.5312881, 13.2203008], [77.5313081, 13.2202974], [77.5316482, 13.2201903], [77.5318491, 13.2201266], [77.531873, 13.2201191], [77.5322363, 13.2199997], [77.5323888, 13.2199495], [77.5327435, 13.219905], [77.5327691, 13.2199018], [77.5327766, 13.2199009], [77.5332993, 13.2196955], [77.5333075, 13.2196924], [77.5333389, 13.2196801], [77.5333541, 13.2197379], [77.5333617, 13.2197664], [77.5335164, 13.2197194], [77.5335475, 13.2197099], [77.5345038, 13.2194585], [77.5348429, 13.2193693], [77.5348613, 13.2193645], [77.5348996, 13.2193545], [77.5349138, 13.2193509], [77.5352904, 13.2192554], [77.5353898, 13.2192302], [77.5356847, 13.2191685], [77.5362398, 13.2190524], [77.536268, 13.2190465], [77.5364561, 13.2190708], [77.5366359, 13.219094], [77.5366831, 13.2190838], [77.5368216, 13.2190541], [77.5368399, 13.2190502], [77.5372299, 13.2190684], [77.5372475, 13.2190692], [77.537295, 13.2195477], [77.5373026, 13.2196017], [77.5373784, 13.220143], [77.537459, 13.2207209], [77.5374684, 13.2207697], [77.5374834, 13.2208484], [77.5375095, 13.2209849], [77.5375197, 13.2210322], [77.5375516, 13.2211806], [77.5375966, 13.2213906], [77.5376009, 13.2214086], [77.5376064, 13.221431], [77.5379066, 13.2226669], [77.5379793, 13.2229663], [77.5379876, 13.2229931], [77.5380443, 13.2231749], [77.5381146, 13.2234001], [77.5381242, 13.2234863], [77.5381482, 13.2236961], [77.5381482, 13.2236962], [77.5381489, 13.2237042], [77.5381508, 13.2237158], [77.5381905, 13.2239543], [77.5381981, 13.2239978], [77.5383923, 13.2246402], [77.538693, 13.2256345], [77.5386936, 13.2256367], [77.5387156, 13.2256316], [77.53903, 13.2255522], [77.5390635, 13.2255433], [77.5394295, 13.2253852], [77.5400256, 13.2252913], [77.5404335, 13.2254073], [77.5404354, 13.2254079], [77.5404555, 13.2254825], [77.5405236, 13.225735], [77.5406607, 13.226039], [77.5412316, 13.2260245], [77.5416907, 13.2262958], [77.5419153, 13.227141], [77.5419297, 13.2271558], [77.5419423, 13.2271688], [77.5420955, 13.2273263], [77.5421099, 13.2273713], [77.5423461, 13.2281114], [77.5426319, 13.2286983], [77.5426905, 13.2288187], [77.5428884, 13.2294973], [77.5428924, 13.2295111], [77.5429496, 13.2297064], [77.5430136, 13.2299247], [77.5432169, 13.2310195], [77.5432401, 13.2311445], [77.5432842, 13.2321921], [77.5432886, 13.2323048], [77.5432946, 13.2324648], [77.5433174, 13.2330719], [77.5433179, 13.2330849], [77.5437265, 13.2329061], [77.5438483, 13.232853], [77.5439049, 13.2328469], [77.544714, 13.2327604], [77.5447392, 13.2327578], [77.5448144, 13.2327408], [77.5451635, 13.2326622], [77.5455526, 13.2325751], [77.546652, 13.2323124], [77.5467471, 13.2322893], [77.5468966, 13.2322523], [77.5482916, 13.2319066], [77.5492903, 13.2316482], [77.5493594, 13.2316303], [77.550026, 13.2325042], [77.5502009, 13.2327307], [77.5503287, 13.232886], [77.5504919, 13.2330843], [77.5506199, 13.2332383], [77.5507983, 13.2334741], [77.5517011, 13.2346674], [77.5517075, 13.2346762], [77.551819, 13.2345893], [77.5518956, 13.2345295], [77.5521561, 13.2343264], [77.5524332, 13.2341077], [77.5525962, 13.2339539], [77.5527602, 13.2337981], [77.5530091, 13.2335791], [77.5530166, 13.2335724], [77.5534552, 13.2335256], [77.5536371, 13.2335238], [77.5536404, 13.2335238], [77.5537804, 13.2335227], [77.5542588, 13.2335191], [77.5544804, 13.233518], [77.554545, 13.2334833], [77.5547049, 13.2333974], [77.5554207, 13.2332331], [77.5554739, 13.2332211], [77.5555249, 13.2332095], [77.5556242, 13.2331884], [77.5556772, 13.2331775], [77.5556818, 13.2331763], [77.5557894, 13.2331542], [77.5564512, 13.2330172], [77.5567296, 13.2329415], [77.556886, 13.2328885], [77.5569663, 13.2328614], [77.5570908, 13.2328192], [77.5574876, 13.232685], [77.5574933, 13.2326834], [77.5576235, 13.2326482], [77.5577521, 13.2326133], [77.5577535, 13.2326129], [77.5578211, 13.2325946], [77.5578403, 13.2325877], [77.5580564, 13.2325102], [77.5584751, 13.23236], [77.5585504, 13.2323341], [77.5586172, 13.2323111], [77.5590106, 13.2321756], [77.5590197, 13.2321725], [77.5595522, 13.2319898], [77.5595359, 13.2319412], [77.5594945, 13.2318178], [77.559243, 13.2309572], [77.5592331, 13.2309235], [77.5592266, 13.2308668], [77.5591973, 13.2306033], [77.5591727, 13.2303825], [77.5591721, 13.2303765], [77.5591702, 13.2303599], [77.5590434, 13.2302179], [77.558974, 13.2301403], [77.55893, 13.2300911], [77.5589326, 13.2300909], [77.5586697, 13.229156], [77.5586114, 13.2289473], [77.5584109, 13.2284902], [77.5583886, 13.2284391], [77.5582706, 13.2281699], [77.5582583, 13.2281437], [77.5582533, 13.2281367], [77.558188, 13.2280439], [77.5581797, 13.2280321], [77.558161, 13.2280056], [77.558144, 13.2279157], [77.5581397, 13.227893], [77.558054, 13.2274394], [77.5579621, 13.2269494], [77.5578491, 13.2268161], [77.5578249, 13.226736], [77.5578106, 13.2266886], [77.557646, 13.2261421], [77.5576342, 13.226103], [77.5575649, 13.2247924], [77.5575594, 13.2246882], [77.5574956, 13.2234811], [77.5574933, 13.2234366], [77.5578559, 13.2234321], [77.5579332, 13.2234311], [77.5580287, 13.2234293], [77.5580411, 13.2234291], [77.5581167, 13.2234277], [77.5583525, 13.223513], [77.5583531, 13.2235025], [77.5585297, 13.2235673], [77.5585418, 13.2228153], [77.558543, 13.2227393], [77.5585588, 13.2217533], [77.5585597, 13.2216909], [77.5585606, 13.2216222], [77.5585634, 13.2214242], [77.5585637, 13.2214076], [77.5584464, 13.2214129], [77.5583956, 13.2214151], [77.5582913, 13.2214197], [77.5582455, 13.2214218], [77.5582384, 13.2214259], [77.558235, 13.2212049], [77.5580971, 13.2209595], [77.5580722, 13.2208688], [77.5580242, 13.220695], [77.5578614, 13.2201549], [77.5578443, 13.2201578], [77.5576728, 13.2201868], [77.5575389, 13.2202098], [77.5575286, 13.2201865], [77.5575112, 13.2201471], [77.5574999, 13.2201216], [77.5574368, 13.2199789], [77.5573802, 13.21988], [77.5574672, 13.2197256], [77.5575567, 13.2197887], [77.5581863, 13.2193834], [77.5582069, 13.2193702], [77.5582214, 13.2193609], [77.5582968, 13.2193126], [77.5586137, 13.2189863], [77.5586638, 13.2189348], [77.5587353, 13.2188612], [77.5597251, 13.2184697], [77.560253, 13.2183932], [77.5603439, 13.21838], [77.5603567, 13.2183717], [77.5604815, 13.2182907], [77.560563, 13.2182377], [77.5605787, 13.2182317], [77.5609005, 13.21811], [77.5610017, 13.2180717], [77.5612712, 13.2179702], [77.5612758, 13.2179684], [77.5613788, 13.2178909], [77.5615119, 13.2177907], [77.5616641, 13.217776], [77.5617436, 13.2177684], [77.5617932, 13.2177489], [77.5620912, 13.2176326], [77.5622361, 13.217576], [77.5625691, 13.2174467], [77.5626929, 13.2173986], [77.5627184, 13.2173689], [77.5627476, 13.2173349], [77.5627624, 13.2172703], [77.563027, 13.2171864], [77.5631921, 13.217134], [77.5634685, 13.2170475], [77.5636479, 13.2169914], [77.5636759, 13.2169828], [77.5638495, 13.2169004], [77.5640365, 13.2168116], [77.5640413, 13.2168093], [77.5641016, 13.2167786], [77.564205, 13.2167258], [77.5644009, 13.2166258], [77.5644102, 13.2166211], [77.5645475, 13.216592], [77.5647376, 13.2165517], [77.5649813, 13.2165004], [77.5650263, 13.2164854], [77.5650903, 13.2164641], [77.5651747, 13.216436], [77.5653899, 13.2163646], [77.5654742, 13.216355], [77.5656017, 13.2163404], [77.5658841, 13.2163085], [77.5661417, 13.2163108], [77.5667466, 13.2163161], [77.5668644, 13.2163172], [77.5668955, 13.2163139], [77.5669025, 13.2163131], [77.5669797, 13.2163048], [77.5672535, 13.2162752], [77.5673312, 13.2162669], [77.568181, 13.2161759], [77.5682643, 13.2161774], [77.5685734, 13.2161684], [77.5686099, 13.2161586], [77.5686682, 13.216143], [77.5690766, 13.2160328], [77.5695367, 13.2159859], [77.5695406, 13.2159561], [77.5695469, 13.2159066], [77.5695906, 13.2155672], [77.569624, 13.2152108], [77.569637, 13.2150721], [77.5696737, 13.2146812], [77.5696972, 13.2144426], [77.5697062, 13.2143521], [77.5697199, 13.2142153], [77.5697203, 13.2142113], [77.5697827, 13.2134483], [77.5697936, 13.2133174], [77.5698114, 13.2131041], [77.5698273, 13.212914], [77.5698386, 13.2127798], [77.5698768, 13.2123305], [77.5699194, 13.2120878], [77.5699211, 13.2120758], [77.5699363, 13.2119669], [77.5699599, 13.211797], [77.5699774, 13.2115266], [77.5700443, 13.2112347], [77.5700621, 13.211157], [77.5701172, 13.2109162], [77.5702768, 13.2098993], [77.5702905, 13.2098929], [77.5703752, 13.2098531], [77.5704322, 13.2098106], [77.5705989, 13.2096863], [77.5706341, 13.20966], [77.5706424, 13.2096198], [77.570646, 13.209602], [77.5708946, 13.2083981], [77.5709195, 13.2082776], [77.5709215, 13.208268], [77.5709271, 13.2082589], [77.5709393, 13.2082392], [77.5713983, 13.2074967], [77.5714198, 13.2074618], [77.5715058, 13.2073224], [77.5714863, 13.2073284], [77.5713445, 13.2073715], [77.5709026, 13.2075058], [77.5707555, 13.2075036], [77.5707517, 13.2075035], [77.5703381, 13.2074972], [77.5702146, 13.2074954], [77.5701874, 13.207495], [77.5697481, 13.207489], [77.5693921, 13.2066019], [77.5688378, 13.2057894], [77.5688283, 13.2057754], [77.5687824, 13.205708], [77.5687526, 13.2056535], [77.568743, 13.205636], [77.5686735, 13.205509], [77.5684953, 13.2049422], [77.5680266, 13.2037503], [77.5680241, 13.2037439], [77.5679875, 13.2036492], [77.5676597, 13.2015551], [77.5682071, 13.2013315], [77.569071, 13.2009787], [77.5691351, 13.2009525], [77.5691439, 13.200949], [77.5691497, 13.200947], [77.5695875, 13.2008021], [77.5696372, 13.2007857], [77.5698844, 13.2007042], [77.5699251, 13.2006908], [77.5698881, 13.2005968], [77.5698707, 13.2005526], [77.5698611, 13.2005283], [77.5698432, 13.2004803], [77.5698329, 13.2004527], [77.570012, 13.2003817], [77.5701294, 13.2003108], [77.5703637, 13.200409], [77.5703769, 13.2004145], [77.5708402, 13.2003345], [77.570915, 13.2003143], [77.571237, 13.2002278], [77.5713728, 13.2001041], [77.5714959, 13.2000818], [77.5717634, 13.2000335], [77.5717919, 13.2000184], [77.5720242, 13.1998959], [77.5722639, 13.1997701], [77.5722892, 13.1997547], [77.5724459, 13.1996594], [77.5725633, 13.1995881], [77.572573, 13.1995839], [77.5725834, 13.1995793], [77.5726848, 13.1995346], [77.5726167, 13.1991699], [77.573118, 13.1990686], [77.5733695, 13.1989639], [77.5735862, 13.1988499], [77.573635, 13.1988155], [77.5737886, 13.1987077], [77.574044, 13.1985722], [77.5743381, 13.1985387], [77.5743651, 13.1985356], [77.5745453, 13.1984798], [77.5748038, 13.1984004], [77.5750464, 13.1983263], [77.5751036, 13.1983173], [77.5776487, 13.1979348], [77.5777123, 13.1979253], [77.5777188, 13.1979571], [77.5777203, 13.1979569], [77.5777203, 13.1979568], [77.5777428, 13.1979531], [77.577785, 13.197946], [77.5780475, 13.1978824], [77.5784125, 13.1977939], [77.5784254, 13.1977908], [77.5784582, 13.1977952], [77.5786442, 13.1978204], [77.5787016, 13.1978281], [77.5787802, 13.1978388], [77.5788043, 13.197842], [77.5788691, 13.1978508], [77.5789731, 13.197794], [77.5790292, 13.1977633], [77.5791316, 13.1976426], [77.5791612, 13.1976078], [77.5792083, 13.1976262], [77.5793236, 13.1976712], [77.5793521, 13.1976823], [77.5794917, 13.1977283], [77.5796026, 13.1977077], [77.5797073, 13.1976884], [77.5811275, 13.1973483], [77.5812678, 13.1973148], [77.5819918, 13.1970472], [77.5822701, 13.1969444], [77.5823216, 13.1969241], [77.5823558, 13.1969106], [77.5827571, 13.1967628], [77.5837606, 13.1966076], [77.5863234, 13.1961958], [77.5865164, 13.1961648], [77.5864283, 13.1960856], [77.5864033, 13.1960631], [77.5904091, 13.1949344], [77.5905067, 13.194907], [77.5905666, 13.1949388], [77.5918687, 13.1958566], [77.5919806, 13.1959356], [77.5920878, 13.1960113], [77.5944429, 13.1948241], [77.5957378, 13.1946377], [77.5968381, 13.1944809], [77.5987778, 13.1942045], [77.5994943, 13.1941049], [77.5995895, 13.1940917], [77.5997567, 13.1943917], [77.5999396, 13.19472], [77.6000582, 13.1949444], [77.6001476, 13.1951325], [77.6001811, 13.1952029], [77.6003324, 13.1954871], [77.6005398, 13.195877], [77.6006245, 13.1960361], [77.6007753, 13.1963086], [77.6009751, 13.1966696], [77.6009947, 13.1967081], [77.601154, 13.1970211], [77.601204, 13.1971164], [77.6014282, 13.1975439], [77.6015728, 13.1978194], [77.6016393, 13.1979777], [77.6017161, 13.1981607], [77.6022391, 13.1993763], [77.6022838, 13.1994801], [77.602627, 13.2002447], [77.6027374, 13.2004853], [77.6028045, 13.2006312], [77.6028531, 13.2007391], [77.6032707, 13.2016651], [77.6033003, 13.2017287], [77.6036092, 13.2023924], [77.6036684, 13.2025197], [77.6036927, 13.2025671], [77.6037169, 13.2026145], [77.6037623, 13.2026147], [77.6039854, 13.202619], [77.60504, 13.202608], [77.6058572, 13.2026034], [77.6061968, 13.2025641], [77.6062376, 13.2025594], [77.6066666, 13.2025357], [77.6070053, 13.2024969], [77.6077632, 13.202429], [77.6084194, 13.2023783], [77.6093554, 13.2023101], [77.6095641, 13.2022958], [77.6098182, 13.2022785], [77.6101644, 13.2022554], [77.6118283, 13.2021509], [77.6122388, 13.2021267], [77.6125336, 13.2021278], [77.6126035, 13.202092], [77.6126362, 13.202101], [77.612671, 13.2021105], [77.6127037, 13.2021194], [77.6131315, 13.2022551], [77.6133181, 13.2023142], [77.6134149, 13.2023439], [77.613937, 13.2025041], [77.6144368, 13.2026568], [77.6145576, 13.202695], [77.6161946, 13.2032122], [77.6160934, 13.2033142], [77.6160931, 13.2033145], [77.6153672, 13.2040651], [77.6149534, 13.2045086], [77.6141717, 13.2053465], [77.6140003, 13.2055301], [77.6139419, 13.2055927], [77.6166471, 13.2059419], [77.6184798, 13.2061785], [77.6225839, 13.2067696], [77.6228378, 13.2067886], [77.6231795, 13.2068142], [77.6241251, 13.2066801], [77.6252577, 13.2065551], [77.6264725, 13.2063192], [77.6269868, 13.2062203], [77.6284421, 13.2059394], [77.6286374, 13.2059017], [77.629685, 13.2058272], [77.6298697, 13.2058141], [77.6300223, 13.2058033], [77.6301422, 13.2057948], [77.630201, 13.2057906], [77.6304767, 13.2056594], [77.630936, 13.205441], [77.6315883, 13.2052004], [77.6320296, 13.2050376], [77.632252, 13.2049544], [77.6324504, 13.2048803], [77.6324712, 13.2048725], [77.632659, 13.2048024], [77.6339963, 13.2048174], [77.634244, 13.2048202], [77.634339, 13.2048275], [77.6345042, 13.2048335], [77.6348253, 13.2048453], [77.6348392, 13.2048458], [77.6371222, 13.2048436], [77.6372655, 13.2048439], [77.6376378, 13.2048448], [77.6378217, 13.2048452], [77.6377708, 13.2046765], [77.6377215, 13.2045279], [77.6376396, 13.204264], [77.637421, 13.2037636], [77.6372223, 13.2032971], [77.6372173, 13.2032834], [77.6371732, 13.2031631], [77.6371224, 13.2030242], [77.6370602, 13.2028541], [77.6370271, 13.2027636], [77.6374572, 13.2026656], [77.6381847, 13.2025025], [77.6389432, 13.2023557], [77.6391878, 13.2022995], [77.6394764, 13.2022333], [77.6394963, 13.2022253], [77.6396617, 13.202161], [77.6397406, 13.2021304], [77.6399587, 13.2020456], [77.6404425, 13.2018729], [77.6405662, 13.2018069], [77.640894, 13.201653], [77.6413903, 13.2014201], [77.6415587, 13.201342], [77.6416563, 13.2012968], [77.6423999, 13.2009556], [77.6426716, 13.200825], [77.6426923, 13.2008151], [77.6432063, 13.2005854], [77.6435408, 13.2005552], [77.6437827, 13.200529], [77.6445128, 13.2004479], [77.6445747, 13.200441], [77.6450926, 13.2003798], [77.6452306, 13.2003637], [77.6459354, 13.2002816], [77.646536, 13.2002288], [77.6465435, 13.2002282], [77.6477575, 13.2001244], [77.64808092808802, 13.20009362058981], [77.64732042695194, 13.196122766233616], [77.64730952466759, 13.196065052347462], [77.6466058082552, 13.19228742977569], [77.64565540770433, 13.187111593484328], [77.64063354001824, 13.159350020091278], [77.63564130813255, 13.132221652279203], [77.63341861161598, 13.119894151805191], [77.6275875276638, 13.095636818641617], [77.62162756804616, 13.071347679303603], [77.62108896450839, 13.069206815210473], [77.62013698799329, 13.065515991700408], [77.61964594268771, 13.064031141172359], [77.61665895701555, 13.054805580203448], [77.61596734524385, 13.052618139163693], [77.61342508344228, 13.044375697449293], [77.61309232006485, 13.043996667575932], [77.60341340848083, 13.033141873156843], [77.59750594718842, 13.0214543166557], [77.59363771296351, 13.013558294149549], [77.59332034184825, 13.012883970258976], [77.5927326004811, 13.011684381967985], [77.59108724586562, 13.008180321371894], [77.59099525395149, 13.007974528967253], [77.59041409408411, 13.006606087013967], [77.5896935519003, 13.004812006600167], [77.58928514393091, 13.003729777345344], [77.58747013213727, 12.99858099079858], [77.58598921862658, 12.993988145109565], [77.58470593485052, 12.99041618044979], [77.58451514674854, 12.989813749040348], [77.58383646149899, 12.987928811569345], [77.58355669679999, 12.987035860317173], [77.58350922740455, 12.986952379214651], [77.58341770671034, 12.986806499684112], [77.58311479285794, 12.986273258935974], [77.58295889897434, 12.986025429374605], [77.58236014007355, 12.985163401868286], [77.58213983906802, 12.984811148266752], [77.58163608102049, 12.984087416095955], [77.58125209639178, 12.983470013484421], [77.58099232162492, 12.983098347376336], [77.58084385252174, 12.98285879564979], [77.58035388055504, 12.982522832236114], [77.58005063573306, 12.982340306226918], [77.57809802377972, 12.980394498703268], [77.576657631127, 12.979192484800755], [77.57583945373051, 12.978320402530619], [77.57505195934043, 12.977716299337654], [77.57454296438463, 12.977108612771675], [77.57366346296092, 12.97653954156282], [77.57328326789829, 12.9757302089884], [77.5722995013392, 12.975983451246755], [77.57216650560974, 12.976514738140068], [77.57140901021326, 12.97715183174157], [77.57126909533986, 12.977397140785115], [77.57047953704206, 12.978116157865083], [77.57046665304102, 12.978134527317287], [77.57024727733364, 12.978336068576283], [77.56941198398958, 12.97883274973815], [77.56860997463033, 12.979520144653298], [77.56828014394826, 12.979731389530674], [77.5672497319222, 12.980603325758583], [77.56667147994996, 12.981210778494416], [77.56580584217488, 12.9819611234335], [77.56524888045152, 12.982530889951217], [77.5645431565396, 12.98315158459525], [77.5641340105034, 12.98356402612511], [77.56335672607084, 12.98425275270259], [77.56301262046873, 12.984595511589285], [77.56269574711295, 12.984877579238445], [77.5621503911568, 12.98548028889247], [77.56182190663034, 12.985653195407123], [77.56153406160942, 12.985823648948397], [77.5608641996572, 12.986176778777534], [77.56077113744763, 12.986231679054203], [77.56048159057806, 12.986270670910413], [77.55936443725935, 12.986367283842826]]]]}, "properties": {"line_id": "line_1", "name": "Green Line"}}