{"type": "Feature", "geometry": {"type": "Polygon", "coordinates": [[[77.5123023933062, 12.891936994121327], [77.51196507033299, 12.891571826282044], [77.51177626703004, 12.891373533620397], [77.51124180129415, 12.89079499291114], [77.5107490669917, 12.89027749431272], [77.51040207318678, 12.889829426241823], [77.50948244357673, 12.888678121642055], [77.50895964635166, 12.888043425450299], [77.5081683427558, 12.88726481197001], [77.50011795024852, 12.879575067016287], [77.49941243939759, 12.878920362071128], [77.49888296930044, 12.878442946239108], [77.49839690522424, 12.878017054478324], [77.49419738407128, 12.874542394923973], [77.488891195633, 12.86750036142902], [77.48728316358554, 12.865309715551382], [77.48723131969645, 12.865237249730832], [77.48658085203994, 12.8642539795526], [77.48625373365005, 12.863746301083747], [77.4571337489306, 12.813419136581148], [77.4554549, 12.8155877], [77.4553989, 12.8156617], [77.4549089, 12.8163104], [77.4548397, 12.8164021], [77.4547061, 12.8165792], [77.4546015, 12.8166384], [77.4546628, 12.8166595], [77.4545581, 12.8167182], [77.4545063, 12.8167471], [77.4544291, 12.8167904], [77.4541516, 12.8169459], [77.4541514, 12.816946], [77.4541374, 12.8169516], [77.4540464, 12.8169879], [77.4539675, 12.8170194], [77.4536935, 12.8171288], [77.4536139, 12.8171605], [77.4535499, 12.8172164], [77.4533709, 12.8173723], [77.4533203, 12.8174165], [77.4533176, 12.8174188], [77.4533202, 12.8174219], [77.453319, 12.817481], [77.4533132, 12.8177684], [77.4533131, 12.8177753], [77.4533122, 12.8178169], [77.4533624, 12.8178627], [77.4533112, 12.8178947], [77.453274, 12.8179179], [77.4532379, 12.8179405], [77.4532378, 12.8179405], [77.4531979, 12.8179077], [77.4531716, 12.8178861], [77.4530987, 12.817888], [77.4526424, 12.8180444], [77.4525703, 12.8181204], [77.4525154, 12.8181782], [77.4523314, 12.8181242], [77.4522891, 12.8180721], [77.4522792, 12.8180598], [77.4521731, 12.8181223], [77.4521447, 12.818139], [77.4520387, 12.8182014], [77.4519691, 12.818229], [77.451874, 12.8182666], [77.4518294, 12.8182842], [77.451794, 12.8183577], [77.451762, 12.8183703], [77.45174, 12.8184151], [77.4516933, 12.8185103], [77.4515975, 12.8184792], [77.4514677, 12.8184371], [77.4513567, 12.8184011], [77.4508532, 12.8184635], [77.4502978, 12.8185322], [77.4502615, 12.8184521], [77.4501398, 12.8184855], [77.4494229, 12.8186825], [77.4492385, 12.8187335], [77.4489793, 12.8180222], [77.4489673, 12.8178649], [77.44882, 12.817702], [77.4488138, 12.817695], [77.448756, 12.817631], [77.4485898, 12.8169544], [77.4485713, 12.816879], [77.448509, 12.8166243], [77.4483269, 12.8159029], [77.4482659, 12.8156672], [77.4482495, 12.8155904], [77.4482458, 12.8155895], [77.4482254, 12.8155106], [77.4468765, 12.8152068], [77.4468757, 12.8152067], [77.4468459, 12.8151939], [77.4468348, 12.8151892], [77.4467785, 12.8151654], [77.4466442, 12.8151341], [77.4464489, 12.814911], [77.4462935, 12.8145048], [77.4462477, 12.8142734], [77.4462474, 12.8142722], [77.4462563, 12.8138625], [77.4462041, 12.8133905], [77.4460511, 12.8127949], [77.4460314, 12.8126862], [77.446012, 12.8125796], [77.4459622, 12.8123051], [77.4458645, 12.8117587], [77.4458748, 12.8116503], [77.4459361, 12.8110042], [77.4460652, 12.8102681], [77.4462519, 12.8098229], [77.4462266, 12.8097456], [77.4461922, 12.8096403], [77.446173, 12.8095816], [77.4460251, 12.8095579], [77.4457668, 12.8095166], [77.4455846, 12.8094875], [77.4451063, 12.8095965], [77.4448331, 12.8096587], [77.4448163, 12.8096315], [77.4446609, 12.8093792], [77.4446027, 12.8092847], [77.4445545, 12.8091604], [77.444379, 12.808708], [77.4442246, 12.8084119], [77.4440431, 12.8080623], [77.4437702, 12.8073787], [77.4437556, 12.8071199], [77.4438018, 12.8070636], [77.4438518, 12.8070027], [77.4438729, 12.8069769], [77.4440012, 12.8068203], [77.4440069, 12.8066532], [77.4439509, 12.8066733], [77.4439276, 12.8066816], [77.4438121, 12.8067494], [77.4437287, 12.8067983], [77.44372, 12.8068034], [77.4436961, 12.8068175], [77.44357, 12.8069137], [77.4419164, 12.8081447], [77.4419137, 12.8081374], [77.4418897, 12.8081646], [77.4417336, 12.8083288], [77.4409746, 12.8091237], [77.440694, 12.8094175], [77.4402586, 12.8098708], [77.4401913, 12.80989], [77.4401028, 12.809915], [77.4395448, 12.8100729], [77.4393499, 12.8101437], [77.4389873, 12.8102752], [77.4388713, 12.8103172], [77.4388142, 12.8103379], [77.4384501, 12.8101514], [77.4366676, 12.8100826], [77.4366221, 12.8100421], [77.4365875, 12.8100113], [77.4364014, 12.8098461], [77.4362694, 12.80973], [77.4362152, 12.8096823], [77.4362447, 12.809875], [77.4363132, 12.8103237], [77.4363234, 12.8114091], [77.4364399, 12.8120769], [77.4363698, 12.8126282], [77.4363502, 12.8127824], [77.4360683, 12.8131599], [77.4358642, 12.8134333], [77.4355073, 12.8141599], [77.4349645, 12.814821], [77.4348968, 12.8149035], [77.4348575, 12.8149513], [77.4344417, 12.8156735], [77.4343942, 12.815756], [77.4342119, 12.8164672], [77.4341973, 12.816524], [77.4341617, 12.8168583], [77.4341227, 12.8172238], [77.434118, 12.8172678], [77.4341672, 12.8173686], [77.4342689, 12.8175772], [77.4344744, 12.8179984], [77.4349115, 12.8191526], [77.4349651, 12.8192851], [77.4350241, 12.8194307], [77.4352066, 12.8198814], [77.4350825, 12.8204803], [77.4347186, 12.8211712], [77.4341999, 12.8218127], [77.4339449, 12.822767], [77.4336046, 12.8232647], [77.4335974, 12.8232753], [77.4335009, 12.8234157], [77.4333472, 12.8232952], [77.4333446, 12.8232931], [77.4333037, 12.823261], [77.4331441, 12.8231359], [77.4329566, 12.823022], [77.4326088, 12.8228108], [77.429917, 12.8229927], [77.4298216, 12.8229964], [77.429763, 12.8229987], [77.429733, 12.8230095], [77.4296956, 12.823023], [77.4290947, 12.8232397], [77.4281162, 12.8236133], [77.4270679, 12.8240106], [77.426832, 12.8240996], [77.4260504, 12.8243936], [77.4258473, 12.8244655], [77.4255852, 12.824559], [77.4255652, 12.8245661], [77.4255241, 12.8245808], [77.425524, 12.8245808], [77.4244224, 12.8248913], [77.4237981, 12.8250909], [77.4236671, 12.8251328], [77.4205609, 12.8261256], [77.4205608, 12.8261256], [77.4199691, 12.8262259], [77.4199057, 12.8262366], [77.4202465, 12.8281437], [77.4202988, 12.8284295], [77.4203358, 12.8285919], [77.4203471, 12.8286416], [77.4205609, 12.8295752], [77.4205801, 12.8296587], [77.4206191, 12.8298283], [77.4211785, 12.8319738], [77.421187, 12.8320059], [77.4212741, 12.8322476], [77.4215817, 12.8330977], [77.421685, 12.8334246], [77.4217041, 12.8334845], [77.4219629, 12.8343008], [77.421978, 12.8343485], [77.4220815, 12.8346297], [77.4220829, 12.8346334], [77.4223099, 12.835251], [77.4223938, 12.8354782], [77.4224916, 12.8355639], [77.4229297, 12.8358015], [77.4229619, 12.835819], [77.42372, 12.8362347], [77.4238502, 12.8363061], [77.4238984, 12.8363326], [77.4239532, 12.8363628], [77.4247338, 12.836793], [77.4253907, 12.8371554], [77.426167, 12.8375833], [77.4299553, 12.8396834], [77.4300662, 12.8396699], [77.4300661, 12.8396698], [77.4299964, 12.8395755], [77.4299264, 12.8394808], [77.4296735, 12.8391327], [77.4296693, 12.8391269], [77.4296284, 12.8390741], [77.4298938, 12.839015], [77.4297569, 12.8387931], [77.4303001, 12.8386761], [77.4308958, 12.8385657], [77.4323451, 12.8383001], [77.4323951, 12.8389876], [77.4323924, 12.8390786], [77.4323898, 12.8391696], [77.4323873, 12.8393217], [77.4329391, 12.8391332], [77.4334885, 12.8389455], [77.4336144, 12.8389027], [77.4340532, 12.8387539], [77.4340873, 12.8387524], [77.4341228, 12.8387509], [77.4342754, 12.8387441], [77.4346565, 12.8387283], [77.4346547, 12.8387139], [77.4346515, 12.8386943], [77.4346838, 12.8386925], [77.4347617, 12.8393412], [77.4347684, 12.8393972], [77.4348775, 12.840306], [77.4348676, 12.8408941], [77.4348525, 12.8417926], [77.4346378, 12.8421845], [77.4346105, 12.8422343], [77.4343565, 12.8426979], [77.4339963, 12.8430152], [77.4337667, 12.8432174], [77.4337806, 12.8433027], [77.4338494, 12.8437235], [77.4339779, 12.8445136], [77.4341638, 12.8449951], [77.4342445, 12.8452043], [77.434302, 12.8453535], [77.434325, 12.8454131], [77.434352, 12.8454832], [77.4350776, 12.8463727], [77.435867, 12.8473398], [77.4366943, 12.8483527], [77.4367698, 12.8484451], [77.4368769, 12.8485761], [77.4373426, 12.8491461], [77.4377011, 12.8497418], [77.4376759, 12.8497561], [77.4376615, 12.8497644], [77.4375079, 12.8498518], [77.4374148, 12.8498999], [77.4374071, 12.8499038], [77.4373371, 12.8499399], [77.4369482, 12.8500425], [77.4369332, 12.8500465], [77.4344381, 12.8507155], [77.4340425, 12.8508215], [77.4339664, 12.8508419], [77.4339656, 12.8508421], [77.4330865, 12.8510842], [77.4330562, 12.8510839], [77.4318509, 12.8510756], [77.4318452, 12.8510756], [77.4315665, 12.8510745], [77.4315455, 12.8510743], [77.4312039, 12.8510712], [77.4311993, 12.8510711], [77.431105, 12.8510703], [77.4285533, 12.8510472], [77.4275544, 12.8510111], [77.4274864, 12.8510086], [77.4280114, 12.8519845], [77.4280309, 12.8520208], [77.4280329, 12.8520558], [77.4281942, 12.8526104], [77.4283982, 12.8533364], [77.4284548, 12.8535447], [77.4284816, 12.8536435], [77.4285945, 12.8540626], [77.4286345, 12.8542138], [77.4287171, 12.8545258], [77.4287761, 12.8547499], [77.4289592, 12.8553958], [77.4290866, 12.8558857], [77.4291096, 12.8559743], [77.4291151, 12.8559956], [77.4292013, 12.8563171], [77.4292057, 12.856323], [77.4292517, 12.8563841], [77.4293525, 12.8565181], [77.4293258, 12.8565788], [77.4292468, 12.8567583], [77.4292357, 12.8567837], [77.4290779, 12.8568537], [77.4290778, 12.8568537], [77.4290307, 12.8568749], [77.42828, 12.8572118], [77.4282159, 12.8572308], [77.4281213, 12.8572591], [77.4280101, 12.8572924], [77.4279162, 12.8573651], [77.4278449, 12.8574214], [77.4271823, 12.8579443], [77.4271327, 12.8579844], [77.4270476, 12.8580393], [77.4269922, 12.858077], [77.4265695, 12.858365], [77.4264801, 12.8584259], [77.4264797, 12.8584262], [77.4263337, 12.8585365], [77.4263337, 12.8585366], [77.4262352, 12.8585688], [77.4261478, 12.8585973], [77.4261029, 12.8586151], [77.4260955, 12.8587685], [77.4260881, 12.85892], [77.4260634, 12.8589551], [77.426037, 12.8589928], [77.4258894, 12.8591151], [77.4257214, 12.859147], [77.4255824, 12.8591734], [77.4255328, 12.8591828], [77.4255095, 12.859243], [77.4254658, 12.8593563], [77.425245, 12.8596215], [77.4252097, 12.859664], [77.4250657, 12.8598376], [77.4250285, 12.8598842], [77.4249967, 12.859924], [77.4249194, 12.860021], [77.4249029, 12.8600418], [77.424746, 12.8602389], [77.424713, 12.8602805], [77.4246488, 12.8603613], [77.4246411, 12.8603711], [77.4245564, 12.8604778], [77.424548, 12.8604885], [77.4243681, 12.8607156], [77.4243432, 12.860747], [77.424291, 12.8608131], [77.4231084, 12.8623175], [77.4231079, 12.8623181], [77.4227374, 12.8627925], [77.4226912, 12.8628517], [77.4221936, 12.86349], [77.4221898, 12.863497], [77.4221534, 12.8635643], [77.4221458, 12.8635815], [77.4219581, 12.8640067], [77.4217817, 12.8644063], [77.4216484, 12.8647082], [77.4216417, 12.8647234], [77.4216314, 12.8647468], [77.421596, 12.8648268], [77.4215509, 12.8649289], [77.4215203, 12.864998], [77.421462, 12.8651299], [77.421435, 12.8651909], [77.4213403, 12.8654056], [77.4213367, 12.8654139], [77.4212221, 12.8656735], [77.4212207, 12.8656767], [77.4212199, 12.8656786], [77.4212173, 12.8656844], [77.4212148, 12.8656901], [77.4212121, 12.8656963], [77.4212119, 12.8656966], [77.4212101, 12.8657007], [77.4212098, 12.8657014], [77.4212092, 12.8657028], [77.4212075, 12.8657066], [77.4212013, 12.8657207], [77.4208744, 12.8664608], [77.4208601, 12.866493], [77.4208429, 12.8665277], [77.4207705, 12.8666249], [77.4206374, 12.8668291], [77.4204156, 12.8671693], [77.4204152, 12.8671851], [77.4204115, 12.8671756], [77.4203939, 12.8671306], [77.420329, 12.8672177], [77.4201522, 12.8674549], [77.4187695, 12.8693493], [77.4189487, 12.8693706], [77.4188958, 12.8694498], [77.4188446, 12.8695265], [77.4206565, 12.8698184], [77.4208991, 12.869834], [77.4225137, 12.8698806], [77.4233905, 12.8700051], [77.4235342, 12.8700255], [77.4235582, 12.8700289], [77.4237667, 12.870059], [77.4239462, 12.870085], [77.4243284, 12.8701407], [77.4245857, 12.8701194], [77.4246642, 12.870113], [77.4262971, 12.8701111], [77.4278671, 12.8702726], [77.4282385, 12.870312], [77.4284572, 12.8702858], [77.428866, 12.870237], [77.4291019, 12.8702536], [77.4300319, 12.870217], [77.4300722, 12.8702154], [77.4302064, 12.8702101], [77.4303977, 12.8702014], [77.4305309, 12.8701927], [77.4305856, 12.8701891], [77.4305785, 12.8704158], [77.4305734, 12.8705687], [77.4305683, 12.8707067], [77.4305683, 12.8713102], [77.4305686, 12.8714711], [77.4305692, 12.8718068], [77.4307248, 12.8726066], [77.4307581, 12.8727766], [77.4308399, 12.8731949], [77.4309156, 12.8735814], [77.4311272, 12.8743019], [77.4311936, 12.8745347], [77.4312414, 12.8747024], [77.431301, 12.8749113], [77.430369, 12.8750095], [77.429582, 12.8750742], [77.4295431, 12.8750773], [77.4284912, 12.8751638], [77.4283466, 12.8751768], [77.428284, 12.8751824], [77.4282633, 12.8752304], [77.4282267, 12.8753156], [77.4281969, 12.8753848], [77.4281695, 12.8754487], [77.4281475, 12.8754999], [77.4281251, 12.8755521], [77.4279631, 12.8754418], [77.4279177, 12.8754108], [77.4277534, 12.8752977], [77.4276739, 12.8752429], [77.4275892, 12.8752256], [77.4273375, 12.8751753], [77.4272121, 12.8751502], [77.4268372, 12.8750752], [77.4267443, 12.8749699], [77.4254006, 12.8733443], [77.4245081, 12.8735827], [77.4243476, 12.8736121], [77.4235507, 12.8731517], [77.4219886, 12.8723101], [77.4210442, 12.8718202], [77.420456, 12.8715245], [77.4185461, 12.8713899], [77.4183847, 12.8713982], [77.4180044, 12.8714177], [77.4179081, 12.871427], [77.4176419, 12.8714548], [77.4152871, 12.8717412], [77.4152664, 12.8723997], [77.4157292, 12.8739689], [77.416103, 12.8751249], [77.4159604, 12.875232], [77.4157335, 12.8752544], [77.4154396, 12.8752835], [77.4146597, 12.875518], [77.4136625, 12.8757815], [77.4126588, 12.8759629], [77.4115515, 12.8761633], [77.41138, 12.8761943], [77.4109546, 12.876134], [77.4105255, 12.8760731], [77.4103905, 12.876054], [77.4099429, 12.8759906], [77.4089938, 12.875761], [77.4082896, 12.8755906], [77.4081923, 12.8755671], [77.4066092, 12.8745979], [77.4052603, 12.8741149], [77.405049, 12.8736872], [77.4036773, 12.8723229], [77.4029871, 12.8714757], [77.4028494, 12.8713067], [77.402591, 12.8709896], [77.4023422, 12.8703207], [77.4019543, 12.8692726], [77.4019212, 12.8689069], [77.4018439, 12.8680291], [77.4018124, 12.8676614], [77.4022615, 12.8660166], [77.4020944, 12.8656698], [77.4020816, 12.8656433], [77.401408, 12.8658166], [77.400411, 12.8660742], [77.3986465, 12.8672825], [77.3985028, 12.8673834], [77.3982367, 12.8675721], [77.3982274, 12.8675785], [77.3982274, 12.8675786], [77.3980883, 12.8676741], [77.3980882, 12.8676741], [77.3972443, 12.8682304], [77.39615, 12.8688863], [77.3961394, 12.8688912], [77.3961331, 12.8688941], [77.3954945, 12.8693307], [77.3954289, 12.8693758], [77.3954261, 12.8693777], [77.3951955, 12.8695366], [77.3949205, 12.8697261], [77.3949604, 12.8693991], [77.3950298, 12.8688056], [77.3951068, 12.867579], [77.3951116, 12.8674884], [77.3951501, 12.8667467], [77.3949265, 12.8667247], [77.3943194, 12.8666651], [77.3935406, 12.8665919], [77.3933996, 12.8663624], [77.3933112, 12.8662178], [77.3925729, 12.8659432], [77.3925728, 12.8659432], [77.3922007, 12.8654974], [77.3921065, 12.865389], [77.3920439, 12.8653247], [77.3919853, 12.8652643], [77.3917026, 12.864397], [77.3916408, 12.8642076], [77.3915268, 12.8638388], [77.391489, 12.8637164], [77.3912293, 12.8628758], [77.39122, 12.8628594], [77.3901514, 12.861031], [77.3898784, 12.8605414], [77.3898295, 12.8604141], [77.3894573, 12.8604366], [77.3891542, 12.8604536], [77.38905, 12.8603337], [77.3889958, 12.8602712], [77.3887249, 12.8599556], [77.3884961, 12.8597478], [77.3884953, 12.8597471], [77.388386, 12.859793], [77.3880464, 12.8599232], [77.3880092, 12.8599378], [77.3879313, 12.8599683], [77.3878682, 12.859993], [77.3878611, 12.8599888], [77.387852, 12.8599833], [77.3878359, 12.8599738], [77.3876118, 12.8598409], [77.38752, 12.8597864], [77.387384, 12.8597059], [77.3872145, 12.8596055], [77.3866756, 12.859266], [77.3865853, 12.8592015], [77.3864882, 12.8591906], [77.3863938, 12.859165], [77.3860698, 12.859077], [77.3858318, 12.8588656], [77.3858167, 12.8588522], [77.3858167, 12.8588521], [77.3852392, 12.8589916], [77.3849989, 12.8590487], [77.3848813, 12.8590767], [77.384617, 12.8587726], [77.3846055, 12.8587732], [77.3844667, 12.8587807], [77.384151, 12.858798], [77.3833459, 12.8581065], [77.3832687, 12.858064], [77.3832161, 12.8580351], [77.3831998, 12.8580261], [77.3831464, 12.8579968], [77.3831426, 12.8579942], [77.3830895, 12.8579581], [77.3830303, 12.8579178], [77.3826111, 12.8576425], [77.3823752, 12.857287], [77.382023, 12.857276], [77.3817453, 12.8571641], [77.381667, 12.8571968], [77.3816527, 12.8571993], [77.3815588, 12.8572157], [77.3809244, 12.8573252], [77.3808071, 12.8573453], [77.3806295, 12.857352], [77.3806286, 12.8573521], [77.3805048, 12.8573568], [77.3803335, 12.8573374], [77.3803284, 12.8573368], [77.3803254, 12.8573367], [77.3801195, 12.8573306], [77.3801185, 12.8573306], [77.3799784, 12.8573264], [77.3799918, 12.8572411], [77.3800307, 12.856993], [77.3800225, 12.8569882], [77.3794471, 12.8566543], [77.3793326, 12.8562015], [77.3793439, 12.8561426], [77.3793479, 12.8561229], [77.379452, 12.855603], [77.3794757, 12.8555408], [77.3794858, 12.8555142], [77.3794651, 12.8555045], [77.3794335, 12.8554898], [77.3794376, 12.8554893], [77.3795232, 12.8553406], [77.3795449, 12.8553029], [77.3795358, 12.8552982], [77.3794344, 12.8552459], [77.3782948, 12.8553603], [77.377081, 12.8554617], [77.3763145, 12.8555934], [77.3756033, 12.8557259], [77.3752763, 12.8557867], [77.3750633, 12.8558245], [77.3749266, 12.8558488], [77.374794, 12.8558454], [77.3747577, 12.8558444], [77.3746891, 12.8559088], [77.3746617, 12.8559346], [77.3738788, 12.856002], [77.3730224, 12.8558994], [77.3727315, 12.8559196], [77.3726414, 12.8559266], [77.3726236, 12.8559281], [77.3725699, 12.8559305], [77.3724891, 12.8559389], [77.372399, 12.8559537], [77.372391, 12.855955], [77.3723381, 12.8559867], [77.3722066, 12.8560653], [77.3721561, 12.8560954], [77.3719792, 12.8562008], [77.3713449, 12.8563867], [77.3712966, 12.8564009], [77.3699589, 12.8568123], [77.3698362, 12.8568512], [77.3697622, 12.8570605], [77.3697065, 12.8572183], [77.3693414, 12.8582699], [77.3692937, 12.8584074], [77.3691417, 12.8588519], [77.3688985, 12.8595939], [77.3688617, 12.8597063], [77.3686306, 12.8604209], [77.3686024, 12.860508], [77.368596, 12.8605281], [77.3685683, 12.8606143], [77.3684971, 12.8608371], [77.3680591, 12.8620399], [77.3678767, 12.862913], [77.367876, 12.8629165], [77.3675718, 12.8644349], [77.3674855, 12.8649645], [77.3674626, 12.8651059], [77.3674488, 12.8651921], [77.3674469, 12.8652035], [77.3674026, 12.8654815], [77.3673441, 12.8658477], [77.3673077, 12.8660805], [77.3672702, 12.8663353], [77.3672397, 12.8664598], [77.3670638, 12.8671776], [77.3670329, 12.8673046], [77.367013, 12.8673858], [77.3667254, 12.8684714], [77.3666534, 12.8686875], [77.3666343, 12.8687447], [77.3663788, 12.8695115], [77.3663172, 12.8696963], [77.366228, 12.8699686], [77.366228, 12.8699688], [77.3661794, 12.8701298], [77.3661454, 12.8702442], [77.3661457, 12.8702461], [77.3661403, 12.8702462], [77.3645743, 12.8702609], [77.3644246, 12.8702623], [77.3642126, 12.8702642], [77.3641761, 12.8702646], [77.3632778, 12.8702728], [77.3631788, 12.8702736], [77.3631447, 12.8702723], [77.3627339, 12.8702565], [77.3626077, 12.8702517], [77.360339, 12.8701646], [77.3590548, 12.8701076], [77.3588615, 12.870099], [77.3586959, 12.8700916], [77.3586343, 12.8700889], [77.3586454, 12.8702091], [77.3571905, 12.8699983], [77.356931, 12.8699598], [77.3568206, 12.8699441], [77.3567968, 12.8699407], [77.356749, 12.8699256], [77.3566923, 12.8699077], [77.3565929, 12.8698762], [77.3565028, 12.8698544], [77.3564605, 12.8698442], [77.3563905, 12.8698446], [77.3557471, 12.8698488], [77.3556647, 12.8698441], [77.3555441, 12.8698373], [77.3555082, 12.8698352], [77.3554646, 12.8698327], [77.3551416, 12.869821], [77.3551407, 12.869821], [77.3551304, 12.8698212], [77.3551289, 12.8698212], [77.3551267, 12.8698212], [77.355077, 12.869821], [77.3549182, 12.8698204], [77.3549044, 12.8698204], [77.3548765, 12.8698203], [77.3548512, 12.8698202], [77.3548475, 12.8698202], [77.3547609, 12.8698199], [77.3547608, 12.8698199], [77.3547099, 12.8698197], [77.3547066, 12.8698197], [77.3547031, 12.8698197], [77.3547009, 12.8698197], [77.3546637, 12.8698195], [77.3546363, 12.8698194], [77.3545495, 12.8698191], [77.3545436, 12.8698191], [77.3545397, 12.8698191], [77.354483, 12.8698189], [77.354455, 12.8698175], [77.354448, 12.8698172], [77.3544438, 12.869817], [77.3543963, 12.8698147], [77.354366, 12.8698133], [77.3543498, 12.8698125], [77.3541826, 12.8697981], [77.3541656, 12.8697987], [77.3541574, 12.869799], [77.3540087, 12.8698042], [77.3540038, 12.8698044], [77.3539016, 12.8698079], [77.3538951, 12.8698082], [77.3538855, 12.8698075], [77.3538798, 12.8698071], [77.3538789, 12.869807], [77.3538598, 12.8698082], [77.3538165, 12.8698109], [77.3537977, 12.8698116], [77.3537836, 12.8698122], [77.3537383, 12.869814], [77.3537315, 12.8698143], [77.3537168, 12.8698149], [77.3536643, 12.869817], [77.3536538, 12.8698174], [77.3534015, 12.8698275], [77.3531119, 12.8698466], [77.3530889, 12.8698537], [77.3530782, 12.869857], [77.3530661, 12.8698607], [77.3530538, 12.8698645], [77.3530385, 12.8698694], [77.3530309, 12.8698717], [77.3528705, 12.8699225], [77.3528284, 12.869934], [77.3525368, 12.8700139], [77.3524832, 12.8700287], [77.3524797, 12.8700296], [77.3523988, 12.8700724], [77.3523835, 12.8700814], [77.3523643, 12.8700927], [77.3522983, 12.870131], [77.3522255, 12.8701733], [77.352208, 12.8701673], [77.3521403, 12.8701431], [77.3521201, 12.8701359], [77.3520592, 12.8701142], [77.3519858, 12.8700882], [77.3517945, 12.8700202], [77.3517046, 12.8699886], [77.3515235, 12.8699253], [77.3514845, 12.8699117], [77.3514284, 12.8698953], [77.3510849, 12.8697947], [77.3507158, 12.8696884], [77.3506444, 12.869686], [77.3505288, 12.869682], [77.3504695, 12.86968], [77.3502842, 12.8696737], [77.3497526, 12.869652], [77.3494375, 12.86964], [77.3491804, 12.8696302], [77.349067, 12.869626], [77.3488808, 12.8696249], [77.3488013, 12.8696245], [77.3486767, 12.8696238], [77.3486273, 12.8696236], [77.3484067, 12.8696224], [77.3467075, 12.8698025], [77.346603, 12.8698137], [77.3466027, 12.8698138], [77.3452262, 12.8699623], [77.3452235, 12.8702363], [77.3449475, 12.8702593], [77.3443384, 12.8703101], [77.3440713, 12.8703324], [77.344068, 12.8704232], [77.3440537, 12.8708137], [77.3440392, 12.8712099], [77.3440343, 12.8713438], [77.343976, 12.8729364], [77.3439545, 12.8735012], [77.3439298, 12.8741504], [77.3438931, 12.8751136], [77.34389, 12.8751968], [77.3440582, 12.87539], [77.3449826, 12.8764518], [77.3444237, 12.8764926], [77.34442, 12.8764928], [77.3431486, 12.8765543], [77.3419132, 12.8766297], [77.3419102, 12.8766299], [77.3410039, 12.8766663], [77.340993, 12.8766668], [77.3400067, 12.8767294], [77.339119, 12.8767875], [77.337559, 12.8768732], [77.3373189, 12.8768832], [77.3373103, 12.8768835], [77.3369018, 12.876889], [77.3366061, 12.8768929], [77.3366056, 12.8769129], [77.3366037, 12.8769973], [77.3365916, 12.8775127], [77.3365899, 12.877586], [77.3365749, 12.8782263], [77.3365548, 12.878314], [77.3363811, 12.8790733], [77.3363611, 12.8791608], [77.3363204, 12.8793217], [77.3361899, 12.879837], [77.3361488, 12.8799993], [77.3361479, 12.8800057], [77.3361403, 12.8803236], [77.3362666, 12.8808157], [77.3363, 12.8809461], [77.3364079, 12.8813663], [77.3366387, 12.8821199], [77.3365718, 12.8821516], [77.3365375, 12.8821679], [77.3364078, 12.8822294], [77.336332, 12.8822573], [77.3363505, 12.8823119], [77.3366372, 12.8830907], [77.3366708, 12.883182], [77.3360178, 12.8837221], [77.3358304, 12.8840107], [77.335688, 12.8840227], [77.3355988, 12.8838693], [77.3356286, 12.8835284], [77.3351939, 12.8835645], [77.3345983, 12.8835842], [77.3323304, 12.8860197], [77.3322935, 12.8862066], [77.3321481, 12.8869299], [77.332148, 12.8869307], [77.3321272, 12.8870397], [77.3321121, 12.8871188], [77.332109, 12.8871354], [77.3322645, 12.8872389], [77.332478, 12.8874032], [77.3325231, 12.8874365], [77.3326274, 12.8875118], [77.333198, 12.8878965], [77.3335838, 12.8877173], [77.3342625, 12.8877684], [77.3344361, 12.8877815], [77.3348038, 12.8876132], [77.335542, 12.8875811], [77.3356332, 12.8875771], [77.3358224, 12.8866932], [77.3366283, 12.8869069], [77.3366469, 12.8869118], [77.3368379, 12.886992], [77.3368455, 12.8869952], [77.3368561, 12.8869996], [77.3370543, 12.8870875], [77.3371429, 12.8871025], [77.337457, 12.8871556], [77.3379161, 12.8873882], [77.3384212, 12.8874626], [77.3384213, 12.8874626], [77.3387217, 12.8875352], [77.3434263, 12.8887333], [77.343547, 12.8887641], [77.3435509, 12.8887651], [77.3434896, 12.889042], [77.3434251, 12.8893337], [77.3433453, 12.8896942], [77.3432951, 12.8899259], [77.3423689, 12.8941984], [77.3412786, 12.9002056], [77.3400168, 12.9039912], [77.3400154, 12.9039954], [77.3398408, 12.9045199], [77.3388463, 12.9106513], [77.3392236, 12.9116936], [77.3392361, 12.9117283], [77.3393214, 12.9119644], [77.3393399, 12.9120157], [77.3394485, 12.9123165], [77.3394573, 12.912341], [77.3394861, 12.9124208], [77.3394856, 12.9124247], [77.3395129, 12.9125523], [77.3395532, 12.9127404], [77.3396032, 12.9154963], [77.3396738, 12.9195223], [77.3397574, 12.9237992], [77.3397806, 12.9249847], [77.3397978, 12.9258617], [77.3397992, 12.9259344], [77.3398061, 12.9262803], [77.3398125, 12.9266018], [77.3398187, 12.9266923], [77.3400749, 12.9304488], [77.3401512, 12.9315676], [77.3402881, 12.9335751], [77.3391322, 12.9332243], [77.3381726, 12.932933], [77.3377588, 12.9327985], [77.3364792, 12.9323828], [77.3364246, 12.9323812], [77.3361759, 12.932374], [77.3359887, 12.9323687], [77.3359354, 12.9339618], [77.3359421, 12.934679], [77.3358886, 12.9352102], [77.3357908, 12.9375818], [77.3355915, 12.9397166], [77.3356495, 12.9403914], [77.3354853, 12.9420635], [77.3353669, 12.9437411], [77.3353448, 12.9442885], [77.3352836, 12.9457183], [77.335133, 12.9476747], [77.3344409, 12.9489903], [77.3343461, 12.9492872], [77.3343164, 12.9493801], [77.33429, 12.9494627], [77.3341203, 12.9494395], [77.3338596, 12.9493639], [77.3337808, 12.9493467], [77.3335528, 12.9492967], [77.3324686, 12.9490592], [77.3321137, 12.9508543], [77.3321036, 12.9509148], [77.3320775, 12.9510709], [77.3319792, 12.9516591], [77.3319457, 12.9518594], [77.3313558, 12.9554055], [77.3313365, 12.955526], [77.3311568, 12.9566455], [77.331079, 12.9571301], [77.3310097, 12.9577595], [77.3308825, 12.958915], [77.3306669, 12.9601196], [77.3306402, 12.9602689], [77.3301198, 12.9631761], [77.3301043, 12.963263], [77.3301011, 12.9633897], [77.3300807, 12.9642117], [77.3300803, 12.9642284], [77.3300777, 12.9643308], [77.3300681, 12.9647092], [77.3300544, 12.965248], [77.3300526, 12.9653178], [77.3300499, 12.9654239], [77.3300545, 12.9655821], [77.3300557, 12.9656213], [77.3300599, 12.9657647], [77.3300603, 12.9657783], [77.3300604, 12.9657802], [77.3300568, 12.9657815], [77.3300293, 12.965791], [77.3300146, 12.9657962], [77.329984, 12.9658068], [77.3299165, 12.9658304], [77.3294192, 12.9660039], [77.329005, 12.9663254], [77.3276297, 12.9673845], [77.3274131, 12.9676205], [77.3266922, 12.9684059], [77.3266665, 12.9684194], [77.326657, 12.9684244], [77.3264634, 12.9685257], [77.3262639, 12.9684062], [77.32618, 12.9683559], [77.3261798, 12.9683566], [77.3260876, 12.9687494], [77.3262561, 12.9690731], [77.3262561, 12.9690732], [77.3261543, 12.9695492], [77.3261392, 12.9696198], [77.3261066, 12.969772], [77.3258257, 12.9699909], [77.3257317, 12.9702641], [77.3256376, 12.9714735], [77.3256052, 12.9718966], [77.3257652, 12.9729028], [77.3256786, 12.9729103], [77.3256372, 12.9729138], [77.325578, 12.9728612], [77.32559, 12.9729178], [77.3258926, 12.9743626], [77.325595, 12.9757638], [77.3255304, 12.976003], [77.3255306, 12.9760031], [77.3257699, 12.9761128], [77.3259417, 12.9761916], [77.3270922, 12.9768359], [77.3272214, 12.9768408], [77.3272686, 12.9768426], [77.3273612, 12.976846], [77.3287124, 12.9769013], [77.3287004, 12.9769987], [77.3287698, 12.9770671], [77.3287731, 12.9770704], [77.3287751, 12.9770724], [77.3287755, 12.9770706], [77.3287855, 12.9770714], [77.3288449, 12.9770763], [77.3289058, 12.9770813], [77.3290025, 12.9771408], [77.3290154, 12.9771488], [77.329086, 12.9771921], [77.3291871, 12.9772543], [77.3292043, 12.9772649], [77.3292371, 12.9772818], [77.3292969, 12.9773126], [77.3293542, 12.9773421], [77.3295663, 12.9774513], [77.3296002, 12.9774688], [77.3299876, 12.9776699], [77.3299879, 12.97767], [77.3300052, 12.9776786], [77.3300242, 12.9776889], [77.3300477, 12.9777011], [77.3300775, 12.9777166], [77.3301106, 12.9777337], [77.3301291, 12.9777433], [77.3301584, 12.9777585], [77.3301893, 12.9777746], [77.330225, 12.9777931], [77.3302561, 12.9778092], [77.3302794, 12.9778213], [77.3302838, 12.9778235], [77.3302841, 12.9778236], [77.3303011, 12.9778315], [77.3303296, 12.9778446], [77.33036, 12.9778586], [77.3303928, 12.9778737], [77.3304197, 12.9778861], [77.3304458, 12.9778982], [77.3304788, 12.9779134], [77.3304957, 12.9779208], [77.3305057, 12.9779258], [77.3305128, 12.9779288], [77.3306163, 12.9779768], [77.3306479, 12.9779913], [77.3307041, 12.9780173], [77.3307897, 12.9780567], [77.3308085, 12.9780612], [77.3309411, 12.9781135], [77.3311824, 12.9782086], [77.3314286, 12.978251], [77.3316303, 12.9782544], [77.3321951, 12.9782643], [77.3324711, 12.9782691], [77.3328657, 12.9784795], [77.3333361, 12.978561], [77.3340157, 12.9786041], [77.3343611, 12.9786667], [77.3347567, 12.9786555], [77.3348372, 12.9786639], [77.3348853, 12.9786688], [77.3350316, 12.978654], [77.3353841, 12.9785973], [77.3358339, 12.9785186], [77.3359337, 12.9784913], [77.336043, 12.9784508], [77.3361691, 12.9784059], [77.336241, 12.9783963], [77.3362553, 12.9783944], [77.3364954, 12.9783365], [77.3366376, 12.9783181], [77.3374162, 12.9783607], [77.337447, 12.9784146], [77.337614, 12.978376], [77.3376198, 12.9783746], [77.3375966, 12.9782841], [77.3375689, 12.9780447], [77.3374895, 12.9774437], [77.3374719, 12.9773106], [77.3374717, 12.9773095], [77.3373582, 12.9764715], [77.3373407, 12.976322], [77.3373816, 12.9761457], [77.3374678, 12.9757738], [77.3375899, 12.975281], [77.3376265, 12.9750724], [77.3376349, 12.9746996], [77.3376458, 12.9742089], [77.3376492, 12.9740553], [77.337652, 12.9739296], [77.337652, 12.9739295], [77.3376555, 12.9737689], [77.3376601, 12.9737029], [77.3377819, 12.9736087], [77.3379161, 12.9735048], [77.3381182, 12.9733596], [77.3381773, 12.9732954], [77.3382775, 12.973143], [77.338469, 12.9728299], [77.3385127, 12.9727585], [77.3385324, 12.9727262], [77.3385481, 12.9727109], [77.3385696, 12.9726898], [77.3385946, 12.9726863], [77.3386011, 12.9726872], [77.3386101, 12.9726865], [77.3386438, 12.9726931], [77.3387629, 12.9727306], [77.3387988, 12.972746], [77.3388686, 12.972425], [77.3389969, 12.9724559], [77.3391172, 12.9724849], [77.3416018, 12.9730829], [77.3421375, 12.9731515], [77.3423702, 12.9731813], [77.3448098, 12.9734939], [77.3462174, 12.973942], [77.3479349, 12.9741287], [77.3495285, 12.974302], [77.3496485, 12.9743151], [77.3499023, 12.9743427], [77.3499263, 12.9743868], [77.3503648, 12.9751955], [77.3510704, 12.9758057], [77.3511489, 12.9757932], [77.3512548, 12.9757763], [77.3515683, 12.9757262], [77.3518781, 12.9756767], [77.3519213, 12.9757476], [77.3524339, 12.9765911], [77.3536594, 12.9781893], [77.3537328, 12.9786772], [77.3537496, 12.9787888], [77.3538098, 12.9791889], [77.3542725, 12.9812867], [77.3543162, 12.9814846], [77.3546109, 12.9828205], [77.35464558770063, 12.983587624855705], [77.38877259359984, 12.981707668860023], [77.40382921317413, 12.980946130844542], [77.40490684219861, 12.980896950081952], [77.41798978244279, 12.981066073900658], [77.41950201479351, 12.981093783049463], [77.43391636172049, 12.981436425094069], [77.43437223052659, 12.981449931909035], [77.44981417558621, 12.98419996493213], [77.45242114673741, 12.984646647609667], [77.45405106541922, 12.984914789532144], [77.45417784207268, 12.984942604758366], [77.45430036777034, 12.984972937404356], [77.4548574728448, 12.985106894220063], [77.4556894455431, 12.98525442594369], [77.45772998264883, 12.985602032010853], [77.45882041291595, 12.985780088959858], [77.45930413978465, 12.985855644419901], [77.45957951884259, 12.985906172136108], [77.46109333631402, 12.9861730632348], [77.46226732491851, 12.986371541326355], [77.46339968718863, 12.986554735204475], [77.46346051939778, 12.986564131145085], [77.46425621304685, 12.98669282329054], [77.46453677621209, 12.98674856792372], [77.46475865671472, 12.986790993995259], [77.46629864141025, 12.987073955720604], [77.46788509863603, 12.987353501995132], [77.46950558785494, 12.987626720260872], [77.47315320524321, 12.988213713137055], [77.47418623406688, 12.988347609048544], [77.47452827189625, 12.988389257360394], [77.4753023014611, 12.988714926566317], [77.47535474810635, 12.988736512346003], [77.47599653778516, 12.989006535191562], [77.47662568168417, 12.989265422148524], [77.47733487063546, 12.989563838798432], [77.47789590876923, 12.989794647612085], [77.47915999692445, 12.990326615949265], [77.47917944294399, 12.990334987017347], [77.48016546893929, 12.990749918659853], [77.48062070510483, 12.990937065225333], [77.4824030483821, 12.991775860770783], [77.48368013642451, 12.992363629729795], [77.48495149755774, 12.9929354570828], [77.48626523757461, 12.993512471623617], [77.48782253044863, 12.994213131804088], [77.49187289643041, 12.995732505265485], [77.49773243673052, 12.997372323965658], [77.49981148260879, 12.997930518995934], [77.50053446187577, 12.998107820365966], [77.50179458526891, 12.998402156399383], [77.5030080697668, 12.998671251740745], [77.50316740382998, 12.998704675490037], [77.50486479877803, 12.999040456480097], [77.50951332591984, 12.999903269487705], [77.51146705808925, 12.999283578212424], [77.5125663837431, 12.998950674655536], [77.51380810259187, 12.99855611491149], [77.51588291196681, 12.99786457210172], [77.5172090464991, 12.9974005535735], [77.51824438879216, 12.99702025931091], [77.52068363354519, 12.996080019718265], [77.52328207200023, 12.99502695091331], [77.52963223245985, 12.992314454785928], [77.53329479258758, 12.990648544277969], [77.53679544286733, 12.989168670079867], [77.53790838798382, 12.988738380584092], [77.53911288325823, 12.98831692912463], [77.54041980438006, 12.987908610303421], [77.54271951135784, 12.987278287668548], [77.54462700625301, 12.98683233016307], [77.54501902090874, 12.986724563171734], [77.54569954476679, 12.986566362347434], [77.54848111529219, 12.98626539963403], [77.55068566342189, 12.98644394910795], [77.55338313136347, 12.986782041888212], [77.5539414754141, 12.986826937348056], [77.55492391756091, 12.986950046826914], [77.55536450235029, 12.987025099448163], [77.55563661551359, 12.986975685420976], [77.55594647719938, 12.98690516670823], [77.55661947602994, 12.98678311865578], [77.5566355002891, 12.986779460672226], [77.55760694014582, 12.986603253797197], [77.55936443725935, 12.986367283842826], [77.56048159057806, 12.986270670910413], [77.56077113744763, 12.986231679054203], [77.5608641996572, 12.986176778777534], [77.56153406160942, 12.985823648948397], [77.56182190663034, 12.985653195407123], [77.5621503911568, 12.98548028889247], [77.56269574711295, 12.984877579238445], [77.56301262046873, 12.984595511589285], [77.56335672607084, 12.98425275270259], [77.5641340105034, 12.98356402612511], [77.5645431565396, 12.98315158459525], [77.56524888045152, 12.982530889951217], [77.56580584217488, 12.9819611234335], [77.56667147994996, 12.981210778494416], [77.5672497319222, 12.980603325758583], [77.56828014394826, 12.979731389530674], [77.56860997463033, 12.979520144653298], [77.56941198398958, 12.97883274973815], [77.57024727733364, 12.978336068576283], [77.57046665304102, 12.978134527317287], [77.57047953704206, 12.978116157865083], [77.57126909533986, 12.977397140785115], [77.57140901021326, 12.97715183174157], [77.57216650560974, 12.976514738140068], [77.5722995013392, 12.975983451246755], [77.57328326789829, 12.9757302089884], [77.57366346296092, 12.97653954156282], [77.57454296438463, 12.977108612771675], [77.57505195934043, 12.977716299337654], [77.57583945373051, 12.978320402530619], [77.576657631127, 12.979192484800755], [77.57809802377972, 12.980394498703268], [77.58005063573306, 12.982340306226918], [77.58035388055504, 12.982522832236114], [77.58084385252174, 12.98285879564979], [77.58099232162492, 12.983098347376336], [77.58125209639178, 12.983470013484421], [77.58163608102049, 12.984087416095955], [77.58213983906802, 12.984811148266752], [77.58236014007355, 12.985163401868286], [77.58295889897434, 12.986025429374605], [77.58311479285794, 12.986273258935974], [77.58341770671034, 12.986806499684112], [77.58350922740455, 12.986952379214651], [77.58355669679999, 12.987035860317173], [77.58383646149899, 12.987928811569345], [77.58451514674854, 12.989813749040348], [77.58470593485052, 12.99041618044979], [77.58598921862658, 12.993988145109565], [77.58747013213727, 12.99858099079858], [77.58928514393091, 13.003729777345344], [77.5896935519003, 13.004812006600167], [77.59041409408411, 13.006606087013967], [77.59099525395149, 13.007974528967253], [77.59108724586562, 13.008180321371894], [77.5927326004811, 13.011684381967985], [77.59332034184825, 13.012883970258976], [77.59363771296351, 13.013558294149549], [77.59750594718842, 13.0214543166557], [77.60341340848083, 13.033141873156843], [77.61309232006485, 13.043996667575932], [77.61342508344228, 13.044375697449293], [77.61596734524385, 13.052618139163693], [77.61665895701555, 13.054805580203448], [77.61964594268771, 13.064031141172359], [77.62013698799329, 13.065515991700408], [77.62108896450839, 13.069206815210473], [77.62162756804616, 13.071347679303603], [77.6275875276638, 13.095636818641617], [77.63341861161598, 13.119894151805191], [77.63564130813255, 13.132221652279203], [77.64063354001824, 13.159350020091278], [77.64565540770433, 13.187111593484328], [77.6466058082552, 13.19228742977569], [77.64730952466759, 13.196065052347462], [77.64732042695194, 13.196122766233616], [77.64808092808802, 13.20009362058981], [77.6490815, 13.1999984], [77.6503385, 13.1999049], [77.6504138, 13.1998963], [77.6504948, 13.1998897], [77.6513835, 13.1998144], [77.6514839, 13.1998056], [77.6524636, 13.1997201], [77.6525409, 13.1997144], [77.6528665, 13.1996856], [77.6533681, 13.1996412], [77.6535368, 13.1996264], [77.6544731, 13.1995435], [77.654608, 13.1995316], [77.6555913, 13.1994486], [77.6556797, 13.1994403], [77.6566959, 13.1993366], [77.6567563, 13.1993318], [77.6572209, 13.1992965], [77.6571222, 13.1992386], [77.6567727, 13.1990338], [77.6566698, 13.198668], [77.6566241, 13.1985787], [77.6565879, 13.1985078], [77.6565436, 13.1984219], [77.6563747, 13.1980943], [77.6560182, 13.1975099], [77.6560113, 13.1974959], [77.6556075, 13.1966689], [77.6555791, 13.1966083], [77.6555518, 13.1965502], [77.6552643, 13.1959375], [77.6531429, 13.1914161], [77.6517841, 13.1905946], [77.6514577, 13.1904002], [77.6508525, 13.1904238], [77.6505077, 13.190229], [77.6530943, 13.1889184], [77.6535826, 13.1886744], [77.6540388, 13.1884446], [77.6613894, 13.1844726], [77.6619382, 13.1847671], [77.662563, 13.1851025], [77.6636551, 13.1856915], [77.664161, 13.1858513], [77.6643032, 13.1858129], [77.6647141, 13.185702], [77.6647628, 13.1857267], [77.6652206, 13.1858509], [77.665775, 13.1856486], [77.666551, 13.1853629], [77.667316, 13.1850812], [77.667399, 13.1850506], [77.6675392, 13.185504], [77.6675577, 13.1855638], [77.6675669, 13.18556], [77.6677884, 13.185494], [77.6679033, 13.1854598], [77.6680902, 13.1854042], [77.6683314, 13.1853323], [77.6683615, 13.1853311], [77.668711, 13.1853172], [77.6688938, 13.1853054], [77.6700839, 13.1853001], [77.6702812, 13.1852993], [77.6709966, 13.1852961], [77.6710007, 13.1853507], [77.6710198, 13.1856393], [77.6711815, 13.1856866], [77.6711815, 13.1856903], [77.6711807, 13.1857558], [77.6711751, 13.1862017], [77.6711674, 13.1868079], [77.6711657, 13.1869397], [77.671165, 13.1869809], [77.6711526, 13.1877125], [77.6711589, 13.188064], [77.6711645, 13.188375], [77.671177, 13.1892032], [77.6711757, 13.1895327], [77.6711745, 13.1898551], [77.6711774, 13.190087], [77.6711775, 13.1900993], [77.6711825, 13.1905606], [77.6711903, 13.1914302], [77.6711917, 13.1915092], [77.6712363, 13.1914871], [77.6712376, 13.1916562], [77.6712383, 13.1917466], [77.6720365, 13.1912827], [77.672188, 13.1911946], [77.6730686, 13.1906828], [77.6732601, 13.1905664], [77.673308, 13.1905376], [77.6734188, 13.1904713], [77.6735061, 13.1904196], [77.6739223, 13.1902768], [77.6743641, 13.1902107], [77.6749656, 13.1903762], [77.6750099, 13.1903884], [77.6753566, 13.1904952], [77.6754305, 13.1903187], [77.6756859, 13.190335], [77.675737, 13.1903382], [77.6765852, 13.1904896], [77.6766402, 13.190499], [77.6767278, 13.1905139], [77.6767932, 13.190525], [77.6772564, 13.1905801], [77.6777633, 13.1906405], [77.6788865, 13.1907764], [77.6789271, 13.1907813], [77.678941, 13.1907851], [77.6793364, 13.1908921], [77.6793569, 13.1908901], [77.6797684, 13.1908598], [77.6798101, 13.1908567], [77.6798235, 13.1908589], [77.6801104, 13.1909052], [77.6804836, 13.1909653], [77.6805357, 13.1909737], [77.6807866, 13.1910224], [77.6809616, 13.1910563], [77.680989, 13.1910616], [77.6811599, 13.1910947], [77.6817478, 13.1912086], [77.6817914, 13.191217], [77.6824864, 13.1913313], [77.6828237, 13.1914042], [77.682867, 13.1914136], [77.6829916, 13.1914363], [77.683654, 13.1916662], [77.683647, 13.191673], [77.6836549, 13.1916779], [77.6836588, 13.1916803], [77.6842069, 13.1920329], [77.6868993, 13.1937603], [77.6869008, 13.1938061], [77.686943, 13.1951045], [77.6869507, 13.1953403], [77.6869513, 13.195355], [77.6870058, 13.1965861], [77.6871018, 13.1986466], [77.6870574, 13.1992999], [77.6870359, 13.1996159], [77.6870111, 13.1999815], [77.686999, 13.2001595], [77.6868395, 13.2025072], [77.6868671, 13.2025982], [77.6870076, 13.203063], [77.6871069, 13.203058], [77.6894993, 13.2029357], [77.68967, 13.202927], [77.6897326, 13.2029239], [77.6898853, 13.202925], [77.6898939, 13.2029243], [77.6904886, 13.2028784], [77.6925337, 13.1987338], [77.692613, 13.1985501], [77.6926688, 13.1984401], [77.6946156, 13.1946036], [77.6947984, 13.1942735], [77.6953699, 13.1938886], [77.6954841, 13.1938108], [77.6956255, 13.1937143], [77.6968528, 13.1928667], [77.6969835, 13.1927698], [77.6970216, 13.1927415], [77.6973825, 13.192473], [77.6975222, 13.1923688], [77.697882, 13.1921001], [77.6979071, 13.1920813], [77.6985463, 13.1920533], [77.6992338, 13.1920231], [77.6992588, 13.192022], [77.6991839, 13.191641], [77.699183, 13.1916362], [77.6993842, 13.1915364], [77.699439, 13.1915092], [77.6994419, 13.1915088], [77.6994732, 13.1914929], [77.6995143, 13.1914721], [77.6994395, 13.1912271], [77.6994138, 13.1911384], [77.6993202, 13.1908163], [77.6993369, 13.190807], [77.6996108, 13.1906548], [77.6999433, 13.1903123], [77.6999845, 13.1902699], [77.6999881, 13.1902695], [77.700106, 13.1902568], [77.7001088, 13.1902565], [77.7001405, 13.1902531], [77.7001934, 13.1902474], [77.7003676, 13.1902286], [77.7003738, 13.1902279], [77.7006228, 13.1902011], [77.7007858, 13.1901699], [77.7007898, 13.1901692], [77.7010974, 13.1901104], [77.7015485, 13.1899897], [77.7019251, 13.1899345], [77.7020707, 13.1899195], [77.7020738, 13.1899192], [77.7026154, 13.1898634], [77.7032318, 13.1897332], [77.7032614, 13.189727], [77.7043714, 13.1898061], [77.7043732, 13.1898062], [77.7053764, 13.1898779], [77.7053887, 13.1898788], [77.7055177, 13.189888], [77.7063049, 13.1899383], [77.706315, 13.189939], [77.7075652, 13.1900186], [77.707573, 13.1900191], [77.7081239, 13.1900541], [77.7083958, 13.1900713], [77.708956, 13.190236], [77.7091292, 13.1904551], [77.7091432, 13.1904728], [77.7097432, 13.1912321], [77.7097578, 13.1912506], [77.7118118, 13.1939842], [77.7118526, 13.1940385], [77.7129615, 13.195516], [77.7130363, 13.1956156], [77.713091, 13.1956886], [77.7134914, 13.196222], [77.7135495, 13.1962995], [77.714031, 13.1961672], [77.714167, 13.1961298], [77.7187229, 13.1948776], [77.7188935, 13.1948307], [77.7239622, 13.1934375], [77.7240924, 13.1934017], [77.7241176, 13.1933947], [77.7241774, 13.1933783], [77.7251379, 13.1931143], [77.7260432, 13.1928654], [77.7260597, 13.1928609], [77.7260669, 13.1928589], [77.7264176, 13.1927613], [77.7265218, 13.1927323], [77.7265752, 13.1927174], [77.7272425, 13.1925291], [77.7272677, 13.1925113], [77.7274294, 13.1919885], [77.7274299, 13.1919867], [77.7281879, 13.1895369], [77.7287313, 13.1877802], [77.7291, 13.1865886], [77.7291962, 13.1862776], [77.7293369, 13.1858227], [77.7292827, 13.1857521], [77.7291272, 13.1853202], [77.7290651, 13.185063], [77.7290493, 13.1849976], [77.7290371, 13.1849473], [77.7287569, 13.1837876], [77.7286454, 13.1833258], [77.7286187, 13.183215], [77.7286134, 13.1831933], [77.7282916, 13.1820895], [77.7282766, 13.1820381], [77.7282692, 13.1820171], [77.7281995, 13.1818179], [77.7280484, 13.1813864], [77.7279422, 13.1808259], [77.7279223, 13.1807205], [77.7279136, 13.1806747], [77.7277825, 13.1800797], [77.7277734, 13.1800382], [77.7276404, 13.1795144], [77.7276305, 13.1794754], [77.7274422, 13.1789937], [77.7274385, 13.1789844], [77.7274331, 13.1789704], [77.7273886, 13.1788011], [77.7273343, 13.178594], [77.72726, 13.1781844], [77.7272457, 13.1781349], [77.7271919, 13.1779493], [77.7271307, 13.1777381], [77.727026, 13.1773102], [77.7269635, 13.1769691], [77.7268671, 13.1766536], [77.7267759, 13.1763317], [77.7267356, 13.1762637], [77.7266968, 13.176198], [77.7266187, 13.1760856], [77.7288183, 13.1745543], [77.7301712, 13.1735701], [77.7301808, 13.1735631], [77.730259, 13.1735066], [77.73003, 13.1728318], [77.7298514, 13.1723046], [77.7298428, 13.1722791], [77.7298158, 13.1721992], [77.7297888, 13.1721436], [77.7297365, 13.1720833], [77.7293039, 13.1715867], [77.7293038, 13.1715866], [77.7292256, 13.1714969], [77.7292213, 13.171492], [77.7285064, 13.1706844], [77.7284183, 13.1705879], [77.7282686, 13.170424], [77.7280356, 13.1701461], [77.7274449, 13.1694503], [77.7274083, 13.169405], [77.7272744, 13.1692395], [77.7272773, 13.1691927], [77.7272816, 13.1691184], [77.7274693, 13.1688902], [77.7274839, 13.1688724], [77.7277652, 13.1685349], [77.7277875, 13.1685188], [77.7278036, 13.168507], [77.7282516, 13.1681811], [77.7282738, 13.1681646], [77.7283265, 13.1681253], [77.7285743, 13.1679404], [77.7286017, 13.1678683], [77.7286222, 13.1678145], [77.7286537, 13.1677316], [77.7288485, 13.1672193], [77.72887, 13.1671876], [77.7292444, 13.1666346], [77.729345, 13.1664942], [77.7295546, 13.1662014], [77.7295834, 13.1661611], [77.7296661, 13.1660453], [77.7295511, 13.1659461], [77.729585, 13.1659249], [77.7299445, 13.1657005], [77.7299636, 13.1656885], [77.7307002, 13.1652268], [77.7307507, 13.1651952], [77.7303041, 13.1642903], [77.72939, 13.1624376], [77.7293575, 13.1623739], [77.7293564, 13.1623718], [77.7293349, 13.1623294], [77.7291492, 13.1619803], [77.7290853, 13.1618502], [77.729084, 13.1618476], [77.7291503, 13.1618132], [77.7292854, 13.1617427], [77.7293201, 13.1617406], [77.7293999, 13.1617357], [77.7294829, 13.1617305], [77.729496, 13.1617297], [77.7295321, 13.1616789], [77.7295407, 13.1616668], [77.7295564, 13.1616446], [77.7295879, 13.1616004], [77.7295955, 13.1615896], [77.729792, 13.1614685], [77.729795, 13.1614667], [77.7307038, 13.1610326], [77.7308159, 13.1609775], [77.7308206, 13.1609752], [77.7310287, 13.160802], [77.7310878, 13.1607552], [77.7311405, 13.1607138], [77.7312026, 13.160665], [77.7314357, 13.1607464], [77.7314463, 13.1607501], [77.731516, 13.1606572], [77.7315274, 13.1606419], [77.7317368, 13.1603628], [77.7317798, 13.1603054], [77.7317906, 13.1602911], [77.7317921, 13.1602891], [77.7318428, 13.1602991], [77.7319339, 13.1603171], [77.7320494, 13.16034], [77.7321019, 13.1603497], [77.7321786, 13.160364], [77.7324563, 13.1602839], [77.7331671, 13.1600684], [77.7334185, 13.1601037], [77.7334112, 13.1600673], [77.7333793, 13.1599088], [77.7333744, 13.1598843], [77.7333709, 13.1598669], [77.7334114, 13.1598588], [77.733404, 13.159825], [77.7332719, 13.1595531], [77.7331689, 13.1593399], [77.7327971, 13.1589942], [77.7326928, 13.1588966], [77.7326805, 13.1588433], [77.7327235, 13.1587739], [77.732711, 13.1587422], [77.73265, 13.1585872], [77.7325987, 13.1584571], [77.7323099, 13.158482], [77.7322983, 13.158483], [77.7322459, 13.1583633], [77.7321685, 13.1581867], [77.7321173, 13.1580698], [77.7320471, 13.1579099], [77.7320417, 13.1578977], [77.7317582, 13.1579865], [77.7314752, 13.1576296], [77.7314575, 13.1576076], [77.7312748, 13.15738], [77.7310865, 13.1571029], [77.7300811, 13.1556027], [77.7300457, 13.1555486], [77.730042, 13.155454], [77.7300409, 13.1554255], [77.7296152, 13.1532214], [77.7295959, 13.1531343], [77.7295854, 13.1530872], [77.7295573, 13.1529609], [77.7294755, 13.1525931], [77.7294606, 13.1525262], [77.7294348, 13.1522558], [77.7294297, 13.1522021], [77.7293597, 13.1514619], [77.7293356, 13.1512073], [77.7293294, 13.1511403], [77.7293262, 13.1511051], [77.7292941, 13.1509296], [77.7291463, 13.1501217], [77.7291418, 13.150097], [77.7291363, 13.1500671], [77.7289199, 13.1489444], [77.7289148, 13.1489212], [77.7286584, 13.1477571], [77.7286449, 13.1476957], [77.7286434, 13.1476892], [77.7285465, 13.1470744], [77.728506, 13.1468177], [77.7284693, 13.1464978], [77.7284655, 13.1464648], [77.7283952, 13.1457831], [77.7283954, 13.1457829], [77.728396, 13.1457823], [77.7284122, 13.1457476], [77.7291054, 13.1455884], [77.7292888, 13.1455481], [77.7295597, 13.1454912], [77.730428, 13.1453074], [77.730475, 13.1452982], [77.730661, 13.1452615], [77.7306611, 13.1452614], [77.7316571, 13.1450608], [77.7317436, 13.1450434], [77.7324969, 13.1448914], [77.7329783, 13.1448178], [77.7329872, 13.1447916], [77.7330033, 13.1447442], [77.7330104, 13.1447234], [77.7330589, 13.1445806], [77.7336133, 13.1429576], [77.7336382, 13.1429455], [77.7337744, 13.1428794], [77.7337724, 13.1428699], [77.7336789, 13.1424154], [77.7336645, 13.1423452], [77.733651, 13.1422747], [77.7336013, 13.142014], [77.7333499, 13.1406912], [77.7332636, 13.1402306], [77.7330191, 13.1398171], [77.7326611, 13.1392042], [77.7326076, 13.1391128], [77.7324658, 13.1388734], [77.7320996, 13.138258], [77.731711, 13.1376074], [77.7316516, 13.1375081], [77.731163, 13.136696], [77.7298028, 13.1344803], [77.7296561, 13.134246], [77.7290603, 13.1332907], [77.7291667, 13.1330742], [77.7294655, 13.1324665], [77.7300286, 13.1313288], [77.7300333, 13.131319], [77.7241029, 13.1254092], [77.7246361, 13.125552], [77.7249529, 13.1256369], [77.7262178, 13.1259291], [77.7267454, 13.1260509], [77.7268931, 13.1259914], [77.7270905, 13.125912], [77.7292639, 13.1250373], [77.7296812, 13.1248696], [77.7297994, 13.1248218], [77.7306689, 13.124471], [77.7307062, 13.1244567], [77.7310214, 13.1243353], [77.7311049, 13.1243032], [77.7311291, 13.1242939], [77.7312909, 13.1242317], [77.7319076, 13.1239932], [77.7322229, 13.123862], [77.7322701, 13.1238424], [77.7333057, 13.1234116], [77.7335844, 13.1232957], [77.7335804, 13.12324], [77.7335778, 13.1232031], [77.7334783, 13.1217951], [77.7333357, 13.1199694], [77.7333224, 13.1199116], [77.7329317, 13.1182096], [77.7329168, 13.1181447], [77.7325298, 13.1162739], [77.7321083, 13.1143227], [77.7321619, 13.1143421], [77.7323016, 13.1143482], [77.7363178, 13.114531], [77.7371918, 13.1121139], [77.7445742, 13.1113278], [77.7447914, 13.1111894], [77.7450207, 13.1110091], [77.7451957, 13.1109118], [77.7457306, 13.1105175], [77.7458725, 13.1104978], [77.7459005, 13.1104939], [77.7460502, 13.1104961], [77.7468424, 13.1105069], [77.7472427, 13.1105093], [77.7477486, 13.1105101], [77.7477927, 13.11051], [77.7482511, 13.1104955], [77.7493927, 13.1103516], [77.749386, 13.1102038], [77.7493718, 13.1098738], [77.7494217, 13.1098592], [77.7495878, 13.109809], [77.7496978, 13.1097972], [77.7508865, 13.1096518], [77.7514361, 13.1095475], [77.7518907, 13.1095437], [77.751962, 13.1094601], [77.7533205, 13.1092355], [77.753408, 13.1092498], [77.7535323, 13.10927], [77.7540761, 13.1092838], [77.7547969, 13.1092861], [77.7548012, 13.1092807], [77.7549166, 13.1092819], [77.7552112, 13.1092061], [77.7554001, 13.1091978], [77.7556103, 13.1092042], [77.7557383, 13.1091828], [77.756031, 13.1091339], [77.7569654, 13.1090704], [77.7577794, 13.1090342], [77.7583864, 13.1090006], [77.758752, 13.108952], [77.7591805, 13.1088898], [77.7591902, 13.1089647], [77.7637942, 13.1087327], [77.7640173, 13.1087124], [77.7641523, 13.1087366], [77.764525, 13.1083705], [77.7654905, 13.1083637], [77.7664991, 13.1076287], [77.7664192, 13.1073571], [77.7658248, 13.1058793], [77.7653323, 13.10468], [77.7644617, 13.1043416], [77.7644805, 13.1034057], [77.7641432, 13.102678], [77.7641381, 13.1025489], [77.7646837, 13.1016217], [77.7647981, 13.1013875], [77.76462, 13.1005039], [77.7646401, 13.100057], [77.7646522, 13.0997865], [77.7646467, 13.0989656], [77.7646796, 13.0983092], [77.7652968, 13.0975748], [77.7656076, 13.0968036], [77.7652887, 13.0956164], [77.7652209, 13.0953642], [77.7649481, 13.0948449], [77.7649416, 13.0947445], [77.76491, 13.0947245], [77.7648931, 13.0947138], [77.7656851, 13.0922309], [77.7662559, 13.0904452], [77.7662828, 13.0903611], [77.766376, 13.0900696], [77.7669052, 13.0884072], [77.7669102, 13.0883913], [77.7669203, 13.0883585], [77.7669229, 13.088086], [77.765941, 13.0833459], [77.7659212, 13.0832506], [77.7657155, 13.0822575], [77.765555, 13.0814824], [77.7655534, 13.0814747], [77.7655006, 13.0814742], [77.7602539, 13.081421], [77.7601687, 13.0814201], [77.7601553, 13.08142], [77.7601888, 13.0812553], [77.7608994, 13.0777603], [77.7609012, 13.0777517], [77.7606174, 13.077723], [77.7593247, 13.077589], [77.7593013, 13.0775866], [77.7591774, 13.0775737], [77.7590264, 13.0775358], [77.7589791, 13.0774642], [77.7589495, 13.0774195], [77.7589404, 13.0774058], [77.7590987, 13.0768095], [77.7593123, 13.075986], [77.7593778, 13.0757334], [77.759379, 13.0757289], [77.7586911, 13.0753275], [77.7585288, 13.0751828], [77.758418, 13.075012], [77.7583717, 13.0744828], [77.7583562, 13.0740675], [77.7583504, 13.0739121], [77.7583492, 13.0737383], [77.7586019, 13.073633], [77.7590542, 13.0734475], [77.7596483, 13.0732078], [77.7601138, 13.0730058], [77.7602625, 13.0729413], [77.7601201, 13.0727049], [77.7601097, 13.0726882], [77.7601488, 13.0726694], [77.7604502, 13.0724963], [77.7607045, 13.0723506], [77.7609102, 13.0722066], [77.7610606, 13.0721014], [77.7612133, 13.0719674], [77.7613998, 13.0718463], [77.7615931, 13.071717], [77.7617495, 13.0715915], [77.7618768, 13.071504], [77.7621136, 13.0713284], [77.7627238, 13.070859], [77.7628387, 13.0707712], [77.7629099, 13.0705253], [77.7629404, 13.0704198], [77.7630897, 13.0702143], [77.7638204, 13.0690235], [77.7649815, 13.0676126], [77.7651146, 13.067451], [77.7656176, 13.0668397], [77.7657163, 13.0666827], [77.7657209, 13.0666754], [77.7657653, 13.0666094], [77.7661683, 13.0657394], [77.7667159, 13.0651339], [77.7666998, 13.0650188], [77.7668193, 13.0647549], [77.7668763, 13.0646296], [77.7670494, 13.0646298], [77.7672454, 13.0646312], [77.7679422, 13.0629015], [77.7678418, 13.0628152], [77.7679061, 13.0599818], [77.7679109, 13.0597699], [77.7679635, 13.0574482], [77.7679752, 13.0572328], [77.7679885, 13.0569719], [77.7682916, 13.0566796], [77.768334, 13.0566388], [77.7683408, 13.0566322], [77.7683772, 13.0564841], [77.7684141, 13.0563341], [77.7684769, 13.0563507], [77.7685407, 13.0563679], [77.7687109, 13.0564146], [77.7687815, 13.056465], [77.768857, 13.0565188], [77.7689149, 13.0565599], [77.7689879, 13.0566118], [77.7690619, 13.056664], [77.7691057, 13.0566949], [77.7691651, 13.0566552], [77.7694903, 13.0564383], [77.7698022, 13.0561701], [77.7698311, 13.0561447], [77.7699844, 13.0560102], [77.7700056, 13.0559917], [77.7700009, 13.0559793], [77.7699851, 13.0559373], [77.7699798, 13.0559232], [77.7699488, 13.0558411], [77.7698956, 13.0557003], [77.7698928, 13.0556929], [77.7698858, 13.0553501], [77.7698855, 13.0553274], [77.7698812, 13.0549608], [77.7699468, 13.0548838], [77.7699695, 13.0548574], [77.770101, 13.0547048], [77.7704029, 13.0543542], [77.7704438, 13.0543068], [77.7704541, 13.0542948], [77.7705224, 13.0542154], [77.7705036, 13.0542185], [77.7704772, 13.0542228], [77.770145, 13.0542772], [77.7701476, 13.0542508], [77.7701482, 13.0542439], [77.7702108, 13.0535922], [77.7702124, 13.0535761], [77.7702206, 13.0534899], [77.7702321, 13.0533697], [77.7702601, 13.052722], [77.770328, 13.0524884], [77.7703535, 13.0523616], [77.7703433, 13.052124], [77.7703137, 13.0519851], [77.7704028, 13.0515398], [77.7704212, 13.0514015], [77.7704236, 13.0513831], [77.7704252, 13.0513714], [77.7704206, 13.0509921], [77.770444, 13.0508293], [77.7704911, 13.0505], [77.7705125, 13.0503509], [77.7705163, 13.0503241], [77.7704697, 13.0502459], [77.7704541, 13.0502197], [77.7704531, 13.0502181], [77.7704522, 13.0502165], [77.7704401, 13.0501962], [77.7704487, 13.0501938], [77.7705136, 13.0501751], [77.7705158, 13.0501744], [77.7704953, 13.0500003], [77.7704909, 13.0499623], [77.7704851, 13.0499133], [77.7704352, 13.049488], [77.770433, 13.0494692], [77.7703696, 13.0494392], [77.7703296, 13.0494203], [77.7703227, 13.049417], [77.7703218, 13.0494166], [77.7702815, 13.049134], [77.770273, 13.0490741], [77.7702446, 13.0488752], [77.7700817, 13.0484224], [77.7700675, 13.0483828], [77.7700661, 13.0483789], [77.7701455, 13.0482926], [77.7704655, 13.0482917], [77.7705993, 13.0483051], [77.7706199, 13.0483072], [77.7707457, 13.0483199], [77.7713929, 13.0483567], [77.7714118, 13.0483577], [77.7715056, 13.048363], [77.7716966, 13.0483528], [77.7717938, 13.0483539], [77.7718032, 13.048354], [77.771951, 13.0483555], [77.7726777, 13.0484858], [77.7726899, 13.0484879], [77.7727825, 13.0485047], [77.7729036, 13.048552], [77.7729139, 13.048556], [77.7729512, 13.048483], [77.772978, 13.0484306], [77.7730056, 13.0483768], [77.7732171, 13.0479639], [77.7733544, 13.0477905], [77.7739741, 13.0479719], [77.7744879, 13.0481346], [77.7745328, 13.0481489], [77.7749905, 13.0483075], [77.7755667, 13.0483338], [77.7760018, 13.0483407], [77.7761749, 13.0482242], [77.7761954, 13.0480635], [77.7762286, 13.0478068], [77.7762508, 13.0476347], [77.7762671, 13.0475448], [77.7762026, 13.0475262], [77.7759054, 13.04744], [77.7750886, 13.047191], [77.774898, 13.0471329], [77.7746323, 13.0470558], [77.7744818, 13.0470148], [77.774347, 13.046978], [77.7740941, 13.0468876], [77.7739787, 13.0468463], [77.7739503, 13.046822], [77.7747685, 13.0466684], [77.775129, 13.0464801], [77.7751031, 13.0464163], [77.7751001, 13.046409], [77.775061, 13.0463129], [77.7750426, 13.0462677], [77.7748009, 13.0456737], [77.7747377, 13.0455182], [77.7747881, 13.0454654], [77.7748554, 13.0453949], [77.7748764, 13.045346], [77.7749363, 13.0452066], [77.7749454, 13.0451855], [77.7749753, 13.0451161], [77.7753298, 13.0446591], [77.775489, 13.0444444], [77.7755628, 13.0443449], [77.7755935, 13.0442986], [77.7762261, 13.0433471], [77.7762531, 13.0433065], [77.7762688, 13.0432693], [77.7766564, 13.042352], [77.7767156, 13.0422119], [77.7772147, 13.0411969], [77.7772626, 13.0410995], [77.7774911, 13.0403701], [77.77753, 13.0402456], [77.7775335, 13.0402346], [77.777593, 13.0400447], [77.7776055, 13.0400049], [77.7776406, 13.0398926], [77.7776556, 13.0398447], [77.7776661, 13.0398114], [77.7776951, 13.038415], [77.7776959, 13.0383773], [77.7777207, 13.0383729], [77.7780367, 13.0383169], [77.7784768, 13.038239], [77.7785019, 13.0382346], [77.7785649, 13.0382232], [77.7786479, 13.0381796], [77.7786724, 13.0381666], [77.7786748, 13.0380773], [77.7786759, 13.038036], [77.7786896, 13.0375237], [77.7786899, 13.0375127], [77.7787182, 13.0373549], [77.7788806, 13.0364478], [77.7788889, 13.0364011], [77.7789234, 13.0362086], [77.7789337, 13.0361514], [77.7790123, 13.0357125], [77.779029, 13.0356188], [77.7790388, 13.0355643], [77.779031, 13.0353435], [77.779028, 13.03526], [77.7790238, 13.035142], [77.7790209, 13.0350616], [77.7790135, 13.0348533], [77.7790109, 13.0347796], [77.7790108, 13.0347777], [77.7790037, 13.034577], [77.7796009, 13.0345253], [77.7798589, 13.0345274], [77.7806792, 13.0345267], [77.7808192, 13.0345266], [77.7809075, 13.0345264], [77.7810008, 13.0345262], [77.7810865, 13.0345463], [77.7811259, 13.0345555], [77.7811768, 13.0345727], [77.7812176, 13.034584], [77.7813347, 13.0341351], [77.7815529, 13.0333274], [77.7812727, 13.032846], [77.7812581, 13.0328562], [77.7812478, 13.0328635], [77.7811175, 13.0329554], [77.7811093, 13.0329557], [77.7806129, 13.0329726], [77.7805129, 13.0329761], [77.7805017, 13.0329638], [77.7804833, 13.0329655], [77.7803082, 13.0327752], [77.7805381, 13.0325735], [77.7805447, 13.0325677], [77.7803866, 13.0325192], [77.7803642, 13.0325124], [77.7803268, 13.0324807], [77.7803335, 13.0324732], [77.7799071, 13.0321044], [77.7798503, 13.0320554], [77.7797469, 13.0316844], [77.7797477, 13.031518], [77.7797488, 13.0312864], [77.7797406, 13.0312615], [77.7796871, 13.0310996], [77.7796698, 13.0311037], [77.7795752, 13.0311262], [77.7795526, 13.0311316], [77.7792298, 13.0305031], [77.7791486, 13.0305161], [77.7791135, 13.0305217], [77.7790991, 13.0305285], [77.7790849, 13.030535], [77.7790555, 13.0305488], [77.7789048, 13.0306189], [77.7787761, 13.0306703], [77.7787612, 13.0306762], [77.7787559, 13.0306897], [77.7787513, 13.0306918], [77.778746, 13.0307055], [77.7787427, 13.0306954], [77.7786553, 13.0304327], [77.7786703, 13.0304279], [77.7789591, 13.0303357], [77.7790032, 13.0303217], [77.7790029, 13.0303207], [77.7790203, 13.0303156], [77.7788609, 13.0298382], [77.77884, 13.0298376], [77.7780923, 13.0298147], [77.7780738, 13.0298144], [77.7780575, 13.0298141], [77.7780567, 13.0298208], [77.7780345, 13.0300122], [77.7778807, 13.0300905], [77.7778791, 13.0300848], [77.777836, 13.0299372], [77.777834, 13.0298682], [77.7778334, 13.0298447], [77.7778062, 13.0298488], [77.777805, 13.0298135], [77.7778041, 13.0297872], [77.7778028, 13.0297499], [77.777728, 13.0295114], [77.7777007, 13.0293683], [77.7776658, 13.0291855], [77.7776471, 13.0290812], [77.7776438, 13.029063], [77.7775927, 13.0287787], [77.7775886, 13.02877], [77.7774819, 13.0285464], [77.7774789, 13.0285155], [77.7774561, 13.0282824], [77.7774558, 13.0282794], [77.7773356, 13.0282837], [77.7772903, 13.0282853], [77.7772923, 13.028271], [77.7773073, 13.0281626], [77.7773261, 13.0280277], [77.7773299, 13.0280006], [77.7772543, 13.0277743], [77.7771635, 13.0275019], [77.7771419, 13.0274372], [77.7770949, 13.0271057], [77.7770409, 13.0267244], [77.7770059, 13.026592], [77.7769585, 13.0264129], [77.7769432, 13.0263548], [77.776828, 13.0259191], [77.7768087, 13.025846], [77.7767919, 13.0257819], [77.7767639, 13.0255623], [77.7767567, 13.0255058], [77.7768171, 13.0255208], [77.7768606, 13.0255315], [77.7769118, 13.0255442], [77.7769699, 13.0255586], [77.7769855, 13.0255562], [77.7770247, 13.0255684], [77.7771162, 13.0255545], [77.7771135, 13.0255467], [77.7769828, 13.0251697], [77.7769938, 13.0249469], [77.7769996, 13.0248299], [77.7769449, 13.024633], [77.7769387, 13.024592], [77.776948, 13.0243582], [77.776897, 13.0241335], [77.7768315, 13.0238443], [77.7768149, 13.0237782], [77.7767313, 13.0235443], [77.7767242, 13.0235226], [77.7766337, 13.0232513], [77.7765807, 13.0230983], [77.7765675, 13.0230603], [77.7765217, 13.0229278], [77.7764667, 13.0228185], [77.7763254, 13.0225428], [77.7763245, 13.0224656], [77.7763242, 13.0224269], [77.7763239, 13.0223388], [77.7762543, 13.0223522], [77.7760077, 13.0223996], [77.7750797, 13.0225782], [77.7749931, 13.022368], [77.7749433, 13.0222473], [77.7749367, 13.0222314], [77.7748697, 13.0220744], [77.7748583, 13.0220476], [77.7748468, 13.0219163], [77.7748439, 13.0218841], [77.7748237, 13.0217802], [77.7747946, 13.0216313], [77.774786, 13.0215872], [77.7747839, 13.0214951], [77.7747829, 13.0214543], [77.7747862, 13.0214176], [77.7747988, 13.0212756], [77.7748108, 13.0211425], [77.7748139, 13.0211078], [77.7747838, 13.0209441], [77.7747763, 13.0209033], [77.7747754, 13.0209017], [77.7747432, 13.0208447], [77.7747293, 13.02082], [77.7747521, 13.0201618], [77.7747541, 13.0201043], [77.774756, 13.020026], [77.7746385, 13.0198801], [77.7745619, 13.019726], [77.774572, 13.0195709], [77.7744341, 13.0193571], [77.7743483, 13.019386], [77.7741366, 13.019456], [77.7737019, 13.0196876], [77.7733793, 13.0197114], [77.7734174, 13.0192677], [77.7734218, 13.019217], [77.7734389, 13.019017], [77.7734437, 13.0189626], [77.7734448, 13.0189494], [77.7734446, 13.0189488], [77.773396, 13.018828], [77.7733734, 13.0187716], [77.7733389, 13.0186856], [77.7733168, 13.0186307], [77.7730431, 13.0179485], [77.7730205, 13.0178923], [77.7728577, 13.0174872], [77.7728601, 13.0174434], [77.7728675, 13.0173117], [77.7728596, 13.0172926], [77.7728262, 13.0172119], [77.7727759, 13.017125], [77.7727634, 13.0171034], [77.772741, 13.0170737], [77.7724293, 13.0166596], [77.7720677, 13.0159593], [77.7720614, 13.0159462], [77.7715052, 13.0150986], [77.7716037, 13.0150547], [77.7721616, 13.0148963], [77.7722601, 13.0148489], [77.772785, 13.0147281], [77.7731139, 13.0146419], [77.7731597, 13.0144588], [77.7731495, 13.0142669], [77.7731074, 13.0140495], [77.773098, 13.0139321], [77.7731043, 13.0137683], [77.7731752, 13.013675], [77.7734276, 13.0134849], [77.7736416, 13.0134205], [77.7738801, 13.0134337], [77.7740794, 13.0134937], [77.7743742, 13.0134905], [77.7744364, 13.0133883], [77.7744427, 13.0132324], [77.7743447, 13.0130155], [77.7740545, 13.0126528], [77.7738955, 13.0125404], [77.7738625, 13.0124154], [77.7738929, 13.0123067], [77.7739077, 13.0121891], [77.7739211, 13.0119948], [77.7739197, 13.0118706], [77.7739109, 13.0117532], [77.7738377, 13.0116377], [77.7737732, 13.0115368], [77.7737244, 13.0114436], [77.7737142, 13.0112495], [77.7737288, 13.0111161], [77.7737753, 13.0109993], [77.7739168, 13.0108803], [77.7739793, 13.0107555], [77.7740017, 13.0106457], [77.7737286, 13.0104736], [77.7735292, 13.0104057], [77.7734013, 13.0103518], [77.7733048, 13.010267], [77.7732713, 13.0100969], [77.7732774, 13.0099252], [77.7733872, 13.0098066], [77.7734253, 13.0096582], [77.7733118, 13.0095002], [77.7732236, 13.0094312], [77.7731908, 13.0093299], [77.7731641, 13.0091044], [77.7732226, 13.0086205], [77.7732523, 13.0084406], [77.7733304, 13.0083235], [77.7733768, 13.0081988], [77.7734072, 13.008081], [77.7734302, 13.0079791], [77.7734603, 13.0078388], [77.7734666, 13.007675], [77.7734808, 13.0075586], [77.77344, 13.0074054], [77.7734043, 13.0070479], [77.7733769, 13.0067049], [77.7733589, 13.0065335], [77.7733652, 13.0063776], [77.7734117, 13.0062608], [77.7735695, 13.0061575], [77.7737761, 13.0061553], [77.773888, 13.0061699], [77.7740802, 13.0063157], [77.7742248, 13.0064316], [77.7744155, 13.0064364], [77.774558, 13.0063648], [77.7746921, 13.006255], [77.774858, 13.0061595], [77.7750163, 13.0061036], [77.7753501, 13.0060921], [77.7754698, 13.006083], [77.7756803, 13.0060152], [77.7758145, 13.0059201], [77.7758691, 13.0058032], [77.7758916, 13.0057013], [77.7758892, 13.0054913], [77.7757995, 13.0052902], [77.7757343, 13.0051271], [77.7756738, 13.0047066], [77.7756998, 13.0042005], [77.7756956, 13.0039702], [77.7756191, 13.0035114], [77.7754978, 13.0033253], [77.7752408, 13.0031022], [77.7750488, 13.0030185], [77.7748327, 13.0029045], [77.7746817, 13.0028824], [77.7744753, 13.0029083], [77.7743005, 13.0029327], [77.7740223, 13.0029752], [77.7737529, 13.0030797], [77.7735631, 13.0031518], [77.7731481, 13.0030546], [77.7730088, 13.0030064], [77.7727694, 13.0029694], [77.7726497, 13.0029244], [77.772505, 13.0028006], [77.7724643, 13.0027085], [77.772463, 13.0025911], [77.7725244, 13.0023725], [77.7726467, 13.0022357], [77.7727506, 13.0021047], [77.7728097, 13.0019821], [77.7729298, 13.0019142], [77.773035, 13.0018984], [77.7731864, 13.0018968], [77.7736272, 13.001874], [77.7737093, 13.0017986], [77.7737269, 13.0016765], [77.7737414, 13.0014268], [77.7737709, 13.0013305], [77.773894, 13.0012185], [77.7740405, 13.0011944], [77.7746895, 13.0011547], [77.7748398, 13.0011079], [77.7749914, 13.000859], [77.7750005, 13.0006489], [77.774951, 13.0005433], [77.7748698, 13.000385], [77.7748456, 13.0002305], [77.7748362, 13.0000601], [77.7748324, 12.9997135], [77.7748886, 12.999329], [77.7749849, 12.9988289], [77.7750046, 12.9984386], [77.7750307, 12.9979228], [77.7750801, 12.9975554], [77.7749595, 12.9975273], [77.7751096, 12.9970492], [77.7748482, 12.9960053], [77.7748258, 12.9955493], [77.7748089, 12.9953905], [77.7745083, 12.9938624], [77.7741831, 12.9920028], [77.775209, 12.9921047], [77.7753796, 12.9920227], [77.7760279, 12.9917121], [77.776114, 12.9915327], [77.7761168, 12.9912222], [77.7759966, 12.9906589], [77.77615, 12.9899041], [77.776347, 12.9894459], [77.7764962, 12.9883151], [77.7759421, 12.988294], [77.7761481, 12.9879203], [77.7760563, 12.9870654], [77.7759037, 12.9863918], [77.7760683, 12.9858717], [77.7764222, 12.9855405], [77.7766624, 12.9853516], [77.7769413, 12.9853769], [77.7771474, 12.9851646], [77.7770056, 12.9850442], [77.7765758, 12.9848648], [77.7766131, 12.9845888], [77.7765419, 12.9841967], [77.7763898, 12.9837139], [77.7762907, 12.983243], [77.7762476, 12.9829419], [77.7760953, 12.9824976], [77.7759063, 12.9823291], [77.7756498, 12.9821421], [77.7754215, 12.9814885], [77.7752027, 12.9812573], [77.7750279, 12.9810896], [77.7747593, 12.9807018], [77.7747205, 12.9805216], [77.7749322, 12.9804041], [77.7752579, 12.9802403], [77.7754021, 12.9802117], [77.7754726, 12.9801319], [77.7759114, 12.9799319], [77.7760382, 12.979795], [77.7763105, 12.9794816], [77.7764341, 12.9793651], [77.7765292, 12.97932], [77.7766218, 12.9791034], [77.7769793, 12.9787382], [77.7771603, 12.9785026], [77.7774127, 12.9783689], [77.7777928, 12.9785918], [77.7783582, 12.9786004], [77.7785194, 12.9781335], [77.7785595, 12.9780077], [77.778827, 12.9771625], [77.7786249, 12.9767966], [77.778523, 12.9766433], [77.7782443, 12.9762237], [77.7777778, 12.9761857], [77.7776687, 12.9761768], [77.7772588, 12.9765357], [77.7771425, 12.9764827], [77.7769764, 12.9764077], [77.7768975, 12.9763036], [77.7766785, 12.976018], [77.7766751, 12.9757165], [77.7765146, 12.97541], [77.7761602, 12.97497], [77.7766468, 12.9743095], [77.7768737, 12.9740015], [77.7776844, 12.973706], [77.778149, 12.9733985], [77.7786022, 12.9729386], [77.7792426, 12.9722362], [77.7786282, 12.9710843], [77.7786733, 12.9704797], [77.7792112, 12.9702436], [77.7802166, 12.970164], [77.7808348, 12.9703188], [77.781149, 12.9707705], [77.7819738, 12.9709615], [77.7828606, 12.9709927], [77.7832625, 12.9708913], [77.7836474, 12.9706162], [77.783912, 12.9693566], [77.7843613, 12.968558], [77.7841805, 12.9667895], [77.7840778, 12.9665625], [77.7818475, 12.9661347], [77.781691, 12.9662425], [77.7815843, 12.9663814], [77.7814533, 12.966612], [77.7813975, 12.9668159], [77.781224, 12.9669566], [77.7805351, 12.9671243], [77.7798826, 12.9671471], [77.7793642, 12.9669686], [77.7790686, 12.9668904], [77.7785958, 12.9667645], [77.778474, 12.9669939], [77.7786564, 12.967718], [77.7774509, 12.9682243], [77.7773109, 12.9681682], [77.7771975, 12.9680102], [77.7771767, 12.9678975], [77.7764786, 12.9677582], [77.7760886, 12.9674236], [77.775097, 12.9668809], [77.7748265, 12.9666749], [77.7745904, 12.9665103], [77.7743657, 12.9664969], [77.7740311, 12.9663785], [77.7738633, 12.9662493], [77.7735001, 12.9660929], [77.7732873, 12.966059], [77.7731765, 12.966041], [77.7721062, 12.9658672], [77.7719836, 12.9659227], [77.771495, 12.9653611], [77.7712336, 12.9650454], [77.7710009, 12.9647205], [77.7706892, 12.9642326], [77.7704698, 12.9633949], [77.7704757, 12.963038], [77.7702036, 12.9630556], [77.7701802, 12.9628509], [77.7701571, 12.9626484], [77.7700818, 12.962455], [77.7699788, 12.9621942], [77.7698123, 12.9617702], [77.7696864, 12.9617321], [77.7691868, 12.9615838], [77.7688207, 12.9615301], [77.7686763, 12.9614312], [77.7682285, 12.9611277], [77.7681363, 12.9607572], [77.7680406, 12.9605301], [77.7679619, 12.9603424], [77.76763, 12.9602036], [77.7672992, 12.960066], [77.7671644, 12.9597467], [77.7670974, 12.9594674], [77.7669465, 12.9594611], [77.7669932, 12.9593601], [77.7668308, 12.9592998], [77.766603, 12.9592164], [77.7663067, 12.9593324], [77.766113, 12.9594079], [77.765878, 12.9595041], [77.7654654, 12.9596711], [77.7648807, 12.9598952], [77.764793, 12.9594614], [77.7645666, 12.9594909], [77.7644233, 12.9587698], [77.7643314, 12.9575829], [77.7643336, 12.9572645], [77.7643395, 12.956544], [77.7643774, 12.956119], [77.7644175, 12.9559967], [77.7644786, 12.9559012], [77.7645046, 12.9557597], [77.7645792, 12.9556302], [77.7645638, 12.9554362], [77.764555, 12.9553188], [77.7645732, 12.9550883], [77.7644689, 12.9550284], [77.7645433, 12.9548831], [77.7645451, 12.9537923], [77.76457, 12.9529192], [77.7645489, 12.9521584], [77.7645601, 12.9519144], [77.7646439, 12.9513715], [77.7649238, 12.9510783], [77.764919, 12.9504799], [77.7650302, 12.9501287], [77.7652863, 12.948762], [77.7653643, 12.9477517], [77.765416, 12.9473751], [77.7654666, 12.9470065], [77.7655242, 12.9465926], [77.7655099, 12.9454027], [77.7653411, 12.9437694], [77.7653018, 12.943334], [77.7652708, 12.9429059], [77.7652529, 12.942657], [77.7652716, 12.942299], [77.7675809, 12.9415558], [77.7685365, 12.9414533], [77.7696057, 12.9412007], [77.7710851, 12.9406228], [77.7728778, 12.9400269], [77.773652, 12.9398871], [77.7743434, 12.939449], [77.7747767, 12.9390062], [77.7752053, 12.9389205], [77.7754449, 12.9387173], [77.7757265, 12.9375694], [77.7759988, 12.9366159], [77.7764738, 12.9355991], [77.7768518, 12.9350614], [77.7772529, 12.9346955], [77.7774282, 12.934108], [77.7772718, 12.9334029], [77.7766643, 12.9318027], [77.7766275, 12.9315858], [77.7770469, 12.9314232], [77.7777796, 12.9310845], [77.7779271, 12.9309309], [77.778084, 12.9304881], [77.7782915, 12.9300859], [77.7783975, 12.9300859], [77.7786188, 12.9297471], [77.7786681, 12.9295295], [77.7787979, 12.9298901], [77.7788185, 12.9299313], [77.7788648, 12.9300243], [77.7788898, 12.9306857], [77.778897, 12.9306822], [77.7797766, 12.9302545], [77.7797823, 12.9302518], [77.7803235, 12.929988], [77.7803639, 12.9299682], [77.7803659, 12.9299673], [77.781012, 12.9296506], [77.7813356, 12.9294915], [77.7816728, 12.9293256], [77.7816761, 12.9293239], [77.7826282, 12.9288545], [77.7826296, 12.9288538], [77.7827055, 12.9288164], [77.7827081, 12.9288116], [77.78271, 12.9288081], [77.7827764, 12.9286863], [77.7826334, 12.9283764], [77.7826621, 12.9283659], [77.7825451, 12.9281531], [77.7825302, 12.928126], [77.7825254, 12.9281136], [77.7835404, 12.9277284], [77.7836739, 12.9276857], [77.784756, 12.9273399], [77.7847753, 12.9273333], [77.7851683, 12.9271985], [77.785296, 12.9271547], [77.785314, 12.9271542], [77.7855308, 12.9271483], [77.7860519, 12.9271342], [77.7861135, 12.9271326], [77.7866932, 12.9269903], [77.7869361, 12.9269307], [77.7874151, 12.9268131], [77.7874217, 12.9268128], [77.7876701, 12.9268014], [77.78809, 12.9267818], [77.7880923, 12.9267815], [77.788321, 12.9267503], [77.7886909, 12.9266996], [77.7886918, 12.9266995], [77.7889886, 12.9267156], [77.7890182, 12.9267172], [77.789445, 12.9267375], [77.7894543, 12.926738], [77.7897856, 12.9267127], [77.789974, 12.9266985], [77.7901777, 12.9266457], [77.7905542, 12.926548], [77.7907434, 12.9264992], [77.790759, 12.9264951], [77.791815, 12.9262767], [77.7924303, 12.9261893], [77.7927948, 12.9261374], [77.7928969, 12.92611], [77.7935371, 12.9259379], [77.7935121, 12.9258738], [77.7934892, 12.9258154], [77.7934929, 12.9258053], [77.7934045, 12.9255359], [77.793346, 12.9253576], [77.7930592, 12.9244688], [77.7929741, 12.924201], [77.7929471, 12.92412], [77.7929402, 12.9237981], [77.7929381, 12.9237064], [77.7929343, 12.9235427], [77.7929296, 12.923429], [77.7929259, 12.9233402], [77.7929853, 12.9227947], [77.7929927, 12.9227264], [77.7929966, 12.9226892], [77.792934, 12.9225673], [77.7928121, 12.9223307], [77.7926618, 12.9215822], [77.7926182, 12.9215942], [77.7925472, 12.9216136], [77.7923968, 12.9216548], [77.7923181, 12.9213095], [77.7922491, 12.9210937], [77.7922271, 12.921022], [77.792229, 12.921021], [77.7932911, 12.9205092], [77.7965985, 12.9185871], [77.7966234, 12.9184494], [77.7976649, 12.9186496], [77.7976851, 12.9186513], [77.797686, 12.9186429], [77.7978444, 12.9186563], [77.799111, 12.9187631], [77.7999153, 12.9188231], [77.8012279, 12.9189273], [77.8031726, 12.9194234], [77.8032163, 12.9194346], [77.8032325, 12.919468], [77.8032914, 12.9195861], [77.8033358, 12.919675], [77.8033362, 12.9196758], [77.8034266, 12.9199722], [77.8035463, 12.9203648], [77.8036239, 12.9206204], [77.8036272, 12.9206313], [77.8036298, 12.9206397], [77.803714, 12.9209094], [77.8037874, 12.9211452], [77.8037897, 12.9211525], [77.8038256, 12.9212429], [77.8038209, 12.9212442], [77.8039147, 12.921467], [77.803996, 12.9216602], [77.8042439, 12.9221896], [77.804357, 12.9224443], [77.804388, 12.9225139], [77.8044794, 12.9227197], [77.8047104, 12.9232168], [77.8049917, 12.9238308], [77.8052387, 12.9243558], [77.8053503, 12.9246527], [77.8053756, 12.9247187], [77.8055061, 12.924999], [77.8056523, 12.9253624], [77.8057071, 12.9254985], [77.8057527, 12.9256117], [77.8059858, 12.9261986], [77.8060225, 12.926272], [77.8080388, 12.926166], [77.8081027, 12.926163], [77.8082202, 12.9261581], [77.8091364, 12.9261017], [77.8094507, 12.926122], [77.8096336, 12.9261282], [77.8110475, 12.9260958], [77.8112214, 12.9260788], [77.8114538, 12.9260541], [77.8115495, 12.926044], [77.811662, 12.9261189], [77.8118235, 12.9262267], [77.8120694, 12.9262542], [77.8122093, 12.9262702], [77.8123323, 12.9263844], [77.8124793, 12.9265258], [77.8126431, 12.9265452], [77.8128137, 12.9266436], [77.8132704, 12.9266157], [77.8136113, 12.9265843], [77.8143741, 12.9268658], [77.8153243, 12.9273097], [77.815268, 12.9274272], [77.8155585, 12.9275921], [77.8156042, 12.9276183], [77.8156081, 12.9276178], [77.8156996, 12.9274263], [77.816005, 12.926804], [77.8158551, 12.9259644], [77.8163214, 12.9256939], [77.8163252, 12.9256925], [77.8168016, 12.9255069], [77.8172285, 12.925503], [77.8172484, 12.9255029], [77.817425, 12.9255016], [77.8177193, 12.9253448], [77.8179662, 12.9251974], [77.8181715, 12.9250756], [77.8183161, 12.9250824], [77.8185942, 12.9250954], [77.8190999, 12.9249982], [77.8192794, 12.9249585], [77.819326, 12.9249529], [77.8200198, 12.924805], [77.8203493, 12.9249399], [77.82038, 12.9250127], [77.8204494, 12.9251774], [77.820478, 12.9251788], [77.8206132, 12.9251852], [77.8206864, 12.9253055], [77.8206966, 12.9253221], [77.8207008, 12.925329], [77.8207415, 12.9253958], [77.8207429, 12.9254023], [77.8207558, 12.9254604], [77.8208527, 12.9258984], [77.8208775, 12.9260092], [77.8209557, 12.9263832], [77.8210125, 12.9266536], [77.8210488, 12.9266597], [77.8216208, 12.9267551], [77.8216311, 12.9267575], [77.8217118, 12.9269874], [77.8217161, 12.9269884], [77.821727, 12.9269907], [77.8217877, 12.9271627], [77.8218874, 12.9274449], [77.8221039, 12.9280579], [77.8223225, 12.928718], [77.8228425, 12.9284615], [77.8229405, 12.9284123], [77.8238002, 12.9279813], [77.8238375, 12.9279622], [77.8239265, 12.9279059], [77.8242849, 12.9276723], [77.8244162, 12.9275837], [77.8244868, 12.9275341], [77.8246833, 12.9273959], [77.824712, 12.9273904], [77.8248084, 12.9273715], [77.8251573, 12.9273028], [77.8252452, 12.9272843], [77.8269702, 12.9269214], [77.8275822, 12.9267427], [77.8295658, 12.9262128], [77.8296502, 12.9261886], [77.8298201, 12.9261398], [77.8315684, 12.9256721], [77.8315893, 12.9256683], [77.8316905, 12.9256498], [77.8318426, 12.9256221], [77.8318753, 12.9251869], [77.8319534, 12.9241477], [77.8319551, 12.9241252], [77.8320024, 12.9241521], [77.8320762, 12.9241941], [77.832078, 12.9241714], [77.8325716, 12.9235984], [77.8327669, 12.9233716], [77.8326498, 12.9233371], [77.8326849, 12.9232973], [77.8322323, 12.9229757], [77.8321197, 12.9228957], [77.8321151, 12.9228901], [77.8314898, 12.9221314], [77.8308728, 12.9212633], [77.8303532, 12.9206123], [77.829865, 12.9199748], [77.8297078, 12.9197327], [77.829678, 12.9196867], [77.8296562, 12.9196532], [77.8283042, 12.9197629], [77.8266734, 12.920407], [77.82574, 12.9207659], [77.8257291, 12.9207686], [77.8257216, 12.9207704], [77.8256916, 12.9207777], [77.8256522, 12.9207873], [77.8255747, 12.9208061], [77.8254748, 12.9208304], [77.8238488, 12.9212257], [77.8235044, 12.9213095], [77.823265, 12.9213677], [77.8232447, 12.9213727], [77.8231672, 12.9213916], [77.8231184, 12.9214035], [77.8231154, 12.9214042], [77.8229624, 12.9214415], [77.8220063, 12.921676], [77.8219129, 12.921689], [77.8213971, 12.9217603], [77.8202561, 12.9212513], [77.8202044, 12.9212616], [77.8192008, 12.9214615], [77.8189862, 12.9215043], [77.8175581, 12.9219783], [77.817555, 12.9219794], [77.8175472, 12.9219765], [77.817475, 12.9219498], [77.8174618, 12.9219448], [77.8168045, 12.9217014], [77.8170115, 12.9214092], [77.816997, 12.9214028], [77.817133, 12.9212191], [77.8172315, 12.9208847], [77.8172807, 12.9207175], [77.8174614, 12.9201033], [77.8178208, 12.9192116], [77.8177208, 12.9183347], [77.8174761, 12.9175692], [77.8174687, 12.9175575], [77.8173774, 12.9174107], [77.8169527, 12.916728], [77.8165001, 12.9160016], [77.8165018, 12.9159657], [77.8165097, 12.9158007], [77.8165538, 12.9148748], [77.8168179, 12.9142983], [77.8171599, 12.9141196], [77.8174663, 12.9138417], [77.8176415, 12.9137557], [77.8177441, 12.9137741], [77.8177758, 12.9136956], [77.8179267, 12.9137236], [77.8180486, 12.913558], [77.8181726, 12.9135648], [77.8182098, 12.9135668], [77.8184866, 12.9135819], [77.8190157, 12.9134216], [77.8196751, 12.9131253], [77.8200161, 12.9129356], [77.820442, 12.9126978], [77.8207984, 12.9123792], [77.8210005, 12.9120103], [77.8210333, 12.9119503], [77.8211705, 12.9114651], [77.8212022, 12.9113531], [77.8212518, 12.9111778], [77.8214088, 12.9102432], [77.8213049, 12.909591], [77.8212774, 12.9089278], [77.8212535, 12.9083936], [77.8215378, 12.9079014], [77.8215612, 12.907861], [77.8216829, 12.907746], [77.8219237, 12.9075185], [77.8220847, 12.9073665], [77.8224762, 12.9068413], [77.8223249, 12.9066748], [77.8221744, 12.9065763], [77.8220394, 12.9064879], [77.8215922, 12.9061942], [77.8215641, 12.906101], [77.8213985, 12.9055528], [77.8214102, 12.9054615], [77.8214618, 12.9050587], [77.8214913, 12.9048285], [77.8216462, 12.9041619], [77.8216737, 12.9040434], [77.8217476, 12.9037927], [77.8218301, 12.9035124], [77.8218899, 12.9033095], [77.8218271, 12.9032977], [77.8215411, 12.9032438], [77.8215227, 12.9032137], [77.8215366, 12.9031616], [77.8215032, 12.903079], [77.8214587, 12.9029693], [77.8212193, 12.9024669], [77.8212025, 12.9024371], [77.8211821, 12.9024009], [77.8212078, 12.9024047], [77.8214645, 12.9024428], [77.8214773, 12.9021039], [77.8216538, 12.9019065], [77.8217076, 12.9018462], [77.8223271, 12.9017335], [77.8228626, 12.9015959], [77.8231437, 12.9013712], [77.8232248, 12.9013064], [77.8235657, 12.9008268], [77.823848, 12.900189], [77.8239648, 12.8997581], [77.8239752, 12.8997196], [77.8239982, 12.8996623], [77.8242122, 12.8991278], [77.8242197, 12.8991089], [77.8244273, 12.8988852], [77.8248809, 12.8983956], [77.8253301, 12.8978028], [77.8253456, 12.8977824], [77.825524, 12.8971116], [77.8252993, 12.8965952], [77.8252288, 12.8961861], [77.8252247, 12.8961622], [77.8254168, 12.8958701], [77.8254516, 12.8958172], [77.8255685, 12.8956394], [77.8258838, 12.8947544], [77.8263327, 12.8940351], [77.8270277, 12.8935931], [77.8276916, 12.8932362], [77.8281184, 12.8928382], [77.8282901, 12.8924487], [77.8283263, 12.8921738], [77.8283437, 12.892042], [77.8284024, 12.8915972], [77.828763, 12.8905155], [77.8292649, 12.8900137], [77.829669, 12.8897842], [77.8299009, 12.8895687], [77.8300287, 12.88945], [77.8301926, 12.8887152], [77.8301634, 12.8883131], [77.8301576, 12.8882323], [77.8301447, 12.8880549], [77.830403, 12.8874496], [77.8305324, 12.8873592], [77.8307572, 12.8872022], [77.8308721, 12.8866096], [77.8311666, 12.88577], [77.8315266, 12.8850398], [77.831546, 12.8849357], [77.8316757, 12.8842398], [77.8317666, 12.8837525], [77.8318704, 12.8835972], [77.8318949, 12.8835606], [77.8320265, 12.8833637], [77.8322111, 12.8828948], [77.8323143, 12.8823829], [77.8322436, 12.8820007], [77.8321744, 12.881799], [77.8321548, 12.8817418], [77.8321343, 12.8817213], [77.8317086, 12.8812972], [77.8316468, 12.8812356], [77.831716, 12.8811003], [77.8317299, 12.8810733], [77.8316948, 12.88104], [77.8316549, 12.8809479], [77.8315705, 12.8807527], [77.8315309, 12.880661], [77.8314004, 12.8803278], [77.8313793, 12.8802738], [77.83124, 12.8799179], [77.8313317, 12.8787303], [77.8314179, 12.8787728], [77.8314584, 12.8787928], [77.8314683, 12.8787888], [77.8314707, 12.8787878], [77.8315351, 12.878762], [77.8316028, 12.8787349], [77.8315875, 12.8786874], [77.8315657, 12.8786199], [77.8315609, 12.878605], [77.8314911, 12.8783886], [77.8314355, 12.87795], [77.8312447, 12.8774454], [77.8314881, 12.8770817], [77.8316224, 12.8770027], [77.831699, 12.8769582], [77.8318193, 12.8768883], [77.8316899, 12.876215], [77.8315856, 12.8755398], [77.8315811, 12.8755106], [77.8315592, 12.8753686], [77.8317441, 12.874506], [77.8318721, 12.8742112], [77.8319392, 12.8742526], [77.831984, 12.8742802], [77.8320572, 12.8743254], [77.8320674, 12.8744015], [77.8321008, 12.8743975], [77.832152, 12.8743913], [77.8322238, 12.8743826], [77.8323585, 12.8743663], [77.8328954, 12.8740902], [77.8331203, 12.8739354], [77.8331268, 12.873931], [77.8332531, 12.8737917], [77.8334298, 12.8735877], [77.8336347, 12.8734309], [77.83368, 12.8733962], [77.8337153, 12.8733694], [77.8337992, 12.8733054], [77.8338631, 12.8732567], [77.8338772, 12.8732444], [77.8339851, 12.8731507], [77.8345604, 12.872651], [77.834782, 12.8724693], [77.8348912, 12.8723797], [77.8349326, 12.8723457], [77.8349567, 12.8723267], [77.8349909, 12.8722996], [77.8353236, 12.8721767], [77.8353802, 12.8721558], [77.8356483, 12.8722042], [77.83578, 12.8722368], [77.8358065, 12.8722433], [77.8358959, 12.8722077], [77.8361126, 12.8721213], [77.8361448, 12.8721084], [77.8361781, 12.872095], [77.8368394, 12.8718283], [77.8368358, 12.8718139], [77.8367826, 12.8716502], [77.8365924, 12.8710323], [77.8366101, 12.8709436], [77.8366285, 12.8708521], [77.8366624, 12.8707869], [77.8366825, 12.8707484], [77.8367575, 12.8705514], [77.8368069, 12.8704866], [77.8369316, 12.8703824], [77.8369637, 12.8703556], [77.8368987, 12.8703585], [77.8367365, 12.8704003], [77.8325927, 12.8675591], [77.8320647, 12.8649081], [77.8323788, 12.8637507], [77.8330786, 12.8620165], [77.8325027, 12.8618079], [77.8323714, 12.862155], [77.8320169, 12.862114], [77.8317002, 12.8620655], [77.8313457, 12.8620825], [77.8305532, 12.8621642], [77.830241, 12.8621306], [77.8300685, 12.8621143], [77.8294785, 12.8619126], [77.8288964, 12.8616533], [77.8288891, 12.861556], [77.8282727, 12.8612881], [77.8276339, 12.8608239], [77.82698905184118, 12.860782257149852], [77.80398195549961, 12.869661222391095], [77.77700442096985, 12.879950729145193], [77.77172079835809, 12.882575147659658], [77.76854291451602, 12.884172834394597], [77.75006065254072, 12.890634786946768], [77.74639731557667, 12.891938823408054], [77.74526358837959, 12.892349794298067], [77.7441238216667, 12.89277048032511], [77.74281074753426, 12.893263907829414], [77.74101711720492, 12.893950062698254], [77.73596178270641, 12.895918779676165], [77.73382404534827, 12.896766548730357], [77.73205693881816, 12.897557935735682], [77.73062000537664, 12.89821243195069], [77.72928898857717, 12.898829006583632], [77.72651975430573, 12.90017757833891], [77.72636955525438, 12.900249519416876], [77.72536349237048, 12.900739563773353], [77.72112306236305, 12.902839918460668], [77.72072336072878, 12.903041291835043], [77.7207159904113, 12.903045325065392], [77.71934902898238, 12.903805521096052], [77.71860702438829, 12.90421152547595], [77.71665960792492, 12.905294656995482], [77.71649313432398, 12.90538573249588], [77.71437731171544, 12.906562606951335], [77.71396843776986, 12.906793848491265], [77.71355338657673, 12.907032497520877], [77.71349801544378, 12.90706329603163], [77.71313430026203, 12.90726222592607], [77.71277269704241, 12.90745006505831], [77.71086314304938, 12.908459452054739], [77.7105186233555, 12.908638387194273], [77.71015882803029, 12.908831950845443], [77.7092025950996, 12.909355411271095], [77.70825314309079, 12.909884247354826], [77.70731047200199, 12.910418459097672], [77.7066612357022, 12.910792776234405], [77.70637250301645, 12.910956398491313], [77.70626465645834, 12.911018582808722], [77.70517792171496, 12.911656062151762], [77.70466595221684, 12.911946146457435], [77.7043606656991, 12.912116099510905], [77.70385311647564, 12.912403703530936], [77.70354013664604, 12.912577937895348], [77.70343430972788, 12.912638978165017], [77.70036279270484, 12.914379687974618], [77.69907504222242, 12.915122753430449], [77.69857888921867, 12.91546321101082], [77.69768049726005, 12.916090123714733], [77.69676985159563, 12.916736361475738], [77.69582653961739, 12.91741714645006], [77.69495277369988, 12.918058466251068], [77.69408702737515, 12.918704724316717], [77.69399225645402, 12.918776675526534], [77.69322229954477, 12.919351609545105], [77.69234951619114, 12.92001451641083], [77.69063416809448, 12.921339793803927], [77.69043920573706, 12.921493034255455], [77.69024102373749, 12.921651499770185], [77.68971056347054, 12.922082973201944], [77.6887047826349, 12.92291519350687], [77.68757601594805, 12.923865367815013], [77.68650645131264, 12.924781394702077], [77.68456184931335, 12.926476000738743], [77.68454803951555, 12.926488248028887], [77.68413924040179, 12.926863692007284], [77.68295686976793, 12.927968747559538], [77.68199651082502, 12.928882248737404], [77.68120034304053, 12.92965308965977], [77.68003434843517, 12.930802232825563], [77.67974552470595, 12.931092019492304], [77.6790536435704, 12.931798756962003], [77.67833190265125, 12.932549381214406], [77.67708811588055, 12.933866541199144], [77.67701918267242, 12.9339408827023], [77.67633074233322, 12.934697006843432], [77.67554798545808, 12.935572633559453], [77.67493404549607, 12.936272201947173], [77.6747534862901, 12.936302650634392], [77.67326848637644, 12.936567156297695], [77.67180142849682, 12.936842718297113], [77.6700819534119, 12.937182810559804], [77.6691324857155, 12.937390097772266], [77.6671274281266, 12.937848849542329], [77.66617697611625, 12.938056469634882], [77.66516595366951, 12.938310698457713], [77.65805943287054, 12.94017800114385], [77.64056318153852, 12.944996158387177], [77.64008484887567, 12.945120194662431], [77.63586206388115, 12.945109152076935], [77.63085725639479, 12.945015961575884], [77.62955395181666, 12.945013428690443], [77.62282873851812, 12.944884519891836], [77.62007351674241, 12.94478226460699], [77.61620237717968, 12.944568958855461], [77.61437560900578, 12.944726715802746], [77.61332667808601, 12.944836116351789], [77.61327569392034, 12.944842349301217], [77.61162427565941, 12.945014716294162], [77.61102261381177, 12.94508825980598], [77.61101354124189, 12.945089207588358], [77.61028524994742, 12.945178265188211], [77.61003371950308, 12.945213512628028], [77.6091166122895, 12.945325720360733], [77.609034749467, 12.9453371913516], [77.60876571588017, 12.945370122574364], [77.60818319707319, 12.946104204583483], [77.60792799550408, 12.946414329728135], [77.60738407733099, 12.947100035300592], [77.60595679951034, 12.948833343348765], [77.6055455429149, 12.949313665706901], [77.60479718804895, 12.950153977406812], [77.60425420238774, 12.950739675756363], [77.60393987566194, 12.951092723554392], [77.60198546001536, 12.953198976937028], [77.60135460454583, 12.95382168616767], [77.60063256074844, 12.954503169689911], [77.59988691817333, 12.955175324211591], [77.59906411004194, 12.95588283876893], [77.59795435880815, 12.956791738899717], [77.59557250594817, 12.958646143832842], [77.59392842164253, 12.95909343685945], [77.59317666223212, 12.959275803927186], [77.5930616371207, 12.95930027592324], [77.59188597755389, 12.959481249554115], [77.59080265859953, 12.959615181904766], [77.59066075229754, 12.959710602674502], [77.5906374068574, 12.959727383870602], [77.58655742591291, 12.962470800528411], [77.58571045344495, 12.963094620587421], [77.5826912105798, 12.965112391963258], [77.58137199706397, 12.966118877227027], [77.58081514547702, 12.966689317608198], [77.58013258019297, 12.967510055069061], [77.57930287665252, 12.968712707666127], [77.57924917912352, 12.968811590987928], [77.57837706077598, 12.970074798109911], [77.57764153409912, 12.970886320785139], [77.57753295107567, 12.970975038071062], [77.576929606537, 12.97164363678813], [77.57662427014905, 12.971883833674367], [77.57618857020512, 12.972375448993636], [77.57584544200897, 12.972636243084677], [77.57549592641284, 12.973041440210238], [77.5750378375836, 12.973375922654853], [77.57489917808081, 12.973545622485014], [77.57440437671167, 12.9738969064928], [77.57406782935139, 12.974356010510844], [77.57381715539462, 12.974505004598178], [77.5732586737682, 12.975398989988065], [77.57224335029272, 12.97528086822713], [77.57173809509953, 12.974538087764042], [77.5711247413643, 12.974163775189046], [77.5700218187726, 12.972924326639705], [77.56993659232707, 12.972788590964965], [77.5691025304526, 12.971835220659148], [77.56829000076367, 12.97064258432351], [77.56810608507452, 12.970309505274747], [77.5673318159865, 12.969160483370088], [77.56710937487007, 12.968771646350541], [77.56687758495019, 12.968424922978148], [77.56663426455492, 12.968002790821837], [77.56613486401088, 12.967489675055345], [77.56580655364856, 12.967109473834798], [77.56529399915722, 12.966580573305075], [77.56455386191227, 12.965728822302054], [77.56413754977801, 12.965295669344473], [77.56197159181737, 12.962813078333058], [77.56152431134608, 12.962519516897133], [77.5615080611494, 12.96250971776371], [77.56057069218767, 12.961894721269017], [77.55950456082296, 12.961138619765277], [77.55922091021826, 12.960922503451846], [77.55822981507069, 12.960055899024795], [77.55804931346589, 12.959887589390688], [77.55734743715162, 12.958937801125558], [77.55716683824414, 12.958677573255061], [77.55514954913318, 12.955949295539419], [77.55524779877345, 12.955264144367227], [77.5552960623213, 12.954846868542306], [77.55538430003767, 12.953844603466838], [77.55543186013222, 12.953057573112613], [77.55546878202178, 12.951933518271225], [77.55547156968022, 12.951403836012478], [77.55549032453946, 12.950821699103255], [77.5554949572556, 12.94981790426867], [77.55527279376672, 12.940145588653685], [77.5551248770942, 12.936969258531814], [77.55502613893646, 12.932925318275075], [77.55342285704064, 12.931047998390577], [77.55282813810936, 12.930378370519234], [77.54942224234968, 12.92638565198903], [77.54604534079004, 12.922270314271485], [77.54585390205662, 12.921871678860692], [77.54508236027071, 12.920189873972468], [77.54392571753021, 12.918069843560085], [77.54338908949481, 12.917045404648027], [77.54178489309189, 12.914103805618158], [77.54172029859703, 12.91397058171234], [77.54055966291077, 12.913361414560214], [77.53141957391904, 12.908751752404704], [77.53099939875203, 12.908531101767052], [77.52944785056846, 12.907748257761082], [77.52561501587556, 12.905734836370165], [77.52162408252886, 12.902171672335918], [77.52089308055348, 12.901433247140536], [77.51993793099545, 12.900304529475138], [77.51753643513615, 12.897375681223611], [77.51606768266083, 12.896117610059331], [77.51513278668595, 12.895041520639333], [77.51348838079568, 12.89320586581098], [77.51277432527489, 12.892432707003584], [77.5123023933062, 12.891936994121327]]]}, "properties": {"line_id": "line_0", "name": "Purple Line"}}